{"type":"Feature","properties":{"name":"Greater London"},"geometry":{"type":"Polygon","coordinates":[[[-0.51052,51.46754],[-0.51051,51.46751],[-0.5105,51.46749],[-0.51049,51.46746],[-0.51046,51.46744],[-0.51043,51.46742],[-0.5104,51.46741],[-0.51036,51.4674],[-0.51031,51.4674],[-0.50044,51.46702],[-0.49717,51.4658],[-0.49406,51.46267],[-0.49404,51.46265],[-0.494,51.46263],[-0.49396,51.46262],[-0.49392,51.46261],[-0.49387,51.46261],[-0.49383,51.46261],[-0.49225,51.46285],[-0.48596,51.46121],[-0.48592,51.4612],[-0.48588,51.4612],[-0.47715,51.4612],[-0.47375,51.45857],[-0.47372,51.45855],[-0.47369,51.45853],[-0.47366,51.45852],[-0.47362,51.45852],[-0.4611,51.45706],[-0.45882,51.45643],[-0.45883,51.45642],[-0.45885,51.4564],[-0.45887,51.45638],[-0.45888,51.45636],[-0.45951,51.45284],[-0.46139,51.45254],[-0.46143,51.45253],[-0.46147,51.45252],[-0.4615,51.4525],[-0.46152,51.45248],[-0.46154,51.45246],[-0.46155,51.45244],[-0.46156,51.45241],[-0.46172,51.44901],[-0.46171,51.44899],[-0.4617,51.44896],[-0.46168,51.44894],[-0.46165,51.44891],[-0.46162,51.4489],[-0.46158,51.44888],[-0.46154,51.44888],[-0.46149,51.44888],[-0.4577,51.44897],[-0.45768,51.44302],[-0.45767,51.44299],[-0.45766,51.44297],[-0.45764,51.44295],[-0.45761,51.44293],[-0.45758,51.44291],[-0.45565,51.44208],[-0.4567,51.43814],[-0.45671,51.43812],[-0.4567,51.43809],[-0.45669,51.43806],[-0.45666,51.43804],[-0.45663,51.43802],[-0.4566,51.438],[-0.45656,51.43799],[-0.45651,51.43799],[-0.45647,51.43799],[-0.45643,51.43799],[-0.44658,51.43982],[-0.44794,51.43504],[-0.44795,51.43502],[-0.44794,51.43499],[-0.44793,51.43497],[-0.44791,51.43495],[-0.44789,51.43493],[-0.44786,51.43491],[-0.44782,51.4349],[-0.44779,51.43489],[-0.44775,51.43489],[-0.43999,51.43452],[-0.44022,51.43064],[-0.44021,51.43062],[-0.4402,51.43059],[-0.44019,51.43057],[-0.44016,51.43055],[-0.44013,51.43053],[-0.4401,51.43052],[-0.44006,51.43051],[-0.42961,51.42868],[-0.42957,51.42868],[-0.42953,51.42868],[-0.42949,51.42868],[-0.42945,51.42869],[-0.42941,51.42871],[-0.42938,51.42872],[-0.42936,51.42875],[-0.42934,51.42877],[-0.42934,51.42879],[-0.42925,51.42926],[-0.42788,51.42914],[-0.42784,51.42914],[-0.4278,51.42914],[-0.42776,51.42915],[-0.42772,51.42916],[-0.42769,51.42918],[-0.42766,51.4292],[-0.42765,51.42923],[-0.42764,51.42925],[-0.42731,51.43071],[-0.42351,51.43076],[-0.42345,51.43076],[-0.42341,51.43077],[-0.41908,51.43223],[-0.41759,51.43186],[-0.41811,51.43109],[-0.41812,51.43107],[-0.41813,51.43104],[-0.41812,51.43101],[-0.41811,51.43099],[-0.41809,51.43096],[-0.41806,51.43094],[-0.41802,51.43093],[-0.41799,51.43091],[-0.41411,51.43001],[-0.41457,51.42936],[-0.41458,51.42934],[-0.41459,51.42931],[-0.41458,51.42929],[-0.41457,51.42926],[-0.41455,51.42924],[-0.41453,51.42922],[-0.41449,51.4292],[-0.41446,51.42919],[-0.41275,51.42873],[-0.4133,51.42792],[-0.41331,51.4279],[-0.41332,51.42787],[-0.41331,51.42784],[-0.4133,51.42782],[-0.41328,51.42779],[-0.41325,51.42777],[-0.41321,51.42776],[-0.41317,51.42774],[-0.41104,51.42725],[-0.40865,51.4238],[-0.40863,51.42378],[-0.40861,51.42376],[-0.40858,51.42374],[-0.40605,51.42257],[-0.40601,51.42256],[-0.40597,51.42255],[-0.40593,51.42255],[-0.40588,51.42255],[-0.3978,51.42342],[-0.39141,51.42221],[-0.39137,51.42221],[-0.39133,51.42221],[-0.39129,51.42221],[-0.39125,51.42222],[-0.39121,51.42223],[-0.39119,51.42225],[-0.38696,51.42008],[-0.38786,51.41943],[-0.38789,51.41941],[-0.3879,51.41939],[-0.38791,51.41936],[-0.38792,51.41934],[-0.38791,51.41931],[-0.38639,51.41443],[-0.3903,51.41448],[-0.39034,51.41448],[-0.39038,51.41448],[-0.39041,51.41447],[-0.39044,51.41445],[-0.39047,51.41443],[-0.39049,51.41441],[-0.39051,51.41439],[-0.39052,51.41436],[-0.39052,51.41434],[-0.38987,51.4107],[-0.38987,51.41067],[-0.38985,51.41065],[-0.38983,51.41063],[-0.3898,51.41061],[-0.38977,51.41059],[-0.38973,51.41058],[-0.38969,51.41058],[-0.38398,51.41001],[-0.38357,51.40853],[-0.38356,51.4085],[-0.38355,51.40848],[-0.38352,51.40846],[-0.38349,51.40844],[-0.38346,51.40843],[-0.38342,51.40842],[-0.3795,51.40772],[-0.37945,51.40772],[-0.3794,51.40772],[-0.37312,51.40848],[-0.37306,51.40849],[-0.36307,51.41178],[-0.35771,51.41136],[-0.35556,51.41068],[-0.35533,51.4098],[-0.35532,51.40978],[-0.35531,51.40975],[-0.35529,51.40973],[-0.35526,51.40972],[-0.34935,51.40653],[-0.34933,51.40652],[-0.34066,51.40293],[-0.32886,51.39224],[-0.32883,51.39222],[-0.32879,51.3922],[-0.32875,51.39219],[-0.32467,51.39138],[-0.32463,51.39138],[-0.32459,51.39138],[-0.32455,51.39138],[-0.32451,51.39139],[-0.31818,51.39321],[-0.31814,51.39322],[-0.31811,51.39324],[-0.31776,51.39349],[-0.3144,51.39025],[-0.31695,51.38868],[-0.31698,51.38866],[-0.317,51.38864],[-0.31701,51.38861],[-0.31702,51.38859],[-0.31701,51.38856],[-0.31701,51.38854],[-0.31699,51.38851],[-0.31615,51.38757],[-0.31612,51.38755],[-0.31609,51.38753],[-0.31605,51.38752],[-0.31601,51.38751],[-0.31596,51.38751],[-0.31592,51.38751],[-0.31588,51.38752],[-0.31584,51.38753],[-0.31323,51.38865],[-0.31191,51.38738],[-0.31112,51.38625],[-0.31189,51.38591],[-0.31193,51.38589],[-0.31195,51.38587],[-0.31197,51.38585],[-0.31198,51.38583],[-0.31199,51.3858],[-0.31198,51.38577],[-0.31197,51.38575],[-0.31195,51.38573],[-0.31076,51.38462],[-0.30947,51.38043],[-0.30946,51.38041],[-0.30944,51.38039],[-0.30942,51.38037],[-0.30939,51.38035],[-0.30935,51.38034],[-0.30932,51.38033],[-0.30928,51.38033],[-0.30924,51.38033],[-0.30865,51.38036],[-0.3076,51.37839],[-0.30885,51.37557],[-0.31437,51.37478],[-0.31441,51.37477],[-0.31445,51.37476],[-0.31448,51.37474],[-0.31709,51.37302],[-0.31711,51.373],[-0.31713,51.37299],[-0.31714,51.37296],[-0.31822,51.37033],[-0.31823,51.3703],[-0.31849,51.36353],[-0.32014,51.35969],[-0.32392,51.3545],[-0.32817,51.35224],[-0.3282,51.35222],[-0.32823,51.35219],[-0.33072,51.34848],[-0.33073,51.34846],[-0.33074,51.34843],[-0.33073,51.34841],[-0.33072,51.34839],[-0.32836,51.34401],[-0.32835,51.34398],[-0.32832,51.34396],[-0.32829,51.34394],[-0.32826,51.34393],[-0.32822,51.34392],[-0.32818,51.34392],[-0.32775,51.34389],[-0.32911,51.34082],[-0.32912,51.34079],[-0.32993,51.33278],[-0.32992,51.33275],[-0.32933,51.3303],[-0.33091,51.32894],[-0.33093,51.32892],[-0.33095,51.3289],[-0.33096,51.32887],[-0.33095,51.32885],[-0.33095,51.32882],[-0.33034,51.32748],[-0.33032,51.32746],[-0.33029,51.32743],[-0.33026,51.32741],[-0.32771,51.32621],[-0.32768,51.3262],[-0.32764,51.32619],[-0.3276,51.32619],[-0.32756,51.32619],[-0.32752,51.32619],[-0.31923,51.32768],[-0.31919,51.32769],[-0.31915,51.32771],[-0.30573,51.33516],[-0.30569,51.33518],[-0.30567,51.33521],[-0.30473,51.33671],[-0.30472,51.33674],[-0.30472,51.33678],[-0.3052,51.33947],[-0.30383,51.343],[-0.30051,51.34641],[-0.3005,51.34642],[-0.299,51.34829],[-0.29276,51.35229],[-0.29273,51.3523],[-0.29271,51.35232],[-0.2927,51.35234],[-0.29089,51.35651],[-0.28491,51.36114],[-0.28489,51.36116],[-0.28487,51.36118],[-0.28486,51.36121],[-0.28486,51.36123],[-0.28487,51.36126],[-0.28489,51.36128],[-0.28491,51.3613],[-0.28494,51.36132],[-0.28498,51.36134],[-0.28779,51.36231],[-0.2809,51.36699],[-0.27645,51.36871],[-0.27641,51.36872],[-0.27639,51.36874],[-0.27202,51.37241],[-0.26456,51.37552],[-0.26452,51.37554],[-0.26231,51.37717],[-0.26228,51.37719],[-0.26227,51.37722],[-0.26101,51.37946],[-0.25399,51.37865],[-0.25395,51.37865],[-0.25391,51.37865],[-0.25387,51.37865],[-0.24786,51.38004],[-0.24515,51.37991],[-0.24476,51.37049],[-0.24561,51.36687],[-0.24562,51.36684],[-0.24561,51.36682],[-0.2456,51.3668],[-0.24558,51.36677],[-0.24555,51.36675],[-0.24552,51.36674],[-0.24548,51.36673],[-0.24545,51.36672],[-0.2412,51.36614],[-0.24115,51.36614],[-0.24111,51.36614],[-0.24107,51.36614],[-0.24103,51.36616],[-0.241,51.36617],[-0.24097,51.36619],[-0.24095,51.36622],[-0.24094,51.36624],[-0.24072,51.3669],[-0.23713,51.36678],[-0.23395,51.36522],[-0.23392,51.36521],[-0.23388,51.3652],[-0.23384,51.3652],[-0.2338,51.3652],[-0.23376,51.3652],[-0.23372,51.36521],[-0.23369,51.36522],[-0.23366,51.36524],[-0.23363,51.36526],[-0.23313,51.36581],[-0.22704,51.36252],[-0.22348,51.3581],[-0.22223,51.35377],[-0.22231,51.35133],[-0.2223,51.35131],[-0.22229,51.35128],[-0.22228,51.35126],[-0.22225,51.35124],[-0.22222,51.35122],[-0.22219,51.35121],[-0.22215,51.3512],[-0.22211,51.3512],[-0.22207,51.3512],[-0.22058,51.35128],[-0.21867,51.34663],[-0.2175,51.34344],[-0.22996,51.33663],[-0.22999,51.33661],[-0.23001,51.33659],[-0.23003,51.33657],[-0.23004,51.33654],[-0.23003,51.33651],[-0.23003,51.33649],[-0.23001,51.33647],[-0.22999,51.33644],[-0.22111,51.32978],[-0.22108,51.32976],[-0.22104,51.32975],[-0.221,51.32974],[-0.22096,51.32974],[-0.22092,51.32974],[-0.21407,51.33022],[-0.21402,51.33022],[-0.21398,51.33023],[-0.21395,51.33025],[-0.21392,51.33027],[-0.21389,51.33029],[-0.2117,51.33325],[-0.21169,51.33328],[-0.21168,51.3333],[-0.21169,51.33333],[-0.21169,51.33335],[-0.21278,51.33548],[-0.20226,51.33994],[-0.20126,51.33976],[-0.20122,51.33976],[-0.20117,51.33976],[-0.20113,51.33976],[-0.20108,51.33978],[-0.20105,51.33979],[-0.20102,51.33982],[-0.19724,51.34343],[-0.18747,51.34068],[-0.18214,51.33776],[-0.17432,51.33314],[-0.17307,51.32999],[-0.17305,51.32996],[-0.17303,51.32994],[-0.173,51.32992],[-0.17296,51.3299],[-0.17292,51.32989],[-0.17288,51.32989],[-0.17283,51.32989],[-0.17014,51.33009],[-0.17027,51.3295],[-0.17028,51.32947],[-0.17027,51.32945],[-0.17026,51.32942],[-0.17024,51.3294],[-0.17021,51.32938],[-0.17018,51.32937],[-0.17014,51.32936],[-0.1701,51.32935],[-0.17006,51.32935],[-0.17002,51.32935],[-0.16321,51.33012],[-0.16254,51.32895],[-0.16447,51.32825],[-0.1645,51.32823],[-0.16453,51.32821],[-0.16455,51.32819],[-0.16457,51.32817],[-0.16457,51.32815],[-0.16458,51.32812],[-0.16457,51.3281],[-0.16381,51.32629],[-0.16427,51.32616],[-0.16431,51.32615],[-0.16434,51.32613],[-0.16437,51.32611],[-0.16438,51.32608],[-0.16439,51.32606],[-0.1644,51.32603],[-0.16439,51.326],[-0.16437,51.32598],[-0.16435,51.32596],[-0.16076,51.32316],[-0.16073,51.32314],[-0.16069,51.32312],[-0.16065,51.32311],[-0.16061,51.32311],[-0.16056,51.32311],[-0.16052,51.32311],[-0.16048,51.32312],[-0.15871,51.32379],[-0.15686,51.3216],[-0.16198,51.31975],[-0.16201,51.31973],[-0.16204,51.31971],[-0.16207,51.31969],[-0.16208,51.31966],[-0.16209,51.31963],[-0.16208,51.3196],[-0.16135,51.31734],[-0.16134,51.31732],[-0.16132,51.3173],[-0.1613,51.31728],[-0.16127,51.31726],[-0.16123,51.31725],[-0.1612,51.31724],[-0.15973,51.317],[-0.15742,51.31341],[-0.15853,51.31103],[-0.15853,51.311],[-0.15853,51.31098],[-0.15853,51.31095],[-0.15851,51.31093],[-0.15849,51.3109],[-0.15846,51.31089],[-0.15842,51.31087],[-0.15838,51.31086],[-0.15465,51.31017],[-0.15735,51.30677],[-0.15737,51.30675],[-0.15737,51.30672],[-0.15737,51.3067],[-0.15737,51.30667],[-0.15735,51.30665],[-0.15733,51.30663],[-0.1573,51.30661],[-0.15727,51.30659],[-0.15723,51.30658],[-0.15719,51.30658],[-0.15495,51.30636],[-0.15788,51.30453],[-0.15791,51.3045],[-0.15793,51.30448],[-0.15794,51.30445],[-0.15795,51.30443],[-0.15794,51.3044],[-0.15792,51.30437],[-0.1555,51.30121],[-0.15548,51.30119],[-0.15545,51.30117],[-0.15541,51.30115],[-0.15537,51.30114],[-0.15533,51.30114],[-0.15528,51.30114],[-0.15524,51.30114],[-0.15338,51.30153],[-0.14993,51.30009],[-0.14989,51.30008],[-0.14986,51.30007],[-0.14982,51.30007],[-0.14978,51.30007],[-0.14974,51.30007],[-0.1497,51.30008],[-0.14844,51.30055],[-0.14572,51.29971],[-0.14568,51.2997],[-0.14564,51.2997],[-0.1456,51.2997],[-0.14556,51.2997],[-0.14552,51.29971],[-0.14549,51.29972],[-0.14546,51.29974],[-0.14363,51.301],[-0.14303,51.29994],[-0.14302,51.29991],[-0.143,51.29989],[-0.14297,51.29988],[-0.14294,51.29986],[-0.1429,51.29985],[-0.14092,51.29942],[-0.14088,51.29942],[-0.14083,51.29942],[-0.14079,51.29942],[-0.14075,51.29943],[-0.13745,51.30058],[-0.13653,51.29824],[-0.13651,51.29821],[-0.13649,51.29819],[-0.13646,51.29817],[-0.13643,51.29815],[-0.13639,51.29814],[-0.13634,51.29814],[-0.1363,51.29814],[-0.13452,51.29824],[-0.13134,51.29544],[-0.13166,51.29475],[-0.13167,51.29472],[-0.13166,51.29469],[-0.13165,51.29466],[-0.13072,51.29307],[-0.13069,51.29304],[-0.12646,51.28946],[-0.12448,51.2867],[-0.12445,51.28668],[-0.12443,51.28666],[-0.12439,51.28664],[-0.12435,51.28663],[-0.12431,51.28663],[-0.12426,51.28663],[-0.11775,51.28696],[-0.11771,51.28696],[-0.11767,51.28697],[-0.11763,51.28699],[-0.1176,51.28701],[-0.11757,51.28703],[-0.11756,51.28706],[-0.11666,51.28949],[-0.11441,51.29145],[-0.11439,51.29147],[-0.11438,51.2915],[-0.11437,51.29152],[-0.11438,51.29155],[-0.11456,51.29228],[-0.11106,51.29212],[-0.11101,51.29212],[-0.11096,51.29212],[-0.11092,51.29214],[-0.09415,51.29933],[-0.09412,51.29935],[-0.09409,51.29937],[-0.09407,51.29939],[-0.09406,51.29942],[-0.09405,51.29944],[-0.09406,51.29947],[-0.09407,51.29949],[-0.09409,51.29952],[-0.09412,51.29954],[-0.09415,51.29955],[-0.09419,51.29957],[-0.09673,51.3002],[-0.09711,51.30103],[-0.09577,51.30133],[-0.09454,51.30052],[-0.0945,51.3005],[-0.09447,51.30049],[-0.09442,51.30048],[-0.09438,51.30048],[-0.09434,51.30048],[-0.0943,51.30049],[-0.09108,51.30135],[-0.09104,51.30136],[-0.09101,51.30138],[-0.09098,51.3014],[-0.09096,51.30142],[-0.09095,51.30144],[-0.09094,51.30147],[-0.09094,51.30334],[-0.08847,51.30513],[-0.08844,51.30515],[-0.08843,51.30518],[-0.08842,51.3052],[-0.08841,51.30523],[-0.08859,51.30716],[-0.08179,51.31054],[-0.08175,51.31057],[-0.08173,51.31059],[-0.08171,51.31062],[-0.0817,51.31065],[-0.08164,51.31276],[-0.08165,51.31278],[-0.08166,51.31281],[-0.08167,51.31283],[-0.08445,51.31583],[-0.0787,51.31802],[-0.07866,51.31804],[-0.07863,51.31806],[-0.07861,51.31809],[-0.0786,51.31811],[-0.07859,51.31814],[-0.07863,51.31967],[-0.07115,51.32106],[-0.07022,51.31886],[-0.0702,51.31883],[-0.07018,51.31881],[-0.07015,51.31879],[-0.07011,51.31877],[-0.07007,51.31876],[-0.07003,51.31876],[-0.06409,51.31847],[-0.06404,51.31847],[-0.064,51.31847],[-0.06396,51.31849],[-0.05622,51.32151],[-0.05496,51.32114],[-0.05492,51.32113],[-0.05488,51.32113],[-0.05484,51.32113],[-0.05481,51.32113],[-0.05477,51.32114],[-0.05119,51.32233],[-0.05115,51.32234],[-0.05113,51.32236],[-0.0511,51.32238],[-0.05109,51.32241],[-0.0496,51.32513],[-0.04786,51.32511],[-0.04781,51.32511],[-0.04777,51.32511],[-0.04774,51.32513],[-0.0477,51.32514],[-0.04767,51.32516],[-0.04765,51.32518],[-0.04764,51.32521],[-0.04763,51.32523],[-0.04764,51.32526],[-0.04852,51.32874],[-0.04853,51.32877],[-0.04855,51.3288],[-0.05082,51.33087],[-0.05007,51.33253],[-0.0419,51.33368],[-0.04186,51.33369],[-0.04183,51.3337],[-0.04179,51.33372],[-0.04177,51.33374],[-0.04175,51.33376],[-0.03961,51.33716],[-0.0378,51.33855],[-0.03283,51.33731],[-0.03279,51.33731],[-0.03274,51.33731],[-0.0327,51.33731],[-0.02593,51.33842],[-0.02245,51.33808],[-0.02072,51.33706],[-0.01796,51.33288],[-0.01794,51.33286],[-0.01792,51.33284],[-0.01789,51.33282],[-0.0161,51.33192],[-0.01451,51.32974],[-0.01449,51.32972],[-0.01446,51.3297],[-0.01443,51.32969],[-0.01439,51.32968],[-0.01435,51.32967],[-0.01431,51.32967],[-0.01427,51.32967],[-0.01423,51.32967],[-0.0142,51.32969],[-0.01416,51.3297],[-0.01414,51.32972],[-0.01412,51.32974],[-0.0141,51.32977],[-0.01339,51.33144],[-0.0105,51.33299],[-0.01047,51.33301],[-0.01045,51.33303],[-0.01043,51.33305],[-0.01043,51.33307],[-0.01042,51.3331],[-0.01043,51.33312],[-0.01044,51.33314],[-0.01067,51.33346],[-0.00846,51.33375],[-0.00721,51.33357],[-0.00016,51.3288],[-0.00013,51.32878],[-0.00009,51.32877],[-0.00005,51.32876],[-0.00001,51.32876],[0.00004,51.32876],[0.00216,51.32899],[0.00639,51.31562],[0.0064,51.3156],[0.00642,51.31557],[0.00645,51.31555],[0.00648,51.31554],[0.00652,51.31553],[0.00656,51.31552],[0.0066,51.31552],[0.00664,51.31552],[0.01009,51.31597],[0.0082,51.31039],[0.00819,51.31036],[0.0082,51.31033],[0.01482,51.29175],[0.01483,51.29173],[0.01485,51.2917],[0.01488,51.29168],[0.01491,51.29167],[0.01494,51.29166],[0.01498,51.29165],[0.01502,51.29165],[0.01912,51.29155],[0.01916,51.29155],[0.01921,51.29155],[0.01924,51.29157],[0.01928,51.29158],[0.01931,51.2916],[0.01933,51.29162],[0.01934,51.29165],[0.02119,51.29673],[0.02504,51.30207],[0.03294,51.30733],[0.04079,51.30262],[0.04082,51.30261],[0.04086,51.30259],[0.0409,51.30259],[0.04094,51.30259],[0.04098,51.30259],[0.04102,51.3026],[0.04106,51.30261],[0.04148,51.30278],[0.04212,51.30188],[0.04291,51.29903],[0.04292,51.299],[0.04294,51.29897],[0.04297,51.29895],[0.04301,51.29894],[0.04409,51.29851],[0.04221,51.2927],[0.0422,51.29267],[0.04221,51.29264],[0.04222,51.29262],[0.04224,51.2926],[0.04227,51.29258],[0.0423,51.29256],[0.04233,51.29255],[0.04237,51.29254],[0.04242,51.29254],[0.04246,51.29254],[0.0425,51.29254],[0.04254,51.29256],[0.04582,51.29386],[0.05074,51.29385],[0.05428,51.29198],[0.05432,51.29196],[0.05436,51.29195],[0.0544,51.29195],[0.05444,51.29195],[0.05448,51.29195],[0.05597,51.29223],[0.05835,51.28929],[0.05837,51.28927],[0.0584,51.28925],[0.05843,51.28923],[0.05847,51.28922],[0.05851,51.28922],[0.05855,51.28922],[0.05859,51.28922],[0.07344,51.29147],[0.08333,51.29212],[0.08338,51.29212],[0.08342,51.29213],[0.08346,51.29215],[0.09137,51.29672],[0.09139,51.29674],[0.09142,51.29676],[0.09143,51.29679],[0.09144,51.29681],[0.09143,51.29684],[0.09142,51.29687],[0.0914,51.29689],[0.09138,51.29691],[0.08657,51.30024],[0.08567,51.30254],[0.08565,51.30257],[0.08316,51.30555],[0.08498,51.30591],[0.08501,51.30592],[0.08505,51.30594],[0.08508,51.30595],[0.0851,51.30597],[0.08511,51.306],[0.08512,51.30602],[0.08513,51.30605],[0.08512,51.30607],[0.08437,51.308],[0.0849,51.30823],[0.08493,51.30824],[0.08496,51.30826],[0.08498,51.30829],[0.08499,51.30831],[0.085,51.30833],[0.08499,51.30836],[0.08498,51.30838],[0.08383,51.31051],[0.0853,51.31253],[0.08531,51.31257],[0.08588,51.31476],[0.08589,51.31479],[0.08588,51.31482],[0.0853,51.31599],[0.08797,51.31821],[0.09632,51.32117],[0.09635,51.32118],[0.09637,51.3212],[0.10037,51.32398],[0.1004,51.32401],[0.10042,51.32404],[0.10101,51.32547],[0.10334,51.32586],[0.10338,51.32587],[0.10342,51.32589],[0.10345,51.32591],[0.10503,51.32726],[0.10974,51.32655],[0.10978,51.32655],[0.10983,51.32655],[0.10987,51.32655],[0.10991,51.32657],[0.10994,51.32658],[0.10997,51.32661],[0.10999,51.32663],[0.11,51.32666],[0.11036,51.32786],[0.1142,51.32726],[0.11424,51.32726],[0.11428,51.32726],[0.11432,51.32726],[0.11436,51.32727],[0.1144,51.32729],[0.11443,51.32731],[0.11445,51.32733],[0.11593,51.32938],[0.11797,51.32953],[0.11801,51.32953],[0.11805,51.32954],[0.11809,51.32956],[0.11812,51.32958],[0.11814,51.32961],[0.11815,51.32963],[0.11816,51.32966],[0.11815,51.33057],[0.12189,51.33355],[0.12191,51.33357],[0.12193,51.3336],[0.12194,51.33362],[0.12193,51.33365],[0.12192,51.33368],[0.1219,51.3337],[0.12188,51.33372],[0.12024,51.33481],[0.11859,51.33834],[0.11917,51.33857],[0.1192,51.33858],[0.11923,51.33861],[0.11925,51.33863],[0.11926,51.33866],[0.11927,51.33869],[0.11926,51.33871],[0.11872,51.34001],[0.1187,51.34004],[0.11868,51.34006],[0.11865,51.34008],[0.11862,51.3401],[0.11858,51.34011],[0.11854,51.34011],[0.1185,51.34011],[0.11845,51.34011],[0.11748,51.33995],[0.11694,51.3413],[0.11747,51.3431],[0.11863,51.34404],[0.12528,51.34573],[0.13177,51.34537],[0.13692,51.34405],[0.13696,51.34404],[0.137,51.34404],[0.13705,51.34404],[0.13709,51.34405],[0.13713,51.34406],[0.13716,51.34408],[0.13718,51.3441],[0.1372,51.34412],[0.13721,51.34415],[0.13722,51.34418],[0.13721,51.34421],[0.13649,51.34586],[0.13958,51.34686],[0.13962,51.34687],[0.13965,51.34689],[0.13967,51.34692],[0.13969,51.34694],[0.13969,51.34697],[0.13969,51.34699],[0.13969,51.34702],[0.13967,51.34704],[0.13965,51.34707],[0.13903,51.34752],[0.14149,51.34945],[0.14151,51.34947],[0.14153,51.34949],[0.14154,51.34952],[0.14153,51.34954],[0.14153,51.34957],[0.14128,51.35008],[0.14277,51.35061],[0.1428,51.35063],[0.14283,51.35065],[0.14285,51.35067],[0.14287,51.35069],[0.14288,51.35072],[0.14313,51.35263],[0.14536,51.3557],[0.14537,51.35573],[0.14615,51.35819],[0.14616,51.35822],[0.14615,51.35825],[0.14614,51.35828],[0.14611,51.3583],[0.14608,51.35832],[0.14605,51.35834],[0.14601,51.35835],[0.14514,51.35852],[0.14564,51.36032],[0.14565,51.36034],[0.14564,51.36037],[0.14563,51.36039],[0.14561,51.36041],[0.14479,51.3612],[0.14529,51.3628],[0.14858,51.3663],[0.14859,51.36633],[0.1486,51.36635],[0.14861,51.36638],[0.1486,51.3664],[0.14858,51.36643],[0.14856,51.36645],[0.14853,51.36647],[0.14757,51.367],[0.14954,51.36897],[0.15144,51.36817],[0.15148,51.36816],[0.15152,51.36815],[0.15156,51.36815],[0.1516,51.36815],[0.15164,51.36815],[0.15168,51.36817],[0.15171,51.36818],[0.15174,51.3682],[0.15176,51.36822],[0.15177,51.36825],[0.15231,51.36966],[0.15232,51.36969],[0.15231,51.36971],[0.1523,51.36974],[0.15228,51.36976],[0.15225,51.36979],[0.15222,51.3698],[0.15218,51.36982],[0.15044,51.37024],[0.15146,51.37215],[0.15146,51.37217],[0.15147,51.3722],[0.15146,51.37222],[0.15145,51.37225],[0.15143,51.37227],[0.14991,51.37358],[0.15186,51.37527],[0.1525,51.37511],[0.15254,51.3751],[0.15258,51.3751],[0.15262,51.3751],[0.15267,51.37511],[0.1527,51.37512],[0.15274,51.37514],[0.15276,51.37516],[0.15278,51.37518],[0.15279,51.37521],[0.15349,51.37802],[0.1535,51.37804],[0.15349,51.37807],[0.15348,51.37809],[0.15346,51.37811],[0.15344,51.37813],[0.15341,51.37815],[0.15125,51.37915],[0.15139,51.37988],[0.1514,51.37991],[0.15139,51.37993],[0.15138,51.37996],[0.15136,51.37998],[0.15133,51.38],[0.1513,51.38001],[0.15126,51.38003],[0.15122,51.38003],[0.14994,51.38019],[0.15069,51.3816],[0.1507,51.38162],[0.15071,51.38164],[0.15073,51.38345],[0.15072,51.38347],[0.15071,51.3835],[0.1507,51.38352],[0.15067,51.38354],[0.15064,51.38356],[0.15061,51.38357],[0.15007,51.38374],[0.15071,51.386],[0.15072,51.38602],[0.15071,51.38605],[0.1507,51.38607],[0.14893,51.38868],[0.15009,51.39084],[0.15009,51.39086],[0.1501,51.39089],[0.15009,51.39091],[0.15007,51.39094],[0.15005,51.39096],[0.15002,51.39098],[0.14782,51.39221],[0.14796,51.39266],[0.16242,51.39236],[0.16247,51.39236],[0.16251,51.39236],[0.16254,51.39238],[0.16258,51.39239],[0.16261,51.39241],[0.16263,51.39243],[0.16264,51.39246],[0.16265,51.39249],[0.16264,51.39251],[0.16263,51.39254],[0.16261,51.39256],[0.15923,51.39587],[0.15748,51.40117],[0.15747,51.40119],[0.15549,51.40403],[0.15547,51.40405],[0.15545,51.40407],[0.1492,51.40852],[0.1495,51.409],[0.15294,51.40858],[0.15298,51.40858],[0.15302,51.40858],[0.15306,51.40859],[0.1531,51.4086],[0.15313,51.40861],[0.15316,51.40863],[0.15318,51.40866],[0.15319,51.40868],[0.15403,51.41124],[0.15404,51.41127],[0.15403,51.4113],[0.15402,51.41132],[0.154,51.41135],[0.15397,51.41137],[0.15393,51.41138],[0.1539,51.4114],[0.15385,51.4114],[0.14995,51.41178],[0.14944,51.41244],[0.1514,51.41501],[0.15141,51.41504],[0.15142,51.41507],[0.15132,51.4175],[0.15416,51.41764],[0.1542,51.41764],[0.15424,51.41765],[0.15428,51.41767],[0.15431,51.41769],[0.15434,51.41771],[0.15488,51.41842],[0.15489,51.41845],[0.1549,51.41847],[0.1549,51.41849],[0.15489,51.41852],[0.15487,51.41854],[0.15485,51.41856],[0.15482,51.41858],[0.15149,51.42046],[0.15322,51.42191],[0.15324,51.42193],[0.15326,51.42195],[0.15327,51.42198],[0.15402,51.42748],[0.15553,51.42891],[0.15555,51.42893],[0.15556,51.42896],[0.15609,51.4307],[0.15897,51.43012],[0.15968,51.42915],[0.15971,51.42913],[0.15974,51.42911],[0.15977,51.42909],[0.15981,51.42908],[0.15986,51.42908],[0.1599,51.42908],[0.15995,51.42908],[0.15999,51.42909],[0.16002,51.42911],[0.16078,51.42952],[0.16429,51.42847],[0.16432,51.42846],[0.16437,51.42846],[0.16441,51.42846],[0.16445,51.42846],[0.16448,51.42847],[0.16452,51.42849],[0.16455,51.4285],[0.16457,51.42853],[0.16693,51.43124],[0.16695,51.43126],[0.16695,51.43128],[0.16696,51.43131],[0.16695,51.43134],[0.16693,51.43136],[0.16691,51.43138],[0.16689,51.4314],[0.16685,51.43142],[0.16682,51.43143],[0.16652,51.4315],[0.16705,51.43186],[0.16707,51.43188],[0.16709,51.4319],[0.1671,51.43193],[0.16711,51.43195],[0.16696,51.43503],[0.17299,51.44305],[0.17595,51.4419],[0.17599,51.44188],[0.17603,51.44188],[0.17607,51.44188],[0.17611,51.44188],[0.17614,51.44188],[0.17618,51.44189],[0.17621,51.44191],[0.17879,51.44331],[0.17951,51.44302],[0.17955,51.443],[0.17959,51.443],[0.17964,51.443],[0.17968,51.443],[0.17972,51.44301],[0.17976,51.44302],[0.17979,51.44304],[0.18125,51.44407],[0.18438,51.44453],[0.18442,51.44454],[0.18446,51.44455],[0.18449,51.44457],[0.18767,51.44679],[0.1877,51.44681],[0.18772,51.44684],[0.18773,51.44687],[0.18789,51.44858],[0.19107,51.44867],[0.19111,51.44867],[0.19115,51.44868],[0.19118,51.44869],[0.19121,51.44871],[0.19124,51.44872],[0.19126,51.44875],[0.19323,51.4516],[0.19575,51.45219],[0.19582,51.45178],[0.19583,51.45175],[0.19585,51.45173],[0.19587,51.45171],[0.1959,51.45169],[0.19593,51.45167],[0.19597,51.45166],[0.19601,51.45166],[0.19605,51.45166],[0.19808,51.45172],[0.19812,51.45172],[0.19816,51.45173],[0.1982,51.45174],[0.20353,51.45423],[0.20356,51.45425],[0.20358,51.45427],[0.2036,51.45429],[0.20361,51.45432],[0.2041,51.45597],[0.20411,51.45599],[0.2041,51.45602],[0.20409,51.45604],[0.20407,51.45606],[0.20404,51.45608],[0.20401,51.4561],[0.20398,51.45611],[0.20394,51.45612],[0.20288,51.45626],[0.20352,51.45869],[0.21081,51.46239],[0.21084,51.4624],[0.21086,51.46242],[0.21088,51.46245],[0.21088,51.46247],[0.21089,51.4625],[0.21065,51.46565],[0.21174,51.46835],[0.21175,51.46837],[0.21174,51.4684],[0.21173,51.46843],[0.21171,51.46845],[0.20913,51.47096],[0.2121,51.47325],[0.21212,51.47327],[0.21214,51.47329],[0.21215,51.47332],[0.21215,51.47334],[0.21185,51.47503],[0.21663,51.47669],[0.21666,51.47671],[0.21669,51.47673],[0.21671,51.47675],[0.21673,51.47677],[0.21674,51.4768],[0.21717,51.47979],[0.22022,51.47989],[0.22026,51.47989],[0.2203,51.4799],[0.22033,51.47991],[0.22036,51.47993],[0.22391,51.48219],[0.22394,51.48221],[0.22396,51.48223],[0.22397,51.48226],[0.22398,51.48228],[0.22397,51.48231],[0.22396,51.48233],[0.22394,51.48236],[0.22391,51.48238],[0.22388,51.48239],[0.21738,51.48503],[0.21732,51.48505],[0.2127,51.48592],[0.21266,51.48592],[0.21261,51.48592],[0.19563,51.48434],[0.19543,51.48434],[0.21042,51.48576],[0.21046,51.48576],[0.2105,51.48578],[0.21054,51.48579],[0.21057,51.48581],[0.21059,51.48584],[0.2106,51.48586],[0.21061,51.48589],[0.21074,51.48999],[0.21215,51.49097],[0.21218,51.49099],[0.21219,51.49101],[0.2122,51.49104],[0.21334,51.49498],[0.21435,51.49594],[0.22172,51.49768],[0.22436,51.49721],[0.2244,51.49721],[0.22445,51.49721],[0.22449,51.49721],[0.22453,51.49722],[0.23013,51.49926],[0.23017,51.49928],[0.23019,51.4993],[0.23022,51.49932],[0.23023,51.49935],[0.23024,51.49938],[0.23023,51.4994],[0.23022,51.49943],[0.22688,51.50454],[0.22631,51.50587],[0.22679,51.50645],[0.23992,51.50713],[0.23996,51.50713],[0.24,51.50714],[0.24218,51.50786],[0.24222,51.50788],[0.24225,51.5079],[0.24227,51.50792],[0.24229,51.50794],[0.2423,51.50797],[0.24229,51.508],[0.24171,51.51053],[0.24171,51.51055],[0.24169,51.51058],[0.24167,51.5106],[0.24164,51.51061],[0.2416,51.51063],[0.24055,51.51098],[0.24028,51.51319],[0.24132,51.51365],[0.24136,51.51367],[0.24138,51.51369],[0.2414,51.51371],[0.24141,51.51374],[0.24142,51.51376],[0.24141,51.51379],[0.2414,51.51381],[0.23758,51.51919],[0.24493,51.51864],[0.24497,51.51864],[0.24501,51.51864],[0.24505,51.51865],[0.24509,51.51866],[0.24512,51.51868],[0.24514,51.5187],[0.24516,51.51872],[0.24517,51.51874],[0.24518,51.51877],[0.24517,51.51879],[0.24471,51.5204],[0.2447,51.52043],[0.24468,51.52046],[0.24465,51.52048],[0.24461,51.52049],[0.24457,51.52051],[0.24099,51.52132],[0.24097,51.52194],[0.243,51.52423],[0.24581,51.52341],[0.24585,51.5234],[0.24589,51.5234],[0.24593,51.5234],[0.24597,51.5234],[0.24601,51.52341],[0.24604,51.52343],[0.24607,51.52345],[0.24609,51.52347],[0.24734,51.52505],[0.24736,51.52508],[0.24737,51.5251],[0.24736,51.52513],[0.24735,51.52516],[0.24659,51.52641],[0.24905,51.5273],[0.24908,51.52732],[0.24911,51.52734],[0.24914,51.52736],[0.24915,51.52739],[0.24916,51.52741],[0.24923,51.52857],[0.25073,51.52868],[0.25368,51.51788],[0.25369,51.51785],[0.25371,51.51783],[0.25373,51.51781],[0.25377,51.51779],[0.2538,51.51778],[0.25385,51.51777],[0.25389,51.51777],[0.26374,51.51775],[0.26378,51.51775],[0.26382,51.51775],[0.26385,51.51777],[0.26389,51.51778],[0.26391,51.5178],[0.26393,51.51782],[0.26395,51.51784],[0.26396,51.51787],[0.26453,51.52163],[0.26524,51.52282],[0.26685,51.5232],[0.26689,51.52322],[0.26692,51.52323],[0.26695,51.52325],[0.26697,51.52328],[0.26698,51.5233],[0.26699,51.52333],[0.26703,51.52453],[0.26702,51.52455],[0.26701,51.52458],[0.267,51.5246],[0.26697,51.52462],[0.26694,51.52464],[0.26691,51.52465],[0.26567,51.52505],[0.26563,51.53205],[0.29785,51.5352],[0.29789,51.5352],[0.29793,51.53521],[0.29797,51.53523],[0.29799,51.53525],[0.29802,51.53527],[0.29803,51.5353],[0.29804,51.53532],[0.29803,51.53535],[0.29751,51.53757],[0.30096,51.53802],[0.301,51.53803],[0.30104,51.53804],[0.30107,51.53805],[0.3011,51.53807],[0.30112,51.53809],[0.30113,51.53812],[0.30114,51.53814],[0.30114,51.53817],[0.30103,51.53865],[0.32162,51.54039],[0.33141,51.54067],[0.33128,51.54008],[0.33128,51.54005],[0.33129,51.54002],[0.33131,51.54],[0.33133,51.53998],[0.33136,51.53996],[0.33139,51.53994],[0.33143,51.53993],[0.33147,51.53993],[0.33152,51.53993],[0.33156,51.53993],[0.33415,51.54039],[0.33419,51.5404],[0.33423,51.54042],[0.33426,51.54043],[0.33428,51.54046],[0.3343,51.54048],[0.33431,51.54051],[0.33431,51.54054],[0.3343,51.54056],[0.33428,51.54059],[0.33363,51.5413],[0.33418,51.54247],[0.33419,51.5425],[0.33419,51.54252],[0.33418,51.54254],[0.33417,51.54256],[0.33171,51.54601],[0.33169,51.54604],[0.33166,51.54606],[0.33162,51.54608],[0.33158,51.54609],[0.33154,51.54609],[0.33149,51.54609],[0.32933,51.546],[0.32974,51.54652],[0.32975,51.54654],[0.32976,51.54657],[0.32976,51.54659],[0.32975,51.54661],[0.32974,51.54664],[0.32826,51.54861],[0.3281,51.55102],[0.32809,51.55104],[0.32807,51.55107],[0.32805,51.55109],[0.3254,51.55315],[0.32537,51.55317],[0.32533,51.55319],[0.32529,51.5532],[0.32524,51.5532],[0.3252,51.5532],[0.32256,51.55295],[0.32234,51.55423],[0.32233,51.55426],[0.32231,51.55429],[0.32229,51.55431],[0.32225,51.55433],[0.32222,51.55434],[0.31916,51.5553],[0.31871,51.55682],[0.3187,51.55685],[0.31869,51.55687],[0.31866,51.55689],[0.31864,51.55691],[0.3186,51.55692],[0.31556,51.55794],[0.31331,51.56586],[0.3133,51.56589],[0.31329,51.56591],[0.31326,51.56593],[0.31323,51.56595],[0.3132,51.56596],[0.31316,51.56597],[0.31312,51.56597],[0.31308,51.56597],[0.29051,51.56447],[0.28701,51.57151],[0.28704,51.57348],[0.28703,51.57351],[0.28702,51.57353],[0.287,51.57356],[0.28697,51.57358],[0.28694,51.57359],[0.28534,51.57424],[0.28229,51.5789],[0.28227,51.57892],[0.27156,51.5891],[0.26962,51.59529],[0.27061,51.59729],[0.27062,51.59732],[0.27062,51.59735],[0.27016,51.59962],[0.27015,51.59964],[0.27013,51.59967],[0.2701,51.59969],[0.27007,51.59971],[0.27003,51.59972],[0.26998,51.59973],[0.25446,51.60171],[0.25686,51.60355],[0.25688,51.60357],[0.2569,51.6036],[0.25739,51.60481],[0.25806,51.60481],[0.2581,51.60481],[0.25814,51.60481],[0.25818,51.60483],[0.25821,51.60484],[0.25824,51.60486],[0.25826,51.60488],[0.25827,51.60491],[0.25828,51.60494],[0.25835,51.60642],[0.26323,51.60721],[0.26327,51.60722],[0.2633,51.60723],[0.26451,51.60775],[0.26454,51.60776],[0.26457,51.60778],[0.26459,51.60781],[0.2646,51.60783],[0.26461,51.60785],[0.26461,51.60788],[0.26439,51.60892],[0.26438,51.60894],[0.26436,51.60896],[0.26434,51.60899],[0.25303,51.61754],[0.25298,51.61756],[0.23752,51.6242],[0.2243,51.63186],[0.22426,51.63188],[0.22422,51.63189],[0.22418,51.63189],[0.22413,51.63189],[0.22409,51.63189],[0.22405,51.63188],[0.22401,51.63186],[0.22398,51.63184],[0.222,51.63026],[0.20364,51.62534],[0.19485,51.62587],[0.19479,51.62587],[0.18983,51.62526],[0.18979,51.62525],[0.18975,51.62524],[0.18972,51.62523],[0.18969,51.62521],[0.18967,51.62518],[0.18941,51.6248],[0.18861,51.62552],[0.18858,51.62554],[0.18855,51.62555],[0.18852,51.62556],[0.18848,51.62557],[0.18845,51.62557],[0.18607,51.62568],[0.18602,51.62568],[0.18598,51.62568],[0.18594,51.62567],[0.18591,51.62565],[0.18588,51.62563],[0.18586,51.62561],[0.18584,51.62559],[0.18583,51.62556],[0.18571,51.6246],[0.18139,51.62597],[0.18135,51.62598],[0.18131,51.62598],[0.18127,51.62598],[0.18123,51.62598],[0.18052,51.62586],[0.18048,51.62585],[0.18045,51.62584],[0.18042,51.62582],[0.18039,51.6258],[0.18037,51.62577],[0.18036,51.62575],[0.18014,51.62457],[0.16897,51.6216],[0.16563,51.62259],[0.1656,51.6226],[0.16557,51.6226],[0.156,51.62348],[0.15597,51.62348],[0.13824,51.6237],[0.13824,51.6237],[0.13824,51.6237],[0.13586,51.6237],[0.13581,51.6237],[0.13576,51.62369],[0.12914,51.62159],[0.12909,51.62157],[0.126,51.61977],[0.12598,51.61975],[0.12596,51.61973],[0.12417,51.61768],[0.11938,51.61557],[0.11691,51.61705],[0.11688,51.61706],[0.11684,51.61708],[0.1168,51.61708],[0.11676,51.61708],[0.11672,51.61708],[0.11668,51.61707],[0.11664,51.61706],[0.10958,51.61411],[0.10403,51.61276],[0.10367,51.61352],[0.10365,51.61354],[0.10363,51.61357],[0.1036,51.61359],[0.10356,51.6136],[0.10352,51.61361],[0.10347,51.61361],[0.10343,51.61361],[0.10339,51.61361],[0.10033,51.61292],[0.09832,51.61551],[0.09829,51.61553],[0.09826,51.61555],[0.09823,51.61557],[0.09819,51.61558],[0.09815,51.61558],[0.0981,51.61558],[0.09806,51.61558],[0.09802,51.61557],[0.09223,51.61372],[0.09219,51.61371],[0.09216,51.61369],[0.09214,51.61366],[0.09212,51.61364],[0.09211,51.61361],[0.09211,51.61358],[0.09212,51.61356],[0.09214,51.61353],[0.09462,51.61081],[0.09174,51.60832],[0.09172,51.60829],[0.09171,51.60827],[0.0917,51.60824],[0.09171,51.60821],[0.09238,51.60629],[0.08724,51.60466],[0.08468,51.60648],[0.08465,51.6065],[0.08461,51.60651],[0.08457,51.60652],[0.08013,51.60714],[0.08009,51.60714],[0.08005,51.60714],[0.08002,51.60714],[0.07998,51.60713],[0.07287,51.60486],[0.06272,51.60721],[0.05281,51.61215],[0.05276,51.61216],[0.04838,51.61343],[0.04874,51.61496],[0.05034,51.61629],[0.05428,51.61662],[0.05432,51.61662],[0.05436,51.61663],[0.0544,51.61665],[0.05443,51.61667],[0.05445,51.6167],[0.05446,51.61672],[0.05447,51.61675],[0.05446,51.61678],[0.05396,51.61834],[0.05395,51.61836],[0.05393,51.61839],[0.0539,51.61841],[0.05387,51.61842],[0.05383,51.61844],[0.05379,51.61844],[0.05375,51.61844],[0.0537,51.61844],[0.0429,51.61694],[0.04287,51.61693],[0.04283,51.61692],[0.04281,51.61691],[0.04096,51.61589],[0.03074,51.62339],[0.02932,51.6252],[0.02929,51.62522],[0.02926,51.62524],[0.02197,51.62893],[0.02238,51.62939],[0.02405,51.63075],[0.02407,51.63077],[0.02409,51.63079],[0.02599,51.63456],[0.026,51.63458],[0.026,51.63461],[0.02599,51.63463],[0.02598,51.63466],[0.025,51.63601],[0.02541,51.63729],[0.02542,51.63732],[0.02541,51.63735],[0.0254,51.63738],[0.02538,51.6374],[0.02535,51.63742],[0.02531,51.63744],[0.02527,51.63745],[0.02333,51.63785],[0.02298,51.64116],[0.02297,51.64118],[0.02296,51.64121],[0.02293,51.64123],[0.0229,51.64125],[0.02287,51.64127],[0.02283,51.64128],[0.02279,51.64128],[0.02275,51.64128],[0.02271,51.64128],[0.01746,51.64043],[0.00999,51.64161],[0.00995,51.64161],[0.00159,51.64184],[-0.00027,51.64381],[-0.0003,51.64383],[-0.00033,51.64385],[-0.00037,51.64386],[-0.00042,51.64387],[-0.00046,51.64387],[-0.00051,51.64387],[-0.00055,51.64386],[-0.00384,51.64293],[-0.00432,51.64362],[-0.00434,51.64365],[-0.00437,51.64367],[-0.0044,51.64368],[-0.00443,51.64369],[-0.00447,51.6437],[-0.00451,51.6437],[-0.00798,51.64377],[-0.00819,51.64451],[-0.00711,51.64614],[-0.0071,51.64616],[-0.00709,51.64619],[-0.0071,51.64622],[-0.00711,51.64624],[-0.00713,51.64626],[-0.00715,51.64628],[-0.00719,51.6463],[-0.00722,51.64631],[-0.00726,51.64632],[-0.0073,51.64632],[-0.01194,51.64639],[-0.01138,51.64978],[-0.01138,51.64979],[-0.01154,51.653],[-0.00868,51.66041],[-0.00867,51.66044],[-0.00868,51.66047],[-0.00869,51.6605],[-0.01122,51.6638],[-0.0103,51.66916],[-0.0103,51.66918],[-0.01031,51.6692],[-0.01115,51.67129],[-0.01007,51.67665],[-0.01007,51.67668],[-0.01081,51.68092],[-0.01082,51.68095],[-0.01084,51.68098],[-0.01087,51.681],[-0.0109,51.68102],[-0.01094,51.68103],[-0.01098,51.68104],[-0.01103,51.68104],[-0.01213,51.68105],[-0.04238,51.68311],[-0.04908,51.68444],[-0.04912,51.68444],[-0.04917,51.68444],[-0.04921,51.68444],[-0.0566,51.68317],[-0.06196,51.68318],[-0.06622,51.684],[-0.07884,51.68906],[-0.07889,51.68908],[-0.08381,51.69013],[-0.08384,51.69013],[-0.08388,51.69013],[-0.09472,51.69028],[-0.10476,51.69202],[-0.1048,51.69202],[-0.10483,51.69202],[-0.10973,51.69184],[-0.10978,51.69184],[-0.10982,51.69183],[-0.11801,51.68915],[-0.12173,51.68875],[-0.13535,51.68889],[-0.13539,51.68889],[-0.13543,51.68889],[-0.14936,51.6857],[-0.16341,51.68828],[-0.16345,51.68828],[-0.1635,51.68828],[-0.16354,51.68828],[-0.16358,51.68827],[-0.16362,51.68825],[-0.16365,51.68823],[-0.16367,51.68821],[-0.16368,51.68818],[-0.16369,51.68815],[-0.16381,51.68248],[-0.17256,51.67328],[-0.17527,51.67362],[-0.17531,51.67362],[-0.17535,51.67362],[-0.17539,51.67362],[-0.17542,51.6736],[-0.17546,51.67359],[-0.17548,51.67357],[-0.17551,51.67355],[-0.17552,51.67353],[-0.17553,51.6735],[-0.17562,51.67278],[-0.17697,51.67285],[-0.17701,51.67285],[-0.17705,51.67285],[-0.17709,51.67284],[-0.17713,51.67282],[-0.17716,51.6728],[-0.17718,51.67278],[-0.1772,51.67276],[-0.17721,51.67273],[-0.17721,51.6727],[-0.1772,51.67268],[-0.17694,51.67218],[-0.18218,51.66876],[-0.18781,51.66805],[-0.18785,51.66805],[-0.18789,51.66803],[-0.18792,51.66802],[-0.18794,51.668],[-0.18796,51.66798],[-0.19109,51.66416],[-0.19635,51.6656],[-0.19463,51.66829],[-0.19462,51.66832],[-0.19461,51.66834],[-0.19462,51.66837],[-0.19463,51.66839],[-0.19465,51.66842],[-0.19468,51.66844],[-0.19471,51.66845],[-0.19475,51.66847],[-0.1948,51.66847],[-0.19484,51.66847],[-0.19883,51.66838],[-0.19964,51.67025],[-0.19965,51.67027],[-0.19968,51.67029],[-0.1997,51.67031],[-0.19974,51.67033],[-0.19977,51.67034],[-0.19981,51.67034],[-0.19986,51.67034],[-0.20335,51.67029],[-0.20339,51.67029],[-0.20343,51.67028],[-0.20347,51.67027],[-0.2035,51.67025],[-0.20353,51.67023],[-0.20355,51.6702],[-0.20356,51.67018],[-0.20356,51.67015],[-0.20355,51.67012],[-0.20255,51.66806],[-0.20554,51.66877],[-0.20558,51.66877],[-0.20562,51.66877],[-0.20566,51.66877],[-0.2057,51.66876],[-0.20574,51.66875],[-0.20577,51.66874],[-0.2058,51.66872],[-0.20798,51.66683],[-0.20968,51.6677],[-0.20972,51.66772],[-0.20975,51.66773],[-0.20979,51.66773],[-0.20984,51.66773],[-0.20988,51.66773],[-0.20992,51.66772],[-0.20995,51.66771],[-0.21125,51.6671],[-0.21128,51.66708],[-0.21131,51.66706],[-0.21133,51.66703],[-0.21134,51.66701],[-0.21134,51.66698],[-0.21133,51.66695],[-0.21131,51.66693],[-0.20814,51.66295],[-0.2121,51.66154],[-0.21332,51.66245],[-0.21336,51.66247],[-0.21339,51.66248],[-0.21344,51.66249],[-0.21348,51.66249],[-0.21353,51.66249],[-0.21357,51.66249],[-0.21361,51.66247],[-0.21885,51.66028],[-0.21963,51.66079],[-0.21966,51.66081],[-0.2197,51.66082],[-0.21974,51.66083],[-0.21978,51.66083],[-0.21982,51.66083],[-0.21986,51.66083],[-0.2199,51.66082],[-0.21993,51.6608],[-0.22639,51.65741],[-0.22872,51.66007],[-0.22874,51.6601],[-0.22877,51.66011],[-0.22881,51.66013],[-0.22885,51.66014],[-0.22889,51.66014],[-0.22893,51.66014],[-0.22897,51.66014],[-0.22901,51.66013],[-0.2341,51.65848],[-0.23449,51.65909],[-0.23451,51.65911],[-0.23453,51.65913],[-0.23457,51.65915],[-0.2346,51.65916],[-0.23464,51.65917],[-0.23469,51.65917],[-0.23473,51.65917],[-0.23671,51.65894],[-0.23675,51.65894],[-0.23678,51.65893],[-0.23681,51.65891],[-0.23931,51.65756],[-0.24784,51.65543],[-0.25048,51.65621],[-0.25051,51.65622],[-0.25055,51.65622],[-0.2506,51.65622],[-0.25064,51.65622],[-0.25067,51.65621],[-0.25071,51.65619],[-0.25074,51.65618],[-0.25076,51.65616],[-0.25151,51.65532],[-0.25153,51.65529],[-0.25154,51.65527],[-0.25154,51.65524],[-0.25153,51.65522],[-0.25152,51.65519],[-0.2515,51.65517],[-0.25147,51.65515],[-0.25144,51.65514],[-0.25009,51.65459],[-0.25208,51.64729],[-0.25463,51.64383],[-0.2562,51.64366],[-0.25624,51.64366],[-0.25628,51.64364],[-0.25631,51.64363],[-0.25634,51.64361],[-0.25636,51.64358],[-0.25744,51.64204],[-0.26031,51.64268],[-0.26303,51.64493],[-0.26306,51.64495],[-0.26309,51.64497],[-0.26313,51.64498],[-0.26317,51.64498],[-0.26321,51.64498],[-0.26326,51.64498],[-0.2633,51.64497],[-0.26333,51.64496],[-0.26337,51.64494],[-0.26339,51.64492],[-0.26442,51.64376],[-0.26831,51.64396],[-0.26835,51.64396],[-0.26839,51.64396],[-0.26843,51.64395],[-0.26847,51.64394],[-0.26849,51.64392],[-0.26852,51.6439],[-0.26854,51.64387],[-0.26855,51.64385],[-0.26855,51.64382],[-0.26846,51.64249],[-0.27284,51.64223],[-0.27288,51.64223],[-0.27292,51.64222],[-0.27296,51.6422],[-0.27299,51.64218],[-0.27301,51.64216],[-0.27303,51.64214],[-0.27436,51.63917],[-0.27437,51.63914],[-0.27436,51.63911],[-0.27435,51.63908],[-0.27433,51.63906],[-0.27409,51.63883],[-0.2814,51.63851],[-0.28144,51.63851],[-0.28148,51.6385],[-0.28523,51.63724],[-0.29612,51.63562],[-0.30393,51.63664],[-0.30397,51.63664],[-0.30401,51.63664],[-0.30405,51.63664],[-0.30409,51.63662],[-0.30412,51.63661],[-0.30415,51.63659],[-0.30417,51.63656],[-0.30445,51.63615],[-0.30435,51.63637],[-0.30434,51.6364],[-0.30434,51.63642],[-0.30435,51.63645],[-0.30437,51.63647],[-0.30439,51.6365],[-0.30442,51.63651],[-0.30445,51.63653],[-0.31656,51.64069],[-0.3166,51.6407],[-0.31665,51.6407],[-0.31669,51.6407],[-0.31673,51.6407],[-0.31677,51.64069],[-0.31681,51.64068],[-0.31684,51.64066],[-0.31992,51.63837],[-0.32661,51.63688],[-0.32667,51.63686],[-0.3331,51.63398],[-0.33312,51.63397],[-0.33314,51.63395],[-0.33827,51.62974],[-0.33963,51.63093],[-0.33966,51.63095],[-0.33969,51.63096],[-0.33973,51.63098],[-0.33977,51.63098],[-0.33981,51.63098],[-0.33985,51.63098],[-0.33989,51.63097],[-0.33993,51.63096],[-0.34931,51.62706],[-0.35982,51.6254],[-0.35986,51.62539],[-0.3599,51.62538],[-0.35993,51.62536],[-0.36637,51.62116],[-0.37591,51.61835],[-0.38203,51.6176],[-0.38207,51.6176],[-0.3821,51.61758],[-0.38675,51.6158],[-0.40407,51.61336],[-0.41105,51.61397],[-0.41683,51.61664],[-0.41686,51.61665],[-0.4169,51.61666],[-0.41694,51.61666],[-0.42644,51.61717],[-0.44051,51.62024],[-0.44056,51.62024],[-0.44061,51.62024],[-0.44559,51.61979],[-0.44563,51.61979],[-0.44567,51.61978],[-0.44571,51.61976],[-0.44573,51.61974],[-0.44576,51.61972],[-0.44906,51.61546],[-0.45714,51.61249],[-0.46878,51.61685],[-0.47654,51.62203],[-0.47658,51.62205],[-0.48771,51.62689],[-0.49136,51.63087],[-0.49139,51.63089],[-0.49142,51.63091],[-0.49146,51.63092],[-0.4915,51.63093],[-0.49154,51.63093],[-0.49158,51.63093],[-0.49351,51.63074],[-0.49648,51.63191],[-0.49652,51.63193],[-0.49657,51.63193],[-0.49661,51.63193],[-0.49666,51.63193],[-0.4967,51.63192],[-0.49674,51.6319],[-0.49961,51.63043],[-0.49964,51.63042],[-0.49966,51.63039],[-0.49968,51.63037],[-0.50049,51.62878],[-0.5005,51.62875],[-0.5005,51.62873],[-0.50049,51.6287],[-0.50047,51.62868],[-0.50045,51.62866],[-0.49789,51.62668],[-0.49856,51.62489],[-0.5002,51.62381],[-0.50022,51.62379],[-0.50024,51.62377],[-0.50025,51.62375],[-0.50026,51.62373],[-0.50039,51.62212],[-0.50039,51.62209],[-0.50037,51.62207],[-0.50036,51.62204],[-0.50033,51.62202],[-0.5003,51.622],[-0.49699,51.62045],[-0.49564,51.61882],[-0.49811,51.61432],[-0.49811,51.61431],[-0.49917,51.61117],[-0.49918,51.61114],[-0.49917,51.61111],[-0.49857,51.60955],[-0.4994,51.60906],[-0.49943,51.60903],[-0.49945,51.60901],[-0.49946,51.60898],[-0.49947,51.60895],[-0.49946,51.60892],[-0.49656,51.60243],[-0.4972,51.6013],[-0.50023,51.60145],[-0.50027,51.60145],[-0.50031,51.60145],[-0.50035,51.60144],[-0.50038,51.60143],[-0.50041,51.60141],[-0.50044,51.60139],[-0.50045,51.60137],[-0.5011,51.60026],[-0.50111,51.60023],[-0.50112,51.6002],[-0.50111,51.60018],[-0.4988,51.59448],[-0.49978,51.59226],[-0.49979,51.59223],[-0.49979,51.5922],[-0.49978,51.59218],[-0.49976,51.59215],[-0.49597,51.5881],[-0.49493,51.58463],[-0.49492,51.5846],[-0.4949,51.58457],[-0.49486,51.58455],[-0.48981,51.58173],[-0.4888,51.57966],[-0.4897,51.57836],[-0.48971,51.57834],[-0.48972,51.57832],[-0.48971,51.57829],[-0.48971,51.57827],[-0.48916,51.57726],[-0.48914,51.57723],[-0.48911,51.57721],[-0.48907,51.57719],[-0.48435,51.57513],[-0.48573,51.57395],[-0.48575,51.57393],[-0.48576,51.5739],[-0.48577,51.57388],[-0.48576,51.57385],[-0.48575,51.57382],[-0.48425,51.57121],[-0.48499,51.56688],[-0.48499,51.56686],[-0.48498,51.56683],[-0.48496,51.56681],[-0.48494,51.56678],[-0.48491,51.56677],[-0.48288,51.56573],[-0.48342,51.56525],[-0.48344,51.56522],[-0.48345,51.56519],[-0.48346,51.56516],[-0.48345,51.56514],[-0.48343,51.56511],[-0.48249,51.56394],[-0.48302,51.56289],[-0.48303,51.56286],[-0.48303,51.56284],[-0.48302,51.56281],[-0.483,51.56279],[-0.48298,51.56276],[-0.48295,51.56275],[-0.48101,51.56176],[-0.48135,51.56082],[-0.48136,51.56079],[-0.48135,51.56077],[-0.48134,51.56074],[-0.48132,51.56072],[-0.4813,51.5607],[-0.48126,51.56068],[-0.48123,51.56067],[-0.48119,51.56066],[-0.47769,51.56019],[-0.47683,51.55806],[-0.47791,51.55503],[-0.47891,51.555],[-0.47895,51.555],[-0.47899,51.55499],[-0.47902,51.55498],[-0.47905,51.55497],[-0.47908,51.55495],[-0.48283,51.55165],[-0.48672,51.55018],[-0.48676,51.55016],[-0.48679,51.55013],[-0.48681,51.55011],[-0.48834,51.54757],[-0.48959,51.54734],[-0.48963,51.54733],[-0.48967,51.54731],[-0.4897,51.5473],[-0.48972,51.54727],[-0.48974,51.54725],[-0.48975,51.54722],[-0.48975,51.5472],[-0.48963,51.54647],[-0.49141,51.54628],[-0.49145,51.54628],[-0.49149,51.54626],[-0.49152,51.54625],[-0.49155,51.54622],[-0.49157,51.5462],[-0.49158,51.54617],[-0.49179,51.54538],[-0.4918,51.54536],[-0.49179,51.54533],[-0.49178,51.54531],[-0.49176,51.54528],[-0.49173,51.54526],[-0.4917,51.54525],[-0.49106,51.54498],[-0.49226,51.54274],[-0.49227,51.54271],[-0.49226,51.54268],[-0.49204,51.5417],[-0.4937,51.54115],[-0.49374,51.54113],[-0.49377,51.54111],[-0.4938,51.54109],[-0.49571,51.53863],[-0.49572,51.53861],[-0.49573,51.53858],[-0.49573,51.53856],[-0.49572,51.53853],[-0.4957,51.53851],[-0.49354,51.5358],[-0.49352,51.53578],[-0.4935,51.53576],[-0.49077,51.53415],[-0.4914,51.53336],[-0.49142,51.53334],[-0.49143,51.53331],[-0.49143,51.53328],[-0.49142,51.53326],[-0.48922,51.52911],[-0.49104,51.52652],[-0.49105,51.5265],[-0.49106,51.52647],[-0.49105,51.52644],[-0.49049,51.52461],[-0.4914,51.52133],[-0.49141,51.52131],[-0.4914,51.52128],[-0.49139,51.52125],[-0.49062,51.5202],[-0.49255,51.51715],[-0.49256,51.51713],[-0.49257,51.5171],[-0.49256,51.51708],[-0.49255,51.51705],[-0.49254,51.51703],[-0.4898,51.51407],[-0.49002,51.51156],[-0.49001,51.51153],[-0.49001,51.51151],[-0.48999,51.51148],[-0.48997,51.51146],[-0.48994,51.51145],[-0.4899,51.51143],[-0.48572,51.51001],[-0.48378,51.50812],[-0.48418,51.50771],[-0.48419,51.50768],[-0.4842,51.50766],[-0.48421,51.50763],[-0.4842,51.5076],[-0.48418,51.50758],[-0.48344,51.50668],[-0.48523,51.50518],[-0.48526,51.50516],[-0.48527,51.50513],[-0.48528,51.50511],[-0.48527,51.50508],[-0.48491,51.50363],[-0.48645,51.50192],[-0.48647,51.50189],[-0.48647,51.50187],[-0.48648,51.50184],[-0.4864,51.50102],[-0.48885,51.50035],[-0.48888,51.50034],[-0.48891,51.50033],[-0.48893,51.50031],[-0.48895,51.50029],[-0.48995,51.49905],[-0.48997,51.49903],[-0.48998,51.499],[-0.48997,51.49897],[-0.48996,51.49895],[-0.48995,51.49892],[-0.48992,51.4989],[-0.48989,51.49888],[-0.48912,51.49852],[-0.48969,51.49767],[-0.4897,51.49765],[-0.48971,51.49763],[-0.4897,51.4976],[-0.4897,51.49758],[-0.48891,51.49602],[-0.49063,51.49395],[-0.49162,51.49319],[-0.49485,51.49283],[-0.49489,51.49283],[-0.49492,51.49281],[-0.49496,51.4928],[-0.49498,51.49278],[-0.49501,51.49276],[-0.49502,51.49273],[-0.49503,51.49271],[-0.49517,51.4914],[-0.49879,51.48938],[-0.49882,51.48936],[-0.49884,51.48934],[-0.49886,51.48932],[-0.49887,51.4893],[-0.49887,51.48927],[-0.49886,51.48925],[-0.49863,51.48866],[-0.49914,51.48873],[-0.49919,51.48873],[-0.49923,51.48873],[-0.49927,51.48873],[-0.49931,51.48871],[-0.49934,51.4887],[-0.49937,51.48867],[-0.49939,51.48865],[-0.4994,51.48862],[-0.4999,51.48688],[-0.49991,51.48686],[-0.4999,51.48683],[-0.49989,51.48681],[-0.49914,51.48574],[-0.50341,51.48111],[-0.50342,51.48109],[-0.50343,51.48107],[-0.50617,51.47254],[-0.50787,51.47022],[-0.51031,51.46889],[-0.51034,51.46887],[-0.51036,51.46885],[-0.51038,51.46882],[-0.51039,51.4688],[-0.51052,51.46754]],[[-0.33421,51.55791],[-0.33417,51.55796],[-0.33417,51.5579],[-0.33421,51.55791]],[[-0.26806,51.49421],[-0.2637,51.49441],[-0.26762,51.4941],[-0.26806,51.49421]],[[-0.24992,51.56956],[-0.24864,51.56893],[-0.2494,51.56912],[-0.24992,51.56956]],[[-0.2421,51.39389],[-0.24194,51.39385],[-0.24193,51.39383],[-0.2421,51.39389]],[[-0.21594,51.52782],[-0.21592,51.52782],[-0.21591,51.52777],[-0.21594,51.52782]],[[-0.19282,51.53773],[-0.191,51.53621],[-0.19128,51.5364],[-0.19282,51.53773]],[[-0.17495,51.47993],[-0.17476,51.48011],[-0.17468,51.48014],[-0.17495,51.47993]],[[-0.17124,51.48141],[-0.17081,51.48157],[-0.16592,51.48224],[-0.17124,51.48141]],[[-0.14463,51.41592],[-0.14311,51.41707],[-0.14457,51.41589],[-0.14463,51.41592]],[[-0.14058,51.41926],[-0.14018,51.41943],[-0.14046,51.4192],[-0.14047,51.41922],[-0.1405,51.41924],[-0.14054,51.41925],[-0.14058,51.41926]],[[-0.12974,51.48601],[-0.12964,51.48606],[-0.12967,51.48603],[-0.12974,51.48601]],[[-0.08011,51.42189],[-0.07982,51.42197],[-0.0797,51.42184],[-0.08011,51.42189]],[[-0.0785,51.42049],[-0.07847,51.42045],[-0.07844,51.42043],[-0.07841,51.42041],[-0.07837,51.4204],[-0.07834,51.42039],[-0.07846,51.42019],[-0.0785,51.42049]],[[-0.07401,51.42594],[-0.07383,51.42602],[-0.07325,51.42597],[-0.07401,51.42594]],[[-0.06638,51.42536],[-0.06489,51.42523],[-0.06596,51.42522],[-0.06638,51.42536]],[[-0.04329,51.50833],[-0.04323,51.50837],[-0.04284,51.50837],[-0.04329,51.50833]],[[-0.03279,51.50689],[-0.03202,51.50666],[-0.03196,51.50661],[-0.03279,51.50689]],[[-0.02756,51.49014],[-0.02692,51.48951],[-0.02738,51.48984],[-0.02756,51.49014]],[[-0.01379,51.35786],[-0.01202,51.35704],[-0.01302,51.35735],[-0.01379,51.35786]],[[-0.01187,51.48488],[-0.01049,51.48493],[-0.01081,51.48486],[-0.01187,51.48488]],[[-0.00795,51.52276],[-0.00786,51.5232],[-0.00788,51.52291],[-0.00795,51.52276]],[[0.00389,51.51446],[0.00391,51.51453],[0.00392,51.51451],[0.00389,51.51446]],[[0.00573,51.51389],[0.00573,51.5139],[0.00574,51.5139],[0.00573,51.51389]],[[0.01447,51.56136],[0.01448,51.56167],[0.01451,51.56122],[0.01447,51.56136]],[[0.02007,51.62663],[0.02019,51.62697],[0.02024,51.62704],[0.02007,51.62663]],[[0.02186,51.55636],[0.02255,51.5565],[0.02241,51.55633],[0.02186,51.55636]],[[0.02385,51.49649],[0.02555,51.49613],[0.02513,51.4961],[0.02385,51.49649]],[[0.06306,51.4243],[0.06349,51.42454],[0.06313,51.42432],[0.06306,51.4243]],[[0.0937,51.54606],[0.09373,51.54604],[0.09371,51.54603],[0.0937,51.54606]],[[0.11712,51.51349],[0.12055,51.51432],[0.11829,51.51373],[0.11712,51.51349]],[[0.11878,51.5575],[0.11914,51.55768],[0.11891,51.5575],[0.11878,51.5575]],[[0.12877,51.51538],[0.12906,51.5154],[0.12942,51.51535],[0.12877,51.51538]],[[0.13726,51.51408],[0.13798,51.51396],[0.14291,51.51224],[0.13726,51.51408]],[[0.1803,51.48904],[0.1803,51.48903],[0.1803,51.48904],[0.1803,51.48904]]]}}