{"type":"FeatureCollection","features":[{"type":"Feature","properties":{"name":null,"category":"cinemas","osm":"way/356675364"},"geometry":{"type":"Point","coordinates":[-0.197347,51.508688]}},{"type":"Feature","properties":{"name":null,"category":"cinemas","osm":"way/495107775"},"geometry":{"type":"Point","coordinates":[-0.129517,51.511416]}},{"type":"Feature","properties":{"name":"Act One Cinema","category":"cinemas","osm":"node/9333021746"},"geometry":{"type":"Point","coordinates":[-0.268411,51.5066]}},{"type":"Feature","properties":{"name":"ArtHouse Crouch End","category":"cinemas","osm":"node/12633147070"},"geometry":{"type":"Point","coordinates":[-0.120055,51.581892]}},{"type":"Feature","properties":{"name":"Backyard Cinema","category":"cinemas","osm":"node/10255674577"},"geometry":{"type":"Point","coordinates":[-0.192254,51.459185]}},{"type":"Feature","properties":{"name":"Barbican Centre (Cinema)","category":"cinemas","osm":"node/25474641"},"geometry":{"type":"Point","coordinates":[-0.093756,51.519776]}},{"type":"Feature","properties":{"name":"Barbican Cinemas 2 & 3","category":"cinemas","osm":"node/2306299784"},"geometry":{"type":"Point","coordinates":[-0.092857,51.521022]}},{"type":"Feature","properties":{"name":"Barnet Everyman Cinema","category":"cinemas","osm":"way/71380122"},"geometry":{"type":"Point","coordinates":[-0.187897,51.646349]}},{"type":"Feature","properties":{"name":"BFI IMAX","category":"cinemas","osm":"way/123444154"},"geometry":{"type":"Point","coordinates":[-0.113629,51.504821]}},{"type":"Feature","properties":{"name":"BFI Southbank","category":"cinemas","osm":"way/150702283"},"geometry":{"type":"Point","coordinates":[-0.115212,51.506729]}},{"type":"Feature","properties":{"name":"Castle Cinema","category":"cinemas","osm":"way/490724409"},"geometry":{"type":"Point","coordinates":[-0.043193,51.55133]}},{"type":"Feature","properties":{"name":"Ciné Lumière","category":"cinemas","osm":"node/7930695624"},"geometry":{"type":"Point","coordinates":[-0.177148,51.494528]}},{"type":"Feature","properties":{"name":"Cineworld","category":"cinemas","osm":"node/416380417"},"geometry":{"type":"Point","coordinates":[-0.19341,51.454153]}},{"type":"Feature","properties":{"name":"Cineworld","category":"cinemas","osm":"node/1950561370"},"geometry":{"type":"Point","coordinates":[-0.022496,51.507848]}},{"type":"Feature","properties":{"name":"Cineworld","category":"cinemas","osm":"node/10583928430"},"geometry":{"type":"Point","coordinates":[0.073899,51.557485]}},{"type":"Feature","properties":{"name":"Cineworld","category":"cinemas","osm":"node/11861674142"},"geometry":{"type":"Point","coordinates":[-0.36268,51.469585]}},{"type":"Feature","properties":{"name":"Cineworld","category":"cinemas","osm":"way/22476427"},"geometry":{"type":"Point","coordinates":[-0.404633,51.443858]}},{"type":"Feature","properties":{"name":"Cineworld","category":"cinemas","osm":"way/332400975"},"geometry":{"type":"Point","coordinates":[0.150311,51.456147]}},{"type":"Feature","properties":{"name":"Cineworld","category":"cinemas","osm":"way/708645222"},"geometry":{"type":"Point","coordinates":[-0.400585,51.558903]}},{"type":"Feature","properties":{"name":"Cineworld","category":"cinemas","osm":"way/1240494131"},"geometry":{"type":"Point","coordinates":[0.004348,51.503033]}},{"type":"Feature","properties":{"name":"Cineworld Enfield","category":"cinemas","osm":"way/4421348"},"geometry":{"type":"Point","coordinates":[-0.060964,51.650225]}},{"type":"Feature","properties":{"name":"Cineworld Leicester Square","category":"cinemas","osm":"node/26573168"},"geometry":{"type":"Point","coordinates":[-0.130409,51.510934]}},{"type":"Feature","properties":{"name":"Cineworld Wembley","category":"cinemas","osm":"node/2763450295"},"geometry":{"type":"Point","coordinates":[-0.283928,51.556302]}},{"type":"Feature","properties":{"name":"Clapham Picturehouse","category":"cinemas","osm":"node/248932670"},"geometry":{"type":"Point","coordinates":[-0.138152,51.462501]}},{"type":"Feature","properties":{"name":"Close-Up Film Centre","category":"cinemas","osm":"node/4145029892"},"geometry":{"type":"Point","coordinates":[-0.072,51.523612]}},{"type":"Feature","properties":{"name":"Crouch End Picturehouse","category":"cinemas","osm":"node/12633147075"},"geometry":{"type":"Point","coordinates":[-0.120824,51.581637]}},{"type":"Feature","properties":{"name":"Curzon","category":"cinemas","osm":"node/13537469101"},"geometry":{"type":"Point","coordinates":[-0.304936,51.411041]}},{"type":"Feature","properties":{"name":"Curzon Aldgate","category":"cinemas","osm":"node/4617424209"},"geometry":{"type":"Point","coordinates":[-0.068922,51.51382]}},{"type":"Feature","properties":{"name":"Curzon Bloomsbury","category":"cinemas","osm":"way/291651296"},"geometry":{"type":"Point","coordinates":[-0.123147,51.524063]}},{"type":"Feature","properties":{"name":"Curzon Camden","category":"cinemas","osm":"node/11047352452"},"geometry":{"type":"Point","coordinates":[-0.143467,51.54223]}},{"type":"Feature","properties":{"name":"Curzon Goldsmiths","category":"cinemas","osm":"node/1657024155"},"geometry":{"type":"Point","coordinates":[-0.036123,51.474195]}},{"type":"Feature","properties":{"name":"Curzon Hoxton","category":"cinemas","osm":"node/9120392029"},"geometry":{"type":"Point","coordinates":[-0.083797,51.528881]}},{"type":"Feature","properties":{"name":"Curzon Mayfair","category":"cinemas","osm":"way/77002327"},"geometry":{"type":"Point","coordinates":[-0.147996,51.506464]}},{"type":"Feature","properties":{"name":"Curzon Richmond","category":"cinemas","osm":"node/4446849834"},"geometry":{"type":"Point","coordinates":[-0.307,51.459245]}},{"type":"Feature","properties":{"name":"Curzon Soho","category":"cinemas","osm":"node/26699541"},"geometry":{"type":"Point","coordinates":[-0.130608,51.512658]}},{"type":"Feature","properties":{"name":"Curzon Victoria","category":"cinemas","osm":"node/2785097711"},"geometry":{"type":"Point","coordinates":[-0.136579,51.497535]}},{"type":"Feature","properties":{"name":"Curzon Wimbledon","category":"cinemas","osm":"node/4568748349"},"geometry":{"type":"Point","coordinates":[-0.205253,51.420355]}},{"type":"Feature","properties":{"name":"David Lean Cinema","category":"cinemas","osm":"node/299124495"},"geometry":{"type":"Point","coordinates":[-0.099012,51.372132]}},{"type":"Feature","properties":{"name":"Ealing Picturehouse","category":"cinemas","osm":"node/11287168754"},"geometry":{"type":"Point","coordinates":[-0.306882,51.51199]}},{"type":"Feature","properties":{"name":"East Dulwich Picturehouse","category":"cinemas","osm":"way/95223664"},"geometry":{"type":"Point","coordinates":[-0.076315,51.456472]}},{"type":"Feature","properties":{"name":"Electric Cinema","category":"cinemas","osm":"node/3767748685"},"geometry":{"type":"Point","coordinates":[-0.073924,51.524409]}},{"type":"Feature","properties":{"name":"Electric Cinema","category":"cinemas","osm":"node/8629753788"},"geometry":{"type":"Point","coordinates":[-0.225993,51.510429]}},{"type":"Feature","properties":{"name":"Electric Cinema","category":"cinemas","osm":"way/357556094"},"geometry":{"type":"Point","coordinates":[-0.205065,51.515529]}},{"type":"Feature","properties":{"name":"Everyman","category":"cinemas","osm":"node/5218118730"},"geometry":{"type":"Point","coordinates":[-0.084604,51.519647]}},{"type":"Feature","properties":{"name":"Everyman","category":"cinemas","osm":"node/6307635600"},"geometry":{"type":"Point","coordinates":[-0.079133,51.419093]}},{"type":"Feature","properties":{"name":"Everyman","category":"cinemas","osm":"node/6338253691"},"geometry":{"type":"Point","coordinates":[-0.15656,51.520501]}},{"type":"Feature","properties":{"name":"Everyman","category":"cinemas","osm":"node/7179603220"},"geometry":{"type":"Point","coordinates":[-0.165778,51.550815]}},{"type":"Feature","properties":{"name":"Everyman","category":"cinemas","osm":"node/7182075445"},"geometry":{"type":"Point","coordinates":[-0.017829,51.506133]}},{"type":"Feature","properties":{"name":"Everyman","category":"cinemas","osm":"node/9960451065"},"geometry":{"type":"Point","coordinates":[-0.092203,51.505635]}},{"type":"Feature","properties":{"name":"Everyman","category":"cinemas","osm":"node/12213877974"},"geometry":{"type":"Point","coordinates":[-0.010539,51.54244]}},{"type":"Feature","properties":{"name":"Everyman","category":"cinemas","osm":"node/13355530049"},"geometry":{"type":"Point","coordinates":[-0.307835,51.482789]}},{"type":"Feature","properties":{"name":"Everyman","category":"cinemas","osm":"way/199561799"},"geometry":{"type":"Point","coordinates":[-0.178988,51.556351]}},{"type":"Feature","properties":{"name":"Everyman","category":"cinemas","osm":"way/208422244"},"geometry":{"type":"Point","coordinates":[-0.181706,51.528026]}},{"type":"Feature","properties":{"name":"Everyman Chelsea","category":"cinemas","osm":"node/498694180"},"geometry":{"type":"Point","coordinates":[-0.173152,51.48559]}},{"type":"Feature","properties":{"name":"Everyman Cinema","category":"cinemas","osm":"way/399428758"},"geometry":{"type":"Point","coordinates":[-0.146208,51.589595]}},{"type":"Feature","properties":{"name":"Everyman King's Cross","category":"cinemas","osm":"node/5376964904"},"geometry":{"type":"Point","coordinates":[-0.124056,51.537529]}},{"type":"Feature","properties":{"name":"Everyman On The Corner","category":"cinemas","osm":"node/4754870662"},"geometry":{"type":"Point","coordinates":[-0.126999,51.537702]}},{"type":"Feature","properties":{"name":"Film House","category":"cinemas","osm":"node/13319041062"},"geometry":{"type":"Point","coordinates":[-0.083202,51.526297]}},{"type":"Feature","properties":{"name":"Finsbury Park Picturehouse","category":"cinemas","osm":"node/9519228592"},"geometry":{"type":"Point","coordinates":[-0.107465,51.565068]}},{"type":"Feature","properties":{"name":"Forest Cinemas","category":"cinemas","osm":"node/3384625336"},"geometry":{"type":"Point","coordinates":[-0.020193,51.584949]}},{"type":"Feature","properties":{"name":"Genesis Cinema","category":"cinemas","osm":"way/14495071"},"geometry":{"type":"Point","coordinates":[-0.051239,51.521341]}},{"type":"Feature","properties":{"name":"Greenwich Picturehouse","category":"cinemas","osm":"way/160661213"},"geometry":{"type":"Point","coordinates":[-0.009689,51.479446]}},{"type":"Feature","properties":{"name":"Hackney Picturehouse","category":"cinemas","osm":"way/142371471"},"geometry":{"type":"Point","coordinates":[-0.054939,51.544815]}},{"type":"Feature","properties":{"name":"Hollywood Green","category":"cinemas","osm":"way/38153961"},"geometry":{"type":"Point","coordinates":[-0.10865,51.59688]}},{"type":"Feature","properties":{"name":"ICA Cinema","category":"cinemas","osm":"node/10554856531"},"geometry":{"type":"Point","coordinates":[-0.131113,51.50611]}},{"type":"Feature","properties":{"name":"Imperial Cinema","category":"cinemas","osm":"node/1716046769"},"geometry":{"type":"Point","coordinates":[-0.178001,51.500423]}},{"type":"Feature","properties":{"name":"Institute Of Light","category":"cinemas","osm":"way/1249434121"},"geometry":{"type":"Point","coordinates":[-0.058472,51.539708]}},{"type":"Feature","properties":{"name":"Laser Quest & VR Centre Bromley","category":"cinemas","osm":"node/9333538050"},"geometry":{"type":"Point","coordinates":[0.00135,51.418569]}},{"type":"Feature","properties":{"name":"Lexi Cinema","category":"cinemas","osm":"way/467469463"},"geometry":{"type":"Point","coordinates":[-0.222475,51.537528]}},{"type":"Feature","properties":{"name":"Library & Sidcup Storyteller Cinema","category":"cinemas","osm":"way/1013873133"},"geometry":{"type":"Point","coordinates":[0.101121,51.426078]}},{"type":"Feature","properties":{"name":"London Dock - Residents Cinema","category":"cinemas","osm":"node/8348478722"},"geometry":{"type":"Point","coordinates":[-0.066645,51.508311]}},{"type":"Feature","properties":{"name":"Lumiere Cinema Romford","category":"cinemas","osm":"node/3193683067"},"geometry":{"type":"Point","coordinates":[0.185204,51.579487]}},{"type":"Feature","properties":{"name":"Metro Cinema","category":"cinemas","osm":"node/209108050"},"geometry":{"type":"Point","coordinates":[-0.332456,51.586565]}},{"type":"Feature","properties":{"name":"Odeon","category":"cinemas","osm":"node/931624349"},"geometry":{"type":"Point","coordinates":[-0.143757,51.538974]}},{"type":"Feature","properties":{"name":"Odeon","category":"cinemas","osm":"node/6687236123"},"geometry":{"type":"Point","coordinates":[0.101383,51.376565]}},{"type":"Feature","properties":{"name":"Odeon","category":"cinemas","osm":"way/91030820"},"geometry":{"type":"Point","coordinates":[-0.305186,51.458514]}},{"type":"Feature","properties":{"name":"Odeon","category":"cinemas","osm":"way/425222125"},"geometry":{"type":"Point","coordinates":[-0.132585,51.518359]}},{"type":"Feature","properties":{"name":"Odeon Cinema","category":"cinemas","osm":"node/300614361"},"geometry":{"type":"Point","coordinates":[-0.031616,51.407019]}},{"type":"Feature","properties":{"name":"Odeon Holloway","category":"cinemas","osm":"way/30049479"},"geometry":{"type":"Point","coordinates":[-0.121395,51.558662]}},{"type":"Feature","properties":{"name":"Odeon IMAX","category":"cinemas","osm":"way/218259617"},"geometry":{"type":"Point","coordinates":[0.012785,51.4906]}},{"type":"Feature","properties":{"name":"Odeon Kingston","category":"cinemas","osm":"node/920198785"},"geometry":{"type":"Point","coordinates":[-0.2993,51.411933]}},{"type":"Feature","properties":{"name":"Odeon Lee Valley","category":"cinemas","osm":"way/4270352"},"geometry":{"type":"Point","coordinates":[-0.037256,51.633165]}},{"type":"Feature","properties":{"name":"Odeon Luxe & Dine","category":"cinemas","osm":"node/8819117410"},"geometry":{"type":"Point","coordinates":[-0.103572,51.538636]}},{"type":"Feature","properties":{"name":"Odeon Luxe Acton","category":"cinemas","osm":"way/166292135"},"geometry":{"type":"Point","coordinates":[-0.281363,51.525759]}},{"type":"Feature","properties":{"name":"Odeon Luxe Haymarket","category":"cinemas","osm":"node/26671967"},"geometry":{"type":"Point","coordinates":[-0.131225,51.509566]}},{"type":"Feature","properties":{"name":"Odeon Luxe Leicester Square","category":"cinemas","osm":"way/180571964"},"geometry":{"type":"Point","coordinates":[-0.129103,51.5105]}},{"type":"Feature","properties":{"name":"Odeon Luxe West End","category":"cinemas","osm":"node/9405724041"},"geometry":{"type":"Point","coordinates":[-0.130215,51.50991]}},{"type":"Feature","properties":{"name":"Odeon Mezzanine","category":"cinemas","osm":"node/26573161"},"geometry":{"type":"Point","coordinates":[-0.129084,51.510214]}},{"type":"Feature","properties":{"name":"ODEON Putney","category":"cinemas","osm":"way/451257601"},"geometry":{"type":"Point","coordinates":[-0.213917,51.465177]}},{"type":"Feature","properties":{"name":"Odeon Richmond Studio (Screens 4-7)","category":"cinemas","osm":"way/432809894"},"geometry":{"type":"Point","coordinates":[-0.305453,51.459381]}},{"type":"Feature","properties":{"name":"Odeon South Woodford","category":"cinemas","osm":"way/91275364"},"geometry":{"type":"Point","coordinates":[0.023,51.594497]}},{"type":"Feature","properties":{"name":"Odeon Swiss Cottage","category":"cinemas","osm":"way/123701976"},"geometry":{"type":"Point","coordinates":[-0.174575,51.542535]}},{"type":"Feature","properties":{"name":"Odeon Wimbledon","category":"cinemas","osm":"node/39685823"},"geometry":{"type":"Point","coordinates":[-0.204879,51.41981]}},{"type":"Feature","properties":{"name":"Olympic Studios","category":"cinemas","osm":"way/595814487"},"geometry":{"type":"Point","coordinates":[-0.24064,51.47527]}},{"type":"Feature","properties":{"name":"Omniplex Cinema Sutton","category":"cinemas","osm":"node/264759489"},"geometry":{"type":"Point","coordinates":[-0.19531,51.364765]}},{"type":"Feature","properties":{"name":"Peckhamplex","category":"cinemas","osm":"way/78230879"},"geometry":{"type":"Point","coordinates":[-0.067907,51.470848]}},{"type":"Feature","properties":{"name":"Phoenix Cinema","category":"cinemas","osm":"node/299028906"},"geometry":{"type":"Point","coordinates":[-0.163709,51.588508]}},{"type":"Feature","properties":{"name":"Picturehouse Central","category":"cinemas","osm":"node/3921178316"},"geometry":{"type":"Point","coordinates":[-0.133716,51.510711]}},{"type":"Feature","properties":{"name":"Prince Charles Cinema","category":"cinemas","osm":"way/180594287"},"geometry":{"type":"Point","coordinates":[-0.13012,51.511494]}},{"type":"Feature","properties":{"name":"Regent Street Cinema","category":"cinemas","osm":"node/1710144548"},"geometry":{"type":"Point","coordinates":[-0.142851,51.516815]}},{"type":"Feature","properties":{"name":"Rich Mix Cinema","category":"cinemas","osm":"node/371525331"},"geometry":{"type":"Point","coordinates":[-0.073095,51.524352]}},{"type":"Feature","properties":{"name":"Rio Cinema","category":"cinemas","osm":"way/224192326"},"geometry":{"type":"Point","coordinates":[-0.075576,51.549648]}},{"type":"Feature","properties":{"name":"Riverside Studios","category":"cinemas","osm":"way/97398691"},"geometry":{"type":"Point","coordinates":[-0.227826,51.488792]}},{"type":"Feature","properties":{"name":"Rooftop Film Club","category":"cinemas","osm":"node/9733052917"},"geometry":{"type":"Point","coordinates":[-0.081042,51.522361]}},{"type":"Feature","properties":{"name":"Rooftop Film Club","category":"cinemas","osm":"node/9733055717"},"geometry":{"type":"Point","coordinates":[-0.001123,51.541666]}},{"type":"Feature","properties":{"name":"Rooftop Film Club","category":"cinemas","osm":"way/597454248"},"geometry":{"type":"Point","coordinates":[-0.067548,51.469912]}},{"type":"Feature","properties":{"name":"Screen on the Green","category":"cinemas","osm":"way/31305418"},"geometry":{"type":"Point","coordinates":[-0.103665,51.536853]}},{"type":"Feature","properties":{"name":"Sky Cinema","category":"cinemas","osm":"node/9056076209"},"geometry":{"type":"Point","coordinates":[-0.328047,51.488496]}},{"type":"Feature","properties":{"name":"Streatham Odeon","category":"cinemas","osm":"way/23081724"},"geometry":{"type":"Point","coordinates":[-0.128367,51.432201]}},{"type":"Feature","properties":{"name":"The Arzner","category":"cinemas","osm":"node/668541398"},"geometry":{"type":"Point","coordinates":[-0.080786,51.497674]}},{"type":"Feature","properties":{"name":"The Chiswick Cinema","category":"cinemas","osm":"node/11809363653"},"geometry":{"type":"Point","coordinates":[-0.251007,51.49309]}},{"type":"Feature","properties":{"name":"The Cinema in the Arches","category":"cinemas","osm":"node/6345003067"},"geometry":{"type":"Point","coordinates":[-0.146976,51.482512]}},{"type":"Feature","properties":{"name":"The Fellowship Cinema","category":"cinemas","osm":"node/7756557948"},"geometry":{"type":"Point","coordinates":[-0.019936,51.432934]}},{"type":"Feature","properties":{"name":"The Garden Cinema","category":"cinemas","osm":"way/97237929"},"geometry":{"type":"Point","coordinates":[-0.121359,51.51623]}},{"type":"Feature","properties":{"name":"The Nickel Cinema","category":"cinemas","osm":"node/1236834452"},"geometry":{"type":"Point","coordinates":[-0.111727,51.521712]}},{"type":"Feature","properties":{"name":"The Ritzy","category":"cinemas","osm":"node/245955704"},"geometry":{"type":"Point","coordinates":[-0.114961,51.46115]}},{"type":"Feature","properties":{"name":"The Ronson Theatre","category":"cinemas","osm":"node/11709415903"},"geometry":{"type":"Point","coordinates":[-0.177749,51.49721]}},{"type":"Feature","properties":{"name":"Uxbridge Odeon","category":"cinemas","osm":"node/528097911"},"geometry":{"type":"Point","coordinates":[-0.475508,51.545313]}},{"type":"Feature","properties":{"name":"Vue","category":"cinemas","osm":"node/452948294"},"geometry":{"type":"Point","coordinates":[-0.218848,51.503414]}},{"type":"Feature","properties":{"name":"Vue","category":"cinemas","osm":"node/1125267112"},"geometry":{"type":"Point","coordinates":[0.179018,51.574742]}},{"type":"Feature","properties":{"name":"Vue","category":"cinemas","osm":"node/3357929234"},"geometry":{"type":"Point","coordinates":[-0.134341,51.508942]}},{"type":"Feature","properties":{"name":"Vue","category":"cinemas","osm":"node/9654279964"},"geometry":{"type":"Point","coordinates":[0.056805,51.450606]}},{"type":"Feature","properties":{"name":"Vue","category":"cinemas","osm":"node/13525260759"},"geometry":{"type":"Point","coordinates":[-0.194417,51.480802]}},{"type":"Feature","properties":{"name":"Vue","category":"cinemas","osm":"way/821235793"},"geometry":{"type":"Point","coordinates":[-0.22218,51.507721]}},{"type":"Feature","properties":{"name":"Vue Cinema","category":"cinemas","osm":"node/210745603"},"geometry":{"type":"Point","coordinates":[-0.338995,51.581502]}},{"type":"Feature","properties":{"name":"Vue Cinema","category":"cinemas","osm":"node/4976196830"},"geometry":{"type":"Point","coordinates":[-0.173208,51.603855]}},{"type":"Feature","properties":{"name":"Vue Cinema","category":"cinemas","osm":"way/540185905"},"geometry":{"type":"Point","coordinates":[0.015133,51.399817]}},{"type":"Feature","properties":{"name":"Vue Dagenham","category":"cinemas","osm":"way/67706805"},"geometry":{"type":"Point","coordinates":[0.134917,51.532661]}},{"type":"Feature","properties":{"name":"Vue Finchley Road","category":"cinemas","osm":"node/1692039757"},"geometry":{"type":"Point","coordinates":[-0.181575,51.548125]}},{"type":"Feature","properties":{"name":"Vue Islington","category":"cinemas","osm":"node/306042840"},"geometry":{"type":"Point","coordinates":[-0.105827,51.534382]}},{"type":"Feature","properties":{"name":"Vue Leicester Square","category":"cinemas","osm":"node/26573173"},"geometry":{"type":"Point","coordinates":[-0.129368,51.511245]}},{"type":"Feature","properties":{"name":"Vue Purley Way","category":"cinemas","osm":"node/31060529"},"geometry":{"type":"Point","coordinates":[-0.124638,51.378037]}},{"type":"Feature","properties":{"name":"Vue Westfield Stratford City","category":"cinemas","osm":"way/1360397129"},"geometry":{"type":"Point","coordinates":[-0.006543,51.543607]}},{"type":"Feature","properties":{"name":"Watermans Arts Centre","category":"cinemas","osm":"node/1097177019"},"geometry":{"type":"Point","coordinates":[-0.297913,51.485804]}},{"type":"Feature","properties":{"name":"West Norwood Picturehouse","category":"cinemas","osm":"node/6589760000"},"geometry":{"type":"Point","coordinates":[-0.102957,51.433071]}},{"type":"Feature","properties":{"name":"Whirled Cinema","category":"cinemas","osm":"node/705228239"},"geometry":{"type":"Point","coordinates":[-0.101337,51.465055]}}]}