{"type":"FeatureCollection","features":[{"type":"Feature","properties":{"name":"Apostolic Nunciature","category":"consulates","osm":"way/140461167"},"geometry":{"type":"Point","coordinates":[-0.22392,51.436066]}},{"type":"Feature","properties":{"name":"Australian High Commission","category":"consulates","osm":"relation/5987602"},"geometry":{"type":"Point","coordinates":[-0.115602,51.51287]}},{"type":"Feature","properties":{"name":"Austrian Embassy","category":"consulates","osm":"way/553732936"},"geometry":{"type":"Point","coordinates":[-0.154937,51.498374]}},{"type":"Feature","properties":{"name":"Austrian Embassy Commercial Section","category":"consulates","osm":"way/158555461"},"geometry":{"type":"Point","coordinates":[-0.17409,51.500139]}},{"type":"Feature","properties":{"name":"Azerbaijan Embassy","category":"consulates","osm":"way/128489616"},"geometry":{"type":"Point","coordinates":[-0.18676,51.501726]}},{"type":"Feature","properties":{"name":"Bangladesh High Commission","category":"consulates","osm":"way/810154061"},"geometry":{"type":"Point","coordinates":[-0.180123,51.498571]}},{"type":"Feature","properties":{"name":"Barbados High Commission","category":"consulates","osm":"node/970857103"},"geometry":{"type":"Point","coordinates":[-0.130548,51.517038]}},{"type":"Feature","properties":{"name":"Belarus Embassy","category":"consulates","osm":"way/128489609"},"geometry":{"type":"Point","coordinates":[-0.186804,51.501598]}},{"type":"Feature","properties":{"name":"Belize High Commission","category":"consulates","osm":"node/6382482131"},"geometry":{"type":"Point","coordinates":[-0.165104,51.518936]}},{"type":"Feature","properties":{"name":"Brazilian Naval Commission in Europe","category":"consulates","osm":"way/1011095283"},"geometry":{"type":"Point","coordinates":[-0.214742,51.460482]}},{"type":"Feature","properties":{"name":"Brunei Darrusalam High Commission","category":"consulates","osm":"way/553732940"},"geometry":{"type":"Point","coordinates":[-0.154555,51.498357]}},{"type":"Feature","properties":{"name":"Bulgarian Embassy","category":"consulates","osm":"node/1317892896"},"geometry":{"type":"Point","coordinates":[-0.179648,51.499899]}},{"type":"Feature","properties":{"name":"Costa Rican Embassy","category":"consulates","osm":"node/12348768374"},"geometry":{"type":"Point","coordinates":[-0.147155,51.513758]}},{"type":"Feature","properties":{"name":"Cultural Section (Embassy of France)","category":"consulates","osm":"way/641951204"},"geometry":{"type":"Point","coordinates":[-0.175562,51.495395]}},{"type":"Feature","properties":{"name":"Cultural, Health and Military Attachés of the Embassy of the Sultanate of Oman","category":"consulates","osm":"way/215315725"},"geometry":{"type":"Point","coordinates":[-0.169486,51.500374]}},{"type":"Feature","properties":{"name":"Defence Office","category":"consulates","osm":"way/135706353"},"geometry":{"type":"Point","coordinates":[-0.152143,51.508119]}},{"type":"Feature","properties":{"name":"Delegation of the European Union","category":"consulates","osm":"way/528946803"},"geometry":{"type":"Point","coordinates":[-0.127838,51.49554]}},{"type":"Feature","properties":{"name":"Dominican Republic Embassy","category":"consulates","osm":"way/743814797"},"geometry":{"type":"Point","coordinates":[-0.171933,51.514186]}},{"type":"Feature","properties":{"name":"Egyptian Embassy Commercial Office","category":"consulates","osm":"way/135706361"},"geometry":{"type":"Point","coordinates":[-0.151964,51.508416]}},{"type":"Feature","properties":{"name":"Egyptian Embassy Medical Office","category":"consulates","osm":"way/31869421"},"geometry":{"type":"Point","coordinates":[-0.197339,51.492979]}},{"type":"Feature","properties":{"name":"Embassy of Afghanistan","category":"consulates","osm":"way/158555469"},"geometry":{"type":"Point","coordinates":[-0.174331,51.501359]}},{"type":"Feature","properties":{"name":"Embassy of Algeria","category":"consulates","osm":"way/345478121"},"geometry":{"type":"Point","coordinates":[-0.142601,51.518298]}},{"type":"Feature","properties":{"name":"Embassy of Angola","category":"consulates","osm":"way/300868186"},"geometry":{"type":"Point","coordinates":[-0.158009,51.519381]}},{"type":"Feature","properties":{"name":"Embassy of Argentina","category":"consulates","osm":"way/615670304"},"geometry":{"type":"Point","coordinates":[-0.1487,51.512308]}},{"type":"Feature","properties":{"name":"Embassy of Armenia","category":"consulates","osm":"way/823909586"},"geometry":{"type":"Point","coordinates":[-0.192821,51.49882]}},{"type":"Feature","properties":{"name":"Embassy of Bahrain","category":"consulates","osm":"way/161492627"},"geometry":{"type":"Point","coordinates":[-0.152424,51.498381]}},{"type":"Feature","properties":{"name":"Embassy of Belgium","category":"consulates","osm":"way/189326301"},"geometry":{"type":"Point","coordinates":[-0.153232,51.500913]}},{"type":"Feature","properties":{"name":"Embassy of Bolivia","category":"consulates","osm":"way/550219103"},"geometry":{"type":"Point","coordinates":[-0.151146,51.497124]}},{"type":"Feature","properties":{"name":"Embassy of Bosnia and Herzegovina","category":"consulates","osm":"way/821523173"},"geometry":{"type":"Point","coordinates":[-0.190166,51.495264]}},{"type":"Feature","properties":{"name":"Embassy of Brazil","category":"consulates","osm":"way/177208708"},"geometry":{"type":"Point","coordinates":[-0.130806,51.507476]}},{"type":"Feature","properties":{"name":"Embassy of Chile","category":"consulates","osm":"way/531373354"},"geometry":{"type":"Point","coordinates":[-0.131387,51.500664]}},{"type":"Feature","properties":{"name":"Embassy of China (Commercial Section)","category":"consulates","osm":"way/154805575"},"geometry":{"type":"Point","coordinates":[-0.178754,51.512022]}},{"type":"Feature","properties":{"name":"Embassy of China (Education Section)","category":"consulates","osm":"node/6191916535"},"geometry":{"type":"Point","coordinates":[-0.144842,51.52054]}},{"type":"Feature","properties":{"name":"Embassy of Colombia","category":"consulates","osm":"node/1868956513"},"geometry":{"type":"Point","coordinates":[-0.161537,51.499067]}},{"type":"Feature","properties":{"name":"Embassy of Denmark","category":"consulates","osm":"way/318135952"},"geometry":{"type":"Point","coordinates":[-0.159533,51.497961]}},{"type":"Feature","properties":{"name":"Embassy of Ecuador","category":"consulates","osm":"node/907133036"},"geometry":{"type":"Point","coordinates":[-0.161333,51.498983]}},{"type":"Feature","properties":{"name":"Embassy of El Salvador","category":"consulates","osm":"node/6430767121"},"geometry":{"type":"Point","coordinates":[-0.160211,51.523365]}},{"type":"Feature","properties":{"name":"Embassy of Eritrea","category":"consulates","osm":"way/749605443"},"geometry":{"type":"Point","coordinates":[-0.107315,51.532935]}},{"type":"Feature","properties":{"name":"Embassy of Estonia","category":"consulates","osm":"way/809617885"},"geometry":{"type":"Point","coordinates":[-0.182806,51.498886]}},{"type":"Feature","properties":{"name":"Embassy of Ethiopia","category":"consulates","osm":"way/595415103"},"geometry":{"type":"Point","coordinates":[-0.172495,51.501454]}},{"type":"Feature","properties":{"name":"Embassy of Finland","category":"consulates","osm":"way/161520571"},"geometry":{"type":"Point","coordinates":[-0.154257,51.497589]}},{"type":"Feature","properties":{"name":"Embassy of France","category":"consulates","osm":"way/24462417"},"geometry":{"type":"Point","coordinates":[-0.158058,51.502478]}},{"type":"Feature","properties":{"name":"Embassy of Gabon","category":"consulates","osm":"way/810194052"},"geometry":{"type":"Point","coordinates":[-0.180904,51.497633]}},{"type":"Feature","properties":{"name":"Embassy of Georgia","category":"consulates","osm":"node/9943491095"},"geometry":{"type":"Point","coordinates":[-0.13594,51.488758]}},{"type":"Feature","properties":{"name":"Embassy of Georgia","category":"consulates","osm":"way/148730331"},"geometry":{"type":"Point","coordinates":[-0.211442,51.500265]}},{"type":"Feature","properties":{"name":"Embassy of Germany","category":"consulates","osm":"way/553732939"},"geometry":{"type":"Point","coordinates":[-0.15471,51.497997]}},{"type":"Feature","properties":{"name":"Embassy of Greece","category":"consulates","osm":"way/793668913"},"geometry":{"type":"Point","coordinates":[-0.204432,51.505359]}},{"type":"Feature","properties":{"name":"Embassy of Guatemala","category":"consulates","osm":"way/759958784"},"geometry":{"type":"Point","coordinates":[-0.193499,51.515066]}},{"type":"Feature","properties":{"name":"Embassy of Honduras","category":"consulates","osm":"node/6340270786"},"geometry":{"type":"Point","coordinates":[-0.157151,51.521942]}},{"type":"Feature","properties":{"name":"Embassy of Hungary","category":"consulates","osm":"way/271283166"},"geometry":{"type":"Point","coordinates":[-0.152772,51.497266]}},{"type":"Feature","properties":{"name":"Embassy of Iceland","category":"consulates","osm":"way/318135949"},"geometry":{"type":"Point","coordinates":[-0.159486,51.497766]}},{"type":"Feature","properties":{"name":"Embassy of Indonesia","category":"consulates","osm":"node/5826414778"},"geometry":{"type":"Point","coordinates":[-0.151399,51.510211]}},{"type":"Feature","properties":{"name":"Embassy of Indonesia","category":"consulates","osm":"way/183368532"},"geometry":{"type":"Point","coordinates":[-0.131053,51.497064]}},{"type":"Feature","properties":{"name":"Embassy of Iran","category":"consulates","osm":"way/640097063"},"geometry":{"type":"Point","coordinates":[-0.172328,51.501463]}},{"type":"Feature","properties":{"name":"Embassy of Iraq","category":"consulates","osm":"relation/11152038"},"geometry":{"type":"Point","coordinates":[-0.180397,51.499333]}},{"type":"Feature","properties":{"name":"Embassy of Ireland","category":"consulates","osm":"way/551672289"},"geometry":{"type":"Point","coordinates":[-0.149967,51.500325]}},{"type":"Feature","properties":{"name":"Embassy of Ireland Passport and Visa Office","category":"consulates","osm":"node/2324517612"},"geometry":{"type":"Point","coordinates":[-0.185235,51.495227]}},{"type":"Feature","properties":{"name":"Embassy of Israel","category":"consulates","osm":"way/808093707"},"geometry":{"type":"Point","coordinates":[-0.18966,51.503205]}},{"type":"Feature","properties":{"name":"Embassy of Ivory Coast","category":"consulates","osm":"way/161492626"},"geometry":{"type":"Point","coordinates":[-0.151134,51.498881]}},{"type":"Feature","properties":{"name":"Embassy of Japan","category":"consulates","osm":"way/631183250"},"geometry":{"type":"Point","coordinates":[-0.146079,51.505363]}},{"type":"Feature","properties":{"name":"Embassy of Jordan","category":"consulates","osm":"way/796357463"},"geometry":{"type":"Point","coordinates":[-0.197812,51.502025]}},{"type":"Feature","properties":{"name":"Embassy of Kazakhstan","category":"consulates","osm":"way/369244554"},"geometry":{"type":"Point","coordinates":[-0.131003,51.507465]}},{"type":"Feature","properties":{"name":"Embassy of Kuwait","category":"consulates","osm":"way/186669161"},"geometry":{"type":"Point","coordinates":[-0.158735,51.502415]}},{"type":"Feature","properties":{"name":"Embassy of Laos","category":"consulates","osm":"way/751617390"},"geometry":{"type":"Point","coordinates":[-0.184347,51.513303]}},{"type":"Feature","properties":{"name":"Embassy of Latvia","category":"consulates","osm":"way/147991490"},"geometry":{"type":"Point","coordinates":[-0.15352,51.522382]}},{"type":"Feature","properties":{"name":"Embassy of Lebanon","category":"consulates","osm":"way/807711257"},"geometry":{"type":"Point","coordinates":[-0.192232,51.507887]}},{"type":"Feature","properties":{"name":"Embassy of Libya","category":"consulates","osm":"way/215315723"},"geometry":{"type":"Point","coordinates":[-0.16973,51.500358]}},{"type":"Feature","properties":{"name":"Embassy of Libya","category":"consulates","osm":"way/485843970"},"geometry":{"type":"Point","coordinates":[-0.154021,51.502325]}},{"type":"Feature","properties":{"name":"Embassy of Lithuania","category":"consulates","osm":"way/111800470"},"geometry":{"type":"Point","coordinates":[-0.130825,51.489546]}},{"type":"Feature","properties":{"name":"Embassy of Luxembourg","category":"consulates","osm":"way/530412680"},"geometry":{"type":"Point","coordinates":[-0.154534,51.501058]}},{"type":"Feature","properties":{"name":"Embassy of Madagascar","category":"consulates","osm":"node/8555110740"},"geometry":{"type":"Point","coordinates":[-0.162646,51.500833]}},{"type":"Feature","properties":{"name":"Embassy of Mexico","category":"consulates","osm":"way/589383471"},"geometry":{"type":"Point","coordinates":[-0.143698,51.51304]}},{"type":"Feature","properties":{"name":"Embassy of Moldova","category":"consulates","osm":"way/749603168"},"geometry":{"type":"Point","coordinates":[-0.255858,51.481933]}},{"type":"Feature","properties":{"name":"Embassy of Monaco","category":"consulates","osm":"way/617106005"},"geometry":{"type":"Point","coordinates":[-0.153715,51.510645]}},{"type":"Feature","properties":{"name":"Embassy of Mongolia","category":"consulates","osm":"way/128489638"},"geometry":{"type":"Point","coordinates":[-0.186838,51.501502]}},{"type":"Feature","properties":{"name":"Embassy of Montenegro","category":"consulates","osm":"way/813967641"},"geometry":{"type":"Point","coordinates":[-0.184691,51.499727]}},{"type":"Feature","properties":{"name":"Embassy of Morocco","category":"consulates","osm":"way/147360142"},"geometry":{"type":"Point","coordinates":[-0.147935,51.497566]}},{"type":"Feature","properties":{"name":"Embassy of Myanmar","category":"consulates","osm":"way/492852757"},"geometry":{"type":"Point","coordinates":[-0.148215,51.507585]}},{"type":"Feature","properties":{"name":"Embassy of Nepal","category":"consulates","osm":"way/807741308"},"geometry":{"type":"Point","coordinates":[-0.190598,51.507461]}},{"type":"Feature","properties":{"name":"Embassy of Nicaragua","category":"consulates","osm":"node/7538491640"},"geometry":{"type":"Point","coordinates":[-0.1933,51.5046]}},{"type":"Feature","properties":{"name":"Embassy of North Macedonia","category":"consulates","osm":"node/11272006896"},"geometry":{"type":"Point","coordinates":[-0.136963,51.493358]}},{"type":"Feature","properties":{"name":"Embassy of Norway","category":"consulates","osm":"way/550999095"},"geometry":{"type":"Point","coordinates":[-0.152965,51.498075]}},{"type":"Feature","properties":{"name":"Embassy of Panama","category":"consulates","osm":"way/630418304"},"geometry":{"type":"Point","coordinates":[-0.148502,51.505811]}},{"type":"Feature","properties":{"name":"Embassy of Paraguay","category":"consulates","osm":"node/7406212042"},"geometry":{"type":"Point","coordinates":[-0.18198,51.494932]}},{"type":"Feature","properties":{"name":"Embassy of Peru","category":"consulates","osm":"way/318135951"},"geometry":{"type":"Point","coordinates":[-0.159654,51.498176]}},{"type":"Feature","properties":{"name":"Embassy of Portugal","category":"consulates","osm":"way/296689710"},"geometry":{"type":"Point","coordinates":[-0.155623,51.499196]}},{"type":"Feature","properties":{"name":"Embassy of Portugal","category":"consulates","osm":"way/552539078"},"geometry":{"type":"Point","coordinates":[-0.155209,51.49958]}},{"type":"Feature","properties":{"name":"Embassy of Qatar","category":"consulates","osm":"way/632036220"},"geometry":{"type":"Point","coordinates":[-0.149252,51.505309]}},{"type":"Feature","properties":{"name":"Embassy of Romania","category":"consulates","osm":"way/808093702"},"geometry":{"type":"Point","coordinates":[-0.190042,51.503979]}},{"type":"Feature","properties":{"name":"Embassy of Saudi Arabia","category":"consulates","osm":"way/284626755"},"geometry":{"type":"Point","coordinates":[-0.147858,51.507227]}},{"type":"Feature","properties":{"name":"Embassy of Senegal","category":"consulates","osm":"way/825375392"},"geometry":{"type":"Point","coordinates":[-0.192672,51.496876]}},{"type":"Feature","properties":{"name":"Embassy of Serbia","category":"consulates","osm":"way/161492628"},"geometry":{"type":"Point","coordinates":[-0.15264,51.498279]}},{"type":"Feature","properties":{"name":"Embassy of Slovakia","category":"consulates","osm":"way/33202556"},"geometry":{"type":"Point","coordinates":[-0.192908,51.509269]}},{"type":"Feature","properties":{"name":"Embassy of South Korea","category":"consulates","osm":"way/537702227"},"geometry":{"type":"Point","coordinates":[-0.136198,51.498057]}},{"type":"Feature","properties":{"name":"Embassy of Spain","category":"consulates","osm":"way/550601185"},"geometry":{"type":"Point","coordinates":[-0.153663,51.497631]}},{"type":"Feature","properties":{"name":"Embassy of Spain","category":"consulates","osm":"way/800779582"},"geometry":{"type":"Point","coordinates":[-0.195683,51.507351]}},{"type":"Feature","properties":{"name":"Embassy of Sudan","category":"consulates","osm":"node/1950873470"},"geometry":{"type":"Point","coordinates":[-0.138629,51.504868]}},{"type":"Feature","properties":{"name":"Embassy of Sweden","category":"consulates","osm":"way/202352317"},"geometry":{"type":"Point","coordinates":[-0.160327,51.518936]}},{"type":"Feature","properties":{"name":"Embassy of Switzerland","category":"consulates","osm":"way/202354466"},"geometry":{"type":"Point","coordinates":[-0.160554,51.518374]}},{"type":"Feature","properties":{"name":"Embassy of the Arab Republic of Egypt","category":"consulates","osm":"way/625692679"},"geometry":{"type":"Point","coordinates":[-0.151669,51.507968]}},{"type":"Feature","properties":{"name":"Embassy of the Czech Republic","category":"consulates","osm":"way/149060315"},"geometry":{"type":"Point","coordinates":[-0.193496,51.509403]}},{"type":"Feature","properties":{"name":"Embassy of the Democratic People's Republic of Korea","category":"consulates","osm":"way/219057085"},"geometry":{"type":"Point","coordinates":[-0.289239,51.503137]}},{"type":"Feature","properties":{"name":"Embassy of the Islamic Republic of Mauritania","category":"consulates","osm":"way/449283141"},"geometry":{"type":"Point","coordinates":[-0.140742,51.493914]}},{"type":"Feature","properties":{"name":"Embassy of the Kingdom of Bahrain Cultural Office","category":"consulates","osm":"way/812914308"},"geometry":{"type":"Point","coordinates":[-0.183703,51.496384]}},{"type":"Feature","properties":{"name":"Embassy of the Kyrgyz Republic","category":"consulates","osm":"way/677906540"},"geometry":{"type":"Point","coordinates":[-0.158385,51.519876]}},{"type":"Feature","properties":{"name":"Embassy of the Netherlands","category":"consulates","osm":"way/202281848"},"geometry":{"type":"Point","coordinates":[-0.182227,51.501045]}},{"type":"Feature","properties":{"name":"Embassy of the People's Republic of China","category":"consulates","osm":"way/667366337"},"geometry":{"type":"Point","coordinates":[-0.146014,51.521049]}},{"type":"Feature","properties":{"name":"Embassy of the Philippines","category":"consulates","osm":"way/153661829"},"geometry":{"type":"Point","coordinates":[-0.130684,51.508617]}},{"type":"Feature","properties":{"name":"Embassy of the Philippines - Trade Section","category":"consulates","osm":"node/7619804066"},"geometry":{"type":"Point","coordinates":[-0.187124,51.501914]}},{"type":"Feature","properties":{"name":"Embassy of the Republic of Albania","category":"consulates","osm":"node/13432130334"},"geometry":{"type":"Point","coordinates":[-0.143964,51.490709]}},{"type":"Feature","properties":{"name":"Embassy of the Republic of Croatia","category":"consulates","osm":"way/1386072178"},"geometry":{"type":"Point","coordinates":[-0.141294,51.523233]}},{"type":"Feature","properties":{"name":"Embassy of the Republic of Cuba","category":"consulates","osm":"way/81459096"},"geometry":{"type":"Point","coordinates":[-0.125425,51.516176]}},{"type":"Feature","properties":{"name":"Embassy of the Republic of Guinea","category":"consulates","osm":"node/8130505751"},"geometry":{"type":"Point","coordinates":[-0.166363,51.518585]}},{"type":"Feature","properties":{"name":"Embassy of the Republic of Liberia","category":"consulates","osm":"way/1386072199"},"geometry":{"type":"Point","coordinates":[-0.140918,51.522874]}},{"type":"Feature","properties":{"name":"Embassy of the Republic of Maldives","category":"consulates","osm":"way/677474689"},"geometry":{"type":"Point","coordinates":[-0.152808,51.521603]}},{"type":"Feature","properties":{"name":"Embassy of the Republic of North Macedonia","category":"consulates","osm":"node/169359416"},"geometry":{"type":"Point","coordinates":[-0.137884,51.499222]}},{"type":"Feature","properties":{"name":"Embassy of the Republic of Poland","category":"consulates","osm":"way/667366336"},"geometry":{"type":"Point","coordinates":[-0.14582,51.520757]}},{"type":"Feature","properties":{"name":"Embassy of the Republic of Poland Economic Section","category":"consulates","osm":"node/4675821975"},"geometry":{"type":"Point","coordinates":[-0.108196,51.513484]}},{"type":"Feature","properties":{"name":"Embassy of the Republic of Slovenia","category":"consulates","osm":"way/674563171"},"geometry":{"type":"Point","coordinates":[-0.132229,51.500005]}},{"type":"Feature","properties":{"name":"Embassy of the Russian Federation","category":"consulates","osm":"way/807741324"},"geometry":{"type":"Point","coordinates":[-0.191653,51.509539]}},{"type":"Feature","properties":{"name":"Embassy of the State of Qatar","category":"consulates","osm":"way/341350964"},"geometry":{"type":"Point","coordinates":[-0.150354,51.507023]}},{"type":"Feature","properties":{"name":"Embassy of the Sultanate of Oman","category":"consulates","osm":"way/117010288"},"geometry":{"type":"Point","coordinates":[-0.178888,51.49741]}},{"type":"Feature","properties":{"name":"Embassy of the Syrian Arab Republic","category":"consulates","osm":"way/552539075"},"geometry":{"type":"Point","coordinates":[-0.154908,51.499812]}},{"type":"Feature","properties":{"name":"Embassy of the United Arab Emirates","category":"consulates","osm":"node/7095993964"},"geometry":{"type":"Point","coordinates":[-0.153873,51.500583]}},{"type":"Feature","properties":{"name":"Embassy of the United States","category":"consulates","osm":"way/360989833"},"geometry":{"type":"Point","coordinates":[-0.132224,51.482594]}},{"type":"Feature","properties":{"name":"Embassy of Togo","category":"consulates","osm":"node/7009810044"},"geometry":{"type":"Point","coordinates":[-0.133119,51.568479]}},{"type":"Feature","properties":{"name":"Embassy of Tunisia","category":"consulates","osm":"way/332146896"},"geometry":{"type":"Point","coordinates":[-0.174095,51.501371]}},{"type":"Feature","properties":{"name":"Embassy of Turkey","category":"consulates","osm":"way/147360150"},"geometry":{"type":"Point","coordinates":[-0.152288,51.49991]}},{"type":"Feature","properties":{"name":"Embassy of Turkmenistan","category":"consulates","osm":"way/792846939"},"geometry":{"type":"Point","coordinates":[-0.209649,51.505838]}},{"type":"Feature","properties":{"name":"Embassy of Ukraine","category":"consulates","osm":"way/475388367"},"geometry":{"type":"Point","coordinates":[-0.208161,51.506089]}},{"type":"Feature","properties":{"name":"Embassy of Uruguay","category":"consulates","osm":"node/7953132063"},"geometry":{"type":"Point","coordinates":[-0.166458,51.498468]}},{"type":"Feature","properties":{"name":"Embassy of Uzbekistan","category":"consulates","osm":"way/793522923"},"geometry":{"type":"Point","coordinates":[-0.205146,51.506462]}},{"type":"Feature","properties":{"name":"Embassy of Venezuela","category":"consulates","osm":"way/697869263"},"geometry":{"type":"Point","coordinates":[-0.173828,51.495491]}},{"type":"Feature","properties":{"name":"Embassy of Vietnam","category":"consulates","osm":"way/814811380"},"geometry":{"type":"Point","coordinates":[-0.186152,51.500295]}},{"type":"Feature","properties":{"name":"Embassy of Yemen","category":"consulates","osm":"way/844902090"},"geometry":{"type":"Point","coordinates":[-0.178692,51.495108]}},{"type":"Feature","properties":{"name":"Embassy of Zimbabwe","category":"consulates","osm":"way/148377823"},"geometry":{"type":"Point","coordinates":[-0.124046,51.509669]}},{"type":"Feature","properties":{"name":"Equatorial Guinea","category":"consulates","osm":"way/418362432"},"geometry":{"type":"Point","coordinates":[-0.139722,51.506344]}},{"type":"Feature","properties":{"name":"Flanders House","category":"consulates","osm":"node/11838356516"},"geometry":{"type":"Point","coordinates":[-0.143932,51.516304]}},{"type":"Feature","properties":{"name":"Ghana High Commission","category":"consulates","osm":"way/147361680"},"geometry":{"type":"Point","coordinates":[-0.155294,51.498815]}},{"type":"Feature","properties":{"name":"Guyana High Commission","category":"consulates","osm":"way/151162751"},"geometry":{"type":"Point","coordinates":[-0.191983,51.510137]}},{"type":"Feature","properties":{"name":"High Commission for Antigua and Barbuda","category":"consulates","osm":"node/6382482132"},"geometry":{"type":"Point","coordinates":[-0.165136,51.518909]}},{"type":"Feature","properties":{"name":"High Commission for Saint Vincent & The Grenadines","category":"consulates","osm":"node/6373709914"},"geometry":{"type":"Point","coordinates":[-0.187011,51.501362]}},{"type":"Feature","properties":{"name":"High Commission of Botswana","category":"consulates","osm":"way/208904545"},"geometry":{"type":"Point","coordinates":[-0.148974,51.515042]}},{"type":"Feature","properties":{"name":"High Commission of Cameroon","category":"consulates","osm":"way/225720057"},"geometry":{"type":"Point","coordinates":[-0.209046,51.505558]}},{"type":"Feature","properties":{"name":"High Commission of Canada","category":"consulates","osm":"relation/20346396"},"geometry":{"type":"Point","coordinates":[-0.129454,51.507945]}},{"type":"Feature","properties":{"name":"High Commission of Dominica","category":"consulates","osm":"node/7831109680"},"geometry":{"type":"Point","coordinates":[-0.186918,51.491365]}},{"type":"Feature","properties":{"name":"High Commission of Eswatini","category":"consulates","osm":"node/169461881"},"geometry":{"type":"Point","coordinates":[-0.140027,51.499508]}},{"type":"Feature","properties":{"name":"High Commission of Fiji","category":"consulates","osm":"way/808866205"},"geometry":{"type":"Point","coordinates":[-0.181717,51.500769]}},{"type":"Feature","properties":{"name":"High Commission of India","category":"consulates","osm":"way/25904243"},"geometry":{"type":"Point","coordinates":[-0.118206,51.512512]}},{"type":"Feature","properties":{"name":"High Commission of Malaysia","category":"consulates","osm":"way/147360113"},"geometry":{"type":"Point","coordinates":[-0.152491,51.500089]}},{"type":"Feature","properties":{"name":"High Commission of Mauritius","category":"consulates","osm":"way/810376696"},"geometry":{"type":"Point","coordinates":[-0.181779,51.497574]}},{"type":"Feature","properties":{"name":"High Commission of Namibia","category":"consulates","osm":"way/666574225"},"geometry":{"type":"Point","coordinates":[-0.144822,51.518433]}},{"type":"Feature","properties":{"name":"High Commission of New Zealand","category":"consulates","osm":"relation/2071332"},"geometry":{"type":"Point","coordinates":[-0.131716,51.507842]}},{"type":"Feature","properties":{"name":"High Commission of Pakistan","category":"consulates","osm":"way/856033298"},"geometry":{"type":"Point","coordinates":[-0.158852,51.499383]}},{"type":"Feature","properties":{"name":"High Commission of Saint Kitts and Nevis","category":"consulates","osm":"node/6373709913"},"geometry":{"type":"Point","coordinates":[-0.186939,51.501331]}},{"type":"Feature","properties":{"name":"High Commission of Saint Lucia","category":"consulates","osm":"node/7831109679"},"geometry":{"type":"Point","coordinates":[-0.187078,51.491323]}},{"type":"Feature","properties":{"name":"High Commission of The Bahamas","category":"consulates","osm":"way/624602487"},"geometry":{"type":"Point","coordinates":[-0.148667,51.507147]}},{"type":"Feature","properties":{"name":"High Commission of the Democratic Socialist Republic of Sri Lanka","category":"consulates","osm":"way/210585919"},"geometry":{"type":"Point","coordinates":[-0.170848,51.512806]}},{"type":"Feature","properties":{"name":"High Commission of the Republic of Cyprus","category":"consulates","osm":"way/415467400"},"geometry":{"type":"Point","coordinates":[-0.136646,51.50755]}},{"type":"Feature","properties":{"name":"High Commission of Trinidad and Tobago","category":"consulates","osm":"way/147360137"},"geometry":{"type":"Point","coordinates":[-0.152167,51.499832]}},{"type":"Feature","properties":{"name":"High Commission of Zambia","category":"consulates","osm":"way/110722823"},"geometry":{"type":"Point","coordinates":[-0.183685,51.500749]}},{"type":"Feature","properties":{"name":"Iraqi Commercial Attaché Office","category":"consulates","osm":"node/7566715809"},"geometry":{"type":"Point","coordinates":[-0.180209,51.499463]}},{"type":"Feature","properties":{"name":"Italian Embassy","category":"consulates","osm":"way/271280185"},"geometry":{"type":"Point","coordinates":[-0.149302,51.511916]}},{"type":"Feature","properties":{"name":"Italian Embassy (Defence)","category":"consulates","osm":"way/161492636"},"geometry":{"type":"Point","coordinates":[-0.148541,51.498144]}},{"type":"Feature","properties":{"name":"Italian Embassy Residence","category":"consulates","osm":"way/271277835"},"geometry":{"type":"Point","coordinates":[-0.149799,51.511823]}},{"type":"Feature","properties":{"name":"Jamaican High Commission","category":"consulates","osm":"way/641603104"},"geometry":{"type":"Point","coordinates":[-0.174904,51.500189]}},{"type":"Feature","properties":{"name":"Kenya High Commission","category":"consulates","osm":"way/667366335"},"geometry":{"type":"Point","coordinates":[-0.145782,51.520664]}},{"type":"Feature","properties":{"name":"Korean Cultural Centre UK","category":"consulates","osm":"way/551258365"},"geometry":{"type":"Point","coordinates":[-0.125586,51.507281]}},{"type":"Feature","properties":{"name":"Kosovo Embassy","category":"consulates","osm":"node/7590593052"},"geometry":{"type":"Point","coordinates":[-0.115006,51.521951]}},{"type":"Feature","properties":{"name":"Lesotho High Commission","category":"consulates","osm":"way/553732929"},"geometry":{"type":"Point","coordinates":[-0.155487,51.497727]}},{"type":"Feature","properties":{"name":"Main building","category":"consulates","osm":"way/33202561"},"geometry":{"type":"Point","coordinates":[-0.191846,51.509471]}},{"type":"Feature","properties":{"name":"Malawi High Commission","category":"consulates","osm":"node/4541862520"},"geometry":{"type":"Point","coordinates":[-0.115168,51.521502]}},{"type":"Feature","properties":{"name":"Malaysian High Commission Student Department","category":"consulates","osm":"way/752332748"},"geometry":{"type":"Point","coordinates":[-0.185667,51.512144]}},{"type":"Feature","properties":{"name":"Malta High Commission","category":"consulates","osm":"way/289660515"},"geometry":{"type":"Point","coordinates":[-0.137337,51.509091]}},{"type":"Feature","properties":{"name":"Mexican Embassy","category":"consulates","osm":"way/147360149"},"geometry":{"type":"Point","coordinates":[-0.152738,51.500358]}},{"type":"Feature","properties":{"name":"Mozambique High Commission","category":"consulates","osm":"way/1386072201"},"geometry":{"type":"Point","coordinates":[-0.141026,51.522969]}},{"type":"Feature","properties":{"name":"Nigerian High Commission","category":"consulates","osm":"way/369233790"},"geometry":{"type":"Point","coordinates":[-0.125269,51.506712]}},{"type":"Feature","properties":{"name":"Office Of Educational Affairs of the Royal Thai Embassy","category":"consulates","osm":"way/359620473"},"geometry":{"type":"Point","coordinates":[-0.173965,51.501376]}},{"type":"Feature","properties":{"name":"Office of the Air Attaché of Royal Thai Embassy","category":"consulates","osm":"way/128300056"},"geometry":{"type":"Point","coordinates":[-0.186005,51.501023]}},{"type":"Feature","properties":{"name":"Official Residence of the Ambassador of Burma","category":"consulates","osm":"way/946104078"},"geometry":{"type":"Point","coordinates":[-0.187867,51.557746]}},{"type":"Feature","properties":{"name":"Official residence of the Ambassador of Finland","category":"consulates","osm":"way/807741302"},"geometry":{"type":"Point","coordinates":[-0.190194,51.506665]}},{"type":"Feature","properties":{"name":"Official residence of the Ambassador of France","category":"consulates","osm":"way/807741314"},"geometry":{"type":"Point","coordinates":[-0.190943,51.50813]}},{"type":"Feature","properties":{"name":"Official Residence of the Ambassador of Israel","category":"consulates","osm":"way/548392115"},"geometry":{"type":"Point","coordinates":[-0.170691,51.539699]}},{"type":"Feature","properties":{"name":"Official residence of the Ambassador of Japan","category":"consulates","osm":"way/807711252"},"geometry":{"type":"Point","coordinates":[-0.192498,51.508536]}},{"type":"Feature","properties":{"name":"Official residence of the Ambassador of Kuwait","category":"consulates","osm":"way/807711254"},"geometry":{"type":"Point","coordinates":[-0.192331,51.508209]}},{"type":"Feature","properties":{"name":"Official residence of the Ambassador of Norway","category":"consulates","osm":"way/808093686"},"geometry":{"type":"Point","coordinates":[-0.190871,51.505503]}},{"type":"Feature","properties":{"name":"Official residence of the Ambassador of Russia","category":"consulates","osm":"way/807741305"},"geometry":{"type":"Point","coordinates":[-0.190392,51.507058]}},{"type":"Feature","properties":{"name":"Official residence of the Ambassador of Saudi Arabia","category":"consulates","osm":"way/807711235"},"geometry":{"type":"Point","coordinates":[-0.192744,51.508866]}},{"type":"Feature","properties":{"name":"Official Residence of the Ambassador of the Czech Republic","category":"consulates","osm":"way/514551770"},"geometry":{"type":"Point","coordinates":[-0.187064,51.561439]}},{"type":"Feature","properties":{"name":"Official Residence of the Ambassador of the People's Republic of China","category":"consulates","osm":"way/427820754"},"geometry":{"type":"Point","coordinates":[-0.186965,51.562113]}},{"type":"Feature","properties":{"name":"Official Residence of the Ambassador of the Republic of Korea","category":"consulates","osm":"way/758781539"},"geometry":{"type":"Point","coordinates":[-0.183665,51.500527]}},{"type":"Feature","properties":{"name":"Official residence of the High Commissioner from India","category":"consulates","osm":"way/807741318"},"geometry":{"type":"Point","coordinates":[-0.191264,51.508753]}},{"type":"Feature","properties":{"name":"Official Residence of the High Commissioner of Sri Lanka","category":"consulates","osm":"way/697821623"},"geometry":{"type":"Point","coordinates":[-0.167041,51.536905]}},{"type":"Feature","properties":{"name":"Papua New Guinea High Commission","category":"consulates","osm":"way/675836597"},"geometry":{"type":"Point","coordinates":[-0.133253,51.507473]}},{"type":"Feature","properties":{"name":"Polish Embassy Trade & Investment Promotion Section","category":"consulates","osm":"node/3049612580"},"geometry":{"type":"Point","coordinates":[-0.158583,51.519836]}},{"type":"Feature","properties":{"name":"Qatar Embassy Medical Office","category":"consulates","osm":"way/838875445"},"geometry":{"type":"Point","coordinates":[-0.187617,51.492386]}},{"type":"Feature","properties":{"name":"Residence of the Ambassador of Estonia","category":"consulates","osm":"way/808866244"},"geometry":{"type":"Point","coordinates":[-0.181207,51.500487]}},{"type":"Feature","properties":{"name":"Residence of the Ambassador of Greece","category":"consulates","osm":"way/616985681"},"geometry":{"type":"Point","coordinates":[-0.154147,51.511365]}},{"type":"Feature","properties":{"name":"Residence of the Argentine Ambassador","category":"consulates","osm":"way/189327136"},"geometry":{"type":"Point","coordinates":[-0.153181,51.500563]}},{"type":"Feature","properties":{"name":"Residence of the Belgian Ambassador","category":"consulates","osm":"way/147360132"},"geometry":{"type":"Point","coordinates":[-0.151805,51.49881]}},{"type":"Feature","properties":{"name":"Residence of the Brazilian ambassador","category":"consulates","osm":"way/164186493"},"geometry":{"type":"Point","coordinates":[-0.153528,51.509355]}},{"type":"Feature","properties":{"name":"Residence of the Cypriot High Commissioner","category":"consulates","osm":"way/860055612"},"geometry":{"type":"Point","coordinates":[-0.164564,51.484265]}},{"type":"Feature","properties":{"name":"Residence of the Turkish Ambassador","category":"consulates","osm":"way/669457010"},"geometry":{"type":"Point","coordinates":[-0.146237,51.521839]}},{"type":"Feature","properties":{"name":"Residence, Embassy of Sweden","category":"consulates","osm":"way/210882888"},"geometry":{"type":"Point","coordinates":[-0.145314,51.519789]}},{"type":"Feature","properties":{"name":"Royal Embassy of Cambodia","category":"consulates","osm":"way/552623286"},"geometry":{"type":"Point","coordinates":[-0.221415,51.545517]}},{"type":"Feature","properties":{"name":"Royal Embassy of Saudi Arabia","category":"consulates","osm":"way/175629793"},"geometry":{"type":"Point","coordinates":[-0.280123,51.492255]}},{"type":"Feature","properties":{"name":"Royal Thai Embassy","category":"consulates","osm":"way/313318371"},"geometry":{"type":"Point","coordinates":[-0.148015,51.505569]}},{"type":"Feature","properties":{"name":"Royal Thai Embassy","category":"consulates","osm":"way/392722407"},"geometry":{"type":"Point","coordinates":[-0.180113,51.498464]}},{"type":"Feature","properties":{"name":"Rwanda High Commission","category":"consulates","osm":"way/112555294"},"geometry":{"type":"Point","coordinates":[-0.163359,51.520124]}},{"type":"Feature","properties":{"name":"Science & Technology Section (Embassy of France)","category":"consulates","osm":"way/850052653"},"geometry":{"type":"Point","coordinates":[-0.175317,51.495095]}},{"type":"Feature","properties":{"name":"Sierra Leone High Commission","category":"consulates","osm":"way/421882352"},"geometry":{"type":"Point","coordinates":[-0.11742,51.518904]}},{"type":"Feature","properties":{"name":"Singapore High Commission","category":"consulates","osm":"way/530412694"},"geometry":{"type":"Point","coordinates":[-0.156469,51.50026]}},{"type":"Feature","properties":{"name":"South African High Commission","category":"consulates","osm":"node/571468543"},"geometry":{"type":"Point","coordinates":[-0.126788,51.508182]}},{"type":"Feature","properties":{"name":"Taipei Representative Office","category":"consulates","osm":"way/147253660"},"geometry":{"type":"Point","coordinates":[-0.146075,51.496206]}},{"type":"Feature","properties":{"name":"Tanzania High Commission","category":"consulates","osm":"way/208904558"},"geometry":{"type":"Point","coordinates":[-0.148865,51.514761]}},{"type":"Feature","properties":{"name":"The Gambia High Commission","category":"consulates","osm":"way/128290517"},"geometry":{"type":"Point","coordinates":[-0.187596,51.501813]}},{"type":"Feature","properties":{"name":"Tonga High Commission","category":"consulates","osm":"way/680923890"},"geometry":{"type":"Point","coordinates":[-0.164307,51.518118]}},{"type":"Feature","properties":{"name":"Trade Commission of Hungary","category":"consulates","osm":"way/550368367"},"geometry":{"type":"Point","coordinates":[-0.152609,51.496862]}},{"type":"Feature","properties":{"name":"Trade delegation of the Russian Federation in the UK","category":"consulates","osm":"way/61887434"},"geometry":{"type":"Point","coordinates":[-0.153386,51.565094]}},{"type":"Feature","properties":{"name":"UAE military Attache office","category":"consulates","osm":"node/5053068184"},"geometry":{"type":"Point","coordinates":[-0.181002,51.498915]}},{"type":"Feature","properties":{"name":"Uganda High Commission","category":"consulates","osm":"node/588007728"},"geometry":{"type":"Point","coordinates":[-0.128265,51.50725]}},{"type":"Feature","properties":{"name":"Winfield House","category":"consulates","osm":"way/8076400"},"geometry":{"type":"Point","coordinates":[-0.164407,51.530927]}}]}