{"type":"FeatureCollection","features":[{"type":"Feature","properties":{"name":null,"category":"golf","osm":"way/196841494"},"geometry":{"type":"Point","coordinates":[0.057903,51.35922]}},{"type":"Feature","properties":{"name":null,"category":"golf","osm":"way/400675225"},"geometry":{"type":"Point","coordinates":[-0.056642,51.390842]}},{"type":"Feature","properties":{"name":null,"category":"golf","osm":"way/568377151"},"geometry":{"type":"Point","coordinates":[0.096041,51.316284]}},{"type":"Feature","properties":{"name":null,"category":"golf","osm":"way/678624953"},"geometry":{"type":"Point","coordinates":[-0.015796,51.632037]}},{"type":"Feature","properties":{"name":null,"category":"golf","osm":"way/910967541"},"geometry":{"type":"Point","coordinates":[-0.236938,51.427075]}},{"type":"Feature","properties":{"name":null,"category":"golf","osm":"way/1263335552"},"geometry":{"type":"Point","coordinates":[0.158887,51.565897]}},{"type":"Feature","properties":{"name":"9 Hole Par 3 Golf Course","category":"golf","osm":"way/508221481"},"geometry":{"type":"Point","coordinates":[-0.302092,51.597989]}},{"type":"Feature","properties":{"name":"Addington Court Golf Club","category":"golf","osm":"relation/4034056"},"geometry":{"type":"Point","coordinates":[-0.028839,51.345989]}},{"type":"Feature","properties":{"name":"Addington Palace Golf Club","category":"golf","osm":"way/5020251"},"geometry":{"type":"Point","coordinates":[-0.042993,51.361645]}},{"type":"Feature","properties":{"name":"Airlinks Golf Course","category":"golf","osm":"way/4251251"},"geometry":{"type":"Point","coordinates":[-0.391503,51.492077]}},{"type":"Feature","properties":{"name":"Alexandra Palace Pitch & Putt","category":"golf","osm":"way/511273594"},"geometry":{"type":"Point","coordinates":[-0.126259,51.594659]}},{"type":"Feature","properties":{"name":"Aquarius Golf Club","category":"golf","osm":"way/26576485"},"geometry":{"type":"Point","coordinates":[-0.052964,51.454989]}},{"type":"Feature","properties":{"name":"Arkley Golf Club","category":"golf","osm":"way/24012861"},"geometry":{"type":"Point","coordinates":[-0.237762,51.65092]}},{"type":"Feature","properties":{"name":"Banstead Downs Golf Club","category":"golf","osm":"relation/19445952"},"geometry":{"type":"Point","coordinates":[-0.206972,51.33471]}},{"type":"Feature","properties":{"name":"Barnehurst Golf Course","category":"golf","osm":"way/5154232"},"geometry":{"type":"Point","coordinates":[0.172763,51.460138]}},{"type":"Feature","properties":{"name":"Bexleyheath Golf Club","category":"golf","osm":"way/5214805"},"geometry":{"type":"Point","coordinates":[0.132244,51.4503]}},{"type":"Feature","properties":{"name":"Bigshots (Northwick Park)","category":"golf","osm":"way/10523602"},"geometry":{"type":"Point","coordinates":[-0.319806,51.571677]}},{"type":"Feature","properties":{"name":"Brent Valley Public Golf Course","category":"golf","osm":"way/221122455"},"geometry":{"type":"Point","coordinates":[-0.347084,51.517354]}},{"type":"Feature","properties":{"name":"Bromley Golf Centre","category":"golf","osm":"way/9940299"},"geometry":{"type":"Point","coordinates":[0.049376,51.384127]}},{"type":"Feature","properties":{"name":"Buckinghamshire Golf Course","category":"golf","osm":"way/10155121"},"geometry":{"type":"Point","coordinates":[-0.491673,51.572693]}},{"type":"Feature","properties":{"name":"Bush Hill Park Golf Club","category":"golf","osm":"way/3810263"},"geometry":{"type":"Point","coordinates":[-0.088053,51.646284]}},{"type":"Feature","properties":{"name":"C & L Golf & Country Club","category":"golf","osm":"way/8914343"},"geometry":{"type":"Point","coordinates":[-0.402391,51.545969]}},{"type":"Feature","properties":{"name":"Championship Course","category":"golf","osm":"way/10712095"},"geometry":{"type":"Point","coordinates":[-0.029739,51.341938]}},{"type":"Feature","properties":{"name":"Chelsfield Lakes Golf Club","category":"golf","osm":"way/5059666"},"geometry":{"type":"Point","coordinates":[0.123843,51.348813]}},{"type":"Feature","properties":{"name":"Cherry Lodge Golf Club","category":"golf","osm":"way/5107818"},"geometry":{"type":"Point","coordinates":[0.058031,51.310252]}},{"type":"Feature","properties":{"name":"Chingford Golf Course","category":"golf","osm":"way/23198505"},"geometry":{"type":"Point","coordinates":[0.007483,51.638038]}},{"type":"Feature","properties":{"name":"Chislehurst Golf Course","category":"golf","osm":"way/7975880"},"geometry":{"type":"Point","coordinates":[0.062926,51.413725]}},{"type":"Feature","properties":{"name":"Coombe Hill Golf Club","category":"golf","osm":"way/4782157"},"geometry":{"type":"Point","coordinates":[-0.261675,51.422414]}},{"type":"Feature","properties":{"name":"Coombe Wood Golf Course","category":"golf","osm":"way/22392855"},"geometry":{"type":"Point","coordinates":[-0.273733,51.419109]}},{"type":"Feature","properties":{"name":"Coulsdon Manor & Golf Club","category":"golf","osm":"way/13869268"},"geometry":{"type":"Point","coordinates":[-0.122041,51.315653]}},{"type":"Feature","properties":{"name":"Cranfield Golf Academy Chadwell Heath (Driving Range)","category":"golf","osm":"way/30124479"},"geometry":{"type":"Point","coordinates":[0.14261,51.57935]}},{"type":"Feature","properties":{"name":"Cranfield Golf Course","category":"golf","osm":"way/101963760"},"geometry":{"type":"Point","coordinates":[0.148792,51.576944]}},{"type":"Feature","properties":{"name":"Cranham Golf Course","category":"golf","osm":"way/23454278"},"geometry":{"type":"Point","coordinates":[0.282267,51.555764]}},{"type":"Feature","properties":{"name":"Crews Hill Golf Course","category":"golf","osm":"relation/12203233"},"geometry":{"type":"Point","coordinates":[-0.109861,51.680745]}},{"type":"Feature","properties":{"name":"Croham Hurst Golf Course","category":"golf","osm":"way/5104288"},"geometry":{"type":"Point","coordinates":[-0.074045,51.351564]}},{"type":"Feature","properties":{"name":"Cuddington Golf Course","category":"golf","osm":"way/17750111"},"geometry":{"type":"Point","coordinates":[-0.220997,51.336755]}},{"type":"Feature","properties":{"name":"David Lloyd Hampton","category":"golf","osm":"way/23060908"},"geometry":{"type":"Point","coordinates":[-0.365665,51.437079]}},{"type":"Feature","properties":{"name":"Dukes Meadows Golf, Tennis & Ski","category":"golf","osm":"way/13891693"},"geometry":{"type":"Point","coordinates":[-0.263376,51.473315]}},{"type":"Feature","properties":{"name":"Dulwich and Sydenham Hill Golf Club","category":"golf","osm":"way/28237051"},"geometry":{"type":"Point","coordinates":[-0.073853,51.438935]}},{"type":"Feature","properties":{"name":"Ealing Golf Course","category":"golf","osm":"way/4250571"},"geometry":{"type":"Point","coordinates":[-0.317202,51.530265]}},{"type":"Feature","properties":{"name":"Eltham Warren Golf Club","category":"golf","osm":"way/10374680"},"geometry":{"type":"Point","coordinates":[0.0716,51.455163]}},{"type":"Feature","properties":{"name":"Enfield Golf Club","category":"golf","osm":"way/3810598"},"geometry":{"type":"Point","coordinates":[-0.102806,51.650146]}},{"type":"Feature","properties":{"name":"Falconwood Course","category":"golf","osm":"way/265879314"},"geometry":{"type":"Point","coordinates":[-0.027631,51.347465]}},{"type":"Feature","properties":{"name":"Finchley Golf Course","category":"golf","osm":"relation/15157087"},"geometry":{"type":"Point","coordinates":[-0.201164,51.609794]}},{"type":"Feature","properties":{"name":"Fulwell Golf Club","category":"golf","osm":"way/293728142"},"geometry":{"type":"Point","coordinates":[-0.360014,51.434208]}},{"type":"Feature","properties":{"name":"Grims Dyke Golf Club","category":"golf","osm":"way/8036562"},"geometry":{"type":"Point","coordinates":[-0.363185,51.620752]}},{"type":"Feature","properties":{"name":"Grovelands Pitch & Putt Course","category":"golf","osm":"way/23447770"},"geometry":{"type":"Point","coordinates":[-0.116942,51.629901]}},{"type":"Feature","properties":{"name":"Grovelands' private golf course","category":"golf","osm":"way/46040701"},"geometry":{"type":"Point","coordinates":[-0.198925,51.62648]}},{"type":"Feature","properties":{"name":"Hadley Wood Golf Course","category":"golf","osm":"way/3819393"},"geometry":{"type":"Point","coordinates":[-0.162798,51.661578]}},{"type":"Feature","properties":{"name":"Hainault Forest Golf Club","category":"golf","osm":"way/25925045"},"geometry":{"type":"Point","coordinates":[0.140478,51.615062]}},{"type":"Feature","properties":{"name":"Hampstead Golf Club","category":"golf","osm":"way/9250722"},"geometry":{"type":"Point","coordinates":[-0.178209,51.575491]}},{"type":"Feature","properties":{"name":"Hampton Court Palace Golf Club","category":"golf","osm":"way/293556109"},"geometry":{"type":"Point","coordinates":[-0.326915,51.397111]}},{"type":"Feature","properties":{"name":"Hanger Hill Park Pitch & Putt","category":"golf","osm":"way/23516929"},"geometry":{"type":"Point","coordinates":[-0.295951,51.526576]}},{"type":"Feature","properties":{"name":"Harrow Hill Golf Course","category":"golf","osm":"way/4857806"},"geometry":{"type":"Point","coordinates":[-0.328106,51.577315]}},{"type":"Feature","properties":{"name":"Harrow School Golf Course","category":"golf","osm":"way/5197959"},"geometry":{"type":"Point","coordinates":[-0.333643,51.569022]}},{"type":"Feature","properties":{"name":"Hartsbourne Country Club","category":"golf","osm":"way/8036569"},"geometry":{"type":"Point","coordinates":[-0.355336,51.629256]}},{"type":"Feature","properties":{"name":"Haste Hill Golf Course","category":"golf","osm":"way/8068762"},"geometry":{"type":"Point","coordinates":[-0.424068,51.59924]}},{"type":"Feature","properties":{"name":"Hendon Golf Course","category":"golf","osm":"way/4179926"},"geometry":{"type":"Point","coordinates":[-0.216325,51.602665]}},{"type":"Feature","properties":{"name":"High Elms Golf Club","category":"golf","osm":"relation/19543943"},"geometry":{"type":"Point","coordinates":[0.072221,51.347195]}},{"type":"Feature","properties":{"name":"Highgate Golf Club","category":"golf","osm":"way/4377803"},"geometry":{"type":"Point","coordinates":[-0.163457,51.578549]}},{"type":"Feature","properties":{"name":"Hillingdon Golf Course","category":"golf","osm":"way/44772410"},"geometry":{"type":"Point","coordinates":[-0.464605,51.537907]}},{"type":"Feature","properties":{"name":"Horsenden Hill Activity Centre","category":"golf","osm":"way/218892441"},"geometry":{"type":"Point","coordinates":[-0.322381,51.546926]}},{"type":"Feature","properties":{"name":"Horton Park Golf Club","category":"golf","osm":"way/23258941"},"geometry":{"type":"Point","coordinates":[-0.283372,51.355514]}},{"type":"Feature","properties":{"name":"Hounslow Golf Park","category":"golf","osm":"way/1155660398"},"geometry":{"type":"Point","coordinates":[-0.393917,51.457298]}},{"type":"Feature","properties":{"name":"Ilford Golf Club","category":"golf","osm":"relation/14104649"},"geometry":{"type":"Point","coordinates":[0.056936,51.561785]}},{"type":"Feature","properties":{"name":"Ingrebourne Links Golf Course","category":"golf","osm":"way/183480485"},"geometry":{"type":"Point","coordinates":[0.230958,51.513613]}},{"type":"Feature","properties":{"name":"Langley Park Golf Course","category":"golf","osm":"relation/9356589"},"geometry":{"type":"Point","coordinates":[-0.010105,51.384922]}},{"type":"Feature","properties":{"name":"Lee Valley Golf Course","category":"golf","osm":"way/4078565"},"geometry":{"type":"Point","coordinates":[-0.034152,51.632447]}},{"type":"Feature","properties":{"name":"Malden Golf Club","category":"golf","osm":"way/22323645"},"geometry":{"type":"Point","coordinates":[-0.251519,51.410451]}},{"type":"Feature","properties":{"name":"Maylands Golf Club","category":"golf","osm":"way/25123028"},"geometry":{"type":"Point","coordinates":[0.248821,51.612096]}},{"type":"Feature","properties":{"name":"Metro Golf Centre","category":"golf","osm":"way/19248491"},"geometry":{"type":"Point","coordinates":[-0.224502,51.605579]}},{"type":"Feature","properties":{"name":"Mill Hill Golf Course","category":"golf","osm":"way/11847323"},"geometry":{"type":"Point","coordinates":[-0.260184,51.633143]}},{"type":"Feature","properties":{"name":"Mitcham Golf Club","category":"golf","osm":"relation/3620595"},"geometry":{"type":"Point","coordinates":[-0.151252,51.393945]}},{"type":"Feature","properties":{"name":"Morden Park golf course","category":"golf","osm":"way/501679797"},"geometry":{"type":"Point","coordinates":[-0.206677,51.391416]}},{"type":"Feature","properties":{"name":"Muswell Hill Golf Club","category":"golf","osm":"way/699007751"},"geometry":{"type":"Point","coordinates":[-0.138884,51.604788]}},{"type":"Feature","properties":{"name":"North Middlesex Golf Club","category":"golf","osm":"way/4080097"},"geometry":{"type":"Point","coordinates":[-0.169158,51.6222]}},{"type":"Feature","properties":{"name":"Northolt Golf Course","category":"golf","osm":"way/8916938"},"geometry":{"type":"Point","coordinates":[-0.379655,51.537523]}},{"type":"Feature","properties":{"name":"Northwood Golf Course","category":"golf","osm":"way/33569449"},"geometry":{"type":"Point","coordinates":[-0.428143,51.605597]}},{"type":"Feature","properties":{"name":"Oakhill 9 Hole Pitch and Putt","category":"golf","osm":"way/10277878"},"geometry":{"type":"Point","coordinates":[-0.150914,51.637452]}},{"type":"Feature","properties":{"name":"Oaks Sports Centre","category":"golf","osm":"relation/16278"},"geometry":{"type":"Point","coordinates":[-0.176616,51.339579]}},{"type":"Feature","properties":{"name":"Old Fold Manor Golf Course","category":"golf","osm":"way/3848339"},"geometry":{"type":"Point","coordinates":[-0.205136,51.665129]}},{"type":"Feature","properties":{"name":"Orpington Golf Centre","category":"golf","osm":"way/5051929"},"geometry":{"type":"Point","coordinates":[0.131108,51.405432]}},{"type":"Feature","properties":{"name":"Orpington Golf Centre","category":"golf","osm":"way/24215119"},"geometry":{"type":"Point","coordinates":[0.122513,51.406434]}},{"type":"Feature","properties":{"name":"Palewell Pitch & Putt","category":"golf","osm":"relation/3346748"},"geometry":{"type":"Point","coordinates":[-0.258306,51.459799]}},{"type":"Feature","properties":{"name":"Pinner Hill Golf Club","category":"golf","osm":"way/7938360"},"geometry":{"type":"Point","coordinates":[-0.394685,51.610379]}},{"type":"Feature","properties":{"name":"Purley Downs Golf Club","category":"golf","osm":"way/205703500"},"geometry":{"type":"Point","coordinates":[-0.095157,51.335595]}},{"type":"Feature","properties":{"name":"Queens Park Pitch and Putt","category":"golf","osm":"way/78538606"},"geometry":{"type":"Point","coordinates":[-0.212038,51.536687]}},{"type":"Feature","properties":{"name":"Richmond Park Golf Course","category":"golf","osm":"way/4268580"},"geometry":{"type":"Point","coordinates":[-0.249115,51.444715]}},{"type":"Feature","properties":{"name":"Risebridge Golf Centre","category":"golf","osm":"way/4289483"},"geometry":{"type":"Point","coordinates":[0.193498,51.598301]}},{"type":"Feature","properties":{"name":"Roehampton Club Golf Course","category":"golf","osm":"way/4268543"},"geometry":{"type":"Point","coordinates":[-0.249963,51.458962]}},{"type":"Feature","properties":{"name":"Romford Golf Club","category":"golf","osm":"way/4289772"},"geometry":{"type":"Point","coordinates":[0.200511,51.59125]}},{"type":"Feature","properties":{"name":"Rowley Lane Golf Course","category":"golf","osm":"way/34906729"},"geometry":{"type":"Point","coordinates":[-0.247466,51.649527]}},{"type":"Feature","properties":{"name":"Royal Blackheath Golf Club","category":"golf","osm":"way/5096880"},"geometry":{"type":"Point","coordinates":[0.05789,51.443581]}},{"type":"Feature","properties":{"name":"Royal Mid-Surrey Golf Club","category":"golf","osm":"way/4794012"},"geometry":{"type":"Point","coordinates":[-0.307658,51.469027]}},{"type":"Feature","properties":{"name":"Royal Wimbledon Golf Course","category":"golf","osm":"way/5228072"},"geometry":{"type":"Point","coordinates":[-0.240664,51.423006]}},{"type":"Feature","properties":{"name":"Ruislip Golf Course","category":"golf","osm":"relation/17099119"},"geometry":{"type":"Point","coordinates":[-0.441542,51.573422]}},{"type":"Feature","properties":{"name":"Shirley Park Golf Club","category":"golf","osm":"way/11403148"},"geometry":{"type":"Point","coordinates":[-0.059665,51.370867]}},{"type":"Feature","properties":{"name":"Shooters Hill Golf Course","category":"golf","osm":"way/5096627"},"geometry":{"type":"Point","coordinates":[0.077867,51.471235]}},{"type":"Feature","properties":{"name":"Shortlands Golf Club","category":"golf","osm":"way/5104278"},"geometry":{"type":"Point","coordinates":[0.000306,51.41092]}},{"type":"Feature","properties":{"name":"Sidcup Golf Club","category":"golf","osm":"way/4931195"},"geometry":{"type":"Point","coordinates":[0.10963,51.440755]}},{"type":"Feature","properties":{"name":"South Hertfordshire Golf course","category":"golf","osm":"way/4013115"},"geometry":{"type":"Point","coordinates":[-0.190479,51.636242]}},{"type":"Feature","properties":{"name":"South Norwood Pitch and Putt","category":"golf","osm":"way/485708432"},"geometry":{"type":"Point","coordinates":[-0.059975,51.397139]}},{"type":"Feature","properties":{"name":"Sparrows Den Pitch & Putt","category":"golf","osm":"way/293353027"},"geometry":{"type":"Point","coordinates":[-0.010078,51.368906]}},{"type":"Feature","properties":{"name":"Stanmore Golf Club","category":"golf","osm":"way/4248571"},"geometry":{"type":"Point","coordinates":[-0.319076,51.607748]}},{"type":"Feature","properties":{"name":"Stapleford Abbotts - Priors Golf Course","category":"golf","osm":"way/4282738"},"geometry":{"type":"Point","coordinates":[0.217254,51.632311]}},{"type":"Feature","properties":{"name":"Stockley Park Golf Club","category":"golf","osm":"node/8422994528"},"geometry":{"type":"Point","coordinates":[-0.442959,51.513543]}},{"type":"Feature","properties":{"name":"Strawberry Hill Golf Club","category":"golf","osm":"way/23072324"},"geometry":{"type":"Point","coordinates":[-0.343613,51.436599]}},{"type":"Feature","properties":{"name":"Sudbury Golf Course","category":"golf","osm":"way/4250453"},"geometry":{"type":"Point","coordinates":[-0.315196,51.545154]}},{"type":"Feature","properties":{"name":"Sundridge Park Golf Course","category":"golf","osm":"way/4930823"},"geometry":{"type":"Point","coordinates":[0.034803,51.417407]}},{"type":"Feature","properties":{"name":"The Addington Golf Club","category":"golf","osm":"way/1437244489"},"geometry":{"type":"Point","coordinates":[-0.038909,51.364113]}},{"type":"Feature","properties":{"name":"The Inspiration Club","category":"golf","osm":"way/1443340912"},"geometry":{"type":"Point","coordinates":[-0.407051,51.544015]}},{"type":"Feature","properties":{"name":"The Oaks - Acorn Course","category":"golf","osm":"way/1548817489"},"geometry":{"type":"Point","coordinates":[-0.176821,51.3421]}},{"type":"Feature","properties":{"name":"The Oaks Horley Course","category":"golf","osm":"way/1551802405"},"geometry":{"type":"Point","coordinates":[-0.177093,51.338546]}},{"type":"Feature","properties":{"name":"The Richmond Golf Club","category":"golf","osm":"way/4795273"},"geometry":{"type":"Point","coordinates":[-0.298691,51.438774]}},{"type":"Feature","properties":{"name":"The Shire London","category":"golf","osm":"way/8044592"},"geometry":{"type":"Point","coordinates":[-0.216149,51.665815]}},{"type":"Feature","properties":{"name":"Top Meadow","category":"golf","osm":"way/23608856"},"geometry":{"type":"Point","coordinates":[0.312411,51.541154]}},{"type":"Feature","properties":{"name":"Trent Park Golf Course","category":"golf","osm":"way/3810529"},"geometry":{"type":"Point","coordinates":[-0.131688,51.653162]}},{"type":"Feature","properties":{"name":"Tudor Park Footgolf Course","category":"golf","osm":"way/5076650"},"geometry":{"type":"Point","coordinates":[-0.178479,51.656732]}},{"type":"Feature","properties":{"name":"Upminster Golf and Bowling Club","category":"golf","osm":"relation/18079483"},"geometry":{"type":"Point","coordinates":[0.2504,51.565202]}},{"type":"Feature","properties":{"name":"Uxbridge Golf Course","category":"golf","osm":"way/30450381"},"geometry":{"type":"Point","coordinates":[-0.472644,51.567583]}},{"type":"Feature","properties":{"name":"Wanstead Golf Club","category":"golf","osm":"relation/3883387"},"geometry":{"type":"Point","coordinates":[0.032713,51.571007]}},{"type":"Feature","properties":{"name":"West Kent Golf Club","category":"golf","osm":"way/5107760"},"geometry":{"type":"Point","coordinates":[0.045172,51.331958]}},{"type":"Feature","properties":{"name":"West London Golf Centre","category":"golf","osm":"way/8914749"},"geometry":{"type":"Point","coordinates":[-0.39217,51.544412]}},{"type":"Feature","properties":{"name":"West Middlesex Golf Course","category":"golf","osm":"relation/19083538"},"geometry":{"type":"Point","coordinates":[-0.356988,51.513766]}},{"type":"Feature","properties":{"name":"Wimbledon Common Golf Club & London Scottish Golf Club","category":"golf","osm":"way/182023371"},"geometry":{"type":"Point","coordinates":[-0.235335,51.428131]}},{"type":"Feature","properties":{"name":"Wimbledon Park Golf Club","category":"golf","osm":"way/4317455"},"geometry":{"type":"Point","coordinates":[-0.208524,51.435128]}},{"type":"Feature","properties":{"name":"Woodcote Park Golf Club","category":"golf","osm":"way/23265562"},"geometry":{"type":"Point","coordinates":[-0.150626,51.329931]}},{"type":"Feature","properties":{"name":"Woodford Golf Club","category":"golf","osm":"way/400792537"},"geometry":{"type":"Point","coordinates":[0.017146,51.616555]}},{"type":"Feature","properties":{"name":"World of Golf","category":"golf","osm":"way/245964138"},"geometry":{"type":"Point","coordinates":[0.076798,51.429877]}},{"type":"Feature","properties":{"name":"Wyke Green Golf Club","category":"golf","osm":"relation/15406999"},"geometry":{"type":"Point","coordinates":[-0.335014,51.491704]}}]}