{"type":"FeatureCollection","features":[{"type":"Feature","properties":{"name":null,"category":"hospitals","osm":"way/92785814"},"geometry":{"type":"Point","coordinates":[-0.281964,51.590513]}},{"type":"Feature","properties":{"name":null,"category":"hospitals","osm":"way/275414908"},"geometry":{"type":"Point","coordinates":[0.029039,51.583751]}},{"type":"Feature","properties":{"name":null,"category":"hospitals","osm":"way/307058677"},"geometry":{"type":"Point","coordinates":[-0.032676,51.377552]}},{"type":"Feature","properties":{"name":null,"category":"hospitals","osm":"way/727431875"},"geometry":{"type":"Point","coordinates":[-0.078595,51.421126]}},{"type":"Feature","properties":{"name":null,"category":"hospitals","osm":"way/1120163062"},"geometry":{"type":"Point","coordinates":[-0.297148,51.521164]}},{"type":"Feature","properties":{"name":null,"category":"hospitals","osm":"way/1416702354"},"geometry":{"type":"Point","coordinates":[-0.339557,51.430781]}},{"type":"Feature","properties":{"name":null,"category":"hospitals","osm":"way/1458084061"},"geometry":{"type":"Point","coordinates":[-0.125129,51.411925]}},{"type":"Feature","properties":{"name":null,"category":"hospitals","osm":"relation/1204747"},"geometry":{"type":"Point","coordinates":[-0.304569,51.55012]}},{"type":"Feature","properties":{"name":"A&E Department","category":"hospitals","osm":"node/13262504860"},"geometry":{"type":"Point","coordinates":[0.03436,51.52298]}},{"type":"Feature","properties":{"name":"Baring Road Medical Centre","category":"hospitals","osm":"way/1157931537"},"geometry":{"type":"Point","coordinates":[0.01943,51.435425]}},{"type":"Feature","properties":{"name":"Barking Community Hospital","category":"hospitals","osm":"way/448178927"},"geometry":{"type":"Point","coordinates":[0.098818,51.53879]}},{"type":"Feature","properties":{"name":"Barnes Hospital","category":"hospitals","osm":"way/4907493"},"geometry":{"type":"Point","coordinates":[-0.255859,51.467206]}},{"type":"Feature","properties":{"name":"Barnet Hospital","category":"hospitals","osm":"way/4379364"},"geometry":{"type":"Point","coordinates":[-0.21456,51.650912]}},{"type":"Feature","properties":{"name":"Beckenham Beacon","category":"hospitals","osm":"way/860476845"},"geometry":{"type":"Point","coordinates":[-0.033003,51.405196]}},{"type":"Feature","properties":{"name":"Bethlem Royal Hospital","category":"hospitals","osm":"way/35776498"},"geometry":{"type":"Point","coordinates":[-0.031683,51.382628]}},{"type":"Feature","properties":{"name":"Biggin Hill Clinic","category":"hospitals","osm":"way/145477095"},"geometry":{"type":"Point","coordinates":[0.034439,51.313071]}},{"type":"Feature","properties":{"name":"Blackheath Hospital","category":"hospitals","osm":"way/591570712"},"geometry":{"type":"Point","coordinates":[0.006701,51.463431]}},{"type":"Feature","properties":{"name":"BMI Hendon Hospital","category":"hospitals","osm":"way/504129695"},"geometry":{"type":"Point","coordinates":[-0.22441,51.593717]}},{"type":"Feature","properties":{"name":"Bowes Road Clinic","category":"hospitals","osm":"way/166385829"},"geometry":{"type":"Point","coordinates":[-0.131082,51.615494]}},{"type":"Feature","properties":{"name":"Bridge Lane Health Centre","category":"hospitals","osm":"node/289563831"},"geometry":{"type":"Point","coordinates":[-0.166317,51.473268]}},{"type":"Feature","properties":{"name":"British Home & Hospital for Incurables","category":"hospitals","osm":"node/296563324"},"geometry":{"type":"Point","coordinates":[-0.107068,51.423089]}},{"type":"Feature","properties":{"name":"Cambian Churchill","category":"hospitals","osm":"way/89825005"},"geometry":{"type":"Point","coordinates":[-0.109639,51.497186]}},{"type":"Feature","properties":{"name":"Cassel Hospital","category":"hospitals","osm":"way/463924137"},"geometry":{"type":"Point","coordinates":[-0.309056,51.432411]}},{"type":"Feature","properties":{"name":"Central Middlesex Hospital","category":"hospitals","osm":"way/24648544"},"geometry":{"type":"Point","coordinates":[-0.267615,51.531484]}},{"type":"Feature","properties":{"name":"Chapel Orchard Day Surgery","category":"hospitals","osm":"node/1971677516"},"geometry":{"type":"Point","coordinates":[-0.171537,51.402049]}},{"type":"Feature","properties":{"name":"Charing Cross Hospital","category":"hospitals","osm":"way/188617701"},"geometry":{"type":"Point","coordinates":[-0.219763,51.486919]}},{"type":"Feature","properties":{"name":"Chase Farm Hospital","category":"hospitals","osm":"way/24437604"},"geometry":{"type":"Point","coordinates":[-0.10256,51.667077]}},{"type":"Feature","properties":{"name":"Chelsea and Westminster Hospital","category":"hospitals","osm":"way/881918254"},"geometry":{"type":"Point","coordinates":[-0.18144,51.484391]}},{"type":"Feature","properties":{"name":"Chelsfield Park Hospital","category":"hospitals","osm":"node/444635673"},"geometry":{"type":"Point","coordinates":[0.131675,51.358257]}},{"type":"Feature","properties":{"name":"City & Hackney Centre for Mental Health","category":"hospitals","osm":"relation/3641021"},"geometry":{"type":"Point","coordinates":[-0.044411,51.550328]}},{"type":"Feature","properties":{"name":"Clayponds Hospital","category":"hospitals","osm":"relation/1333891"},"geometry":{"type":"Point","coordinates":[-0.298601,51.495101]}},{"type":"Feature","properties":{"name":"Cleveland Clinic London","category":"hospitals","osm":"way/122299506"},"geometry":{"type":"Point","coordinates":[-0.148755,51.499394]}},{"type":"Feature","properties":{"name":"Clinical Research Facility","category":"hospitals","osm":"node/12924662500"},"geometry":{"type":"Point","coordinates":[-0.136017,51.522714]}},{"type":"Feature","properties":{"name":"Coborn Centre for Adolescent Mental Health","category":"hospitals","osm":"way/263728248"},"geometry":{"type":"Point","coordinates":[0.038392,51.519681]}},{"type":"Feature","properties":{"name":"CRGH","category":"hospitals","osm":"way/97175523"},"geometry":{"type":"Point","coordinates":[-0.101541,51.520201]}},{"type":"Feature","properties":{"name":"Cromwell Hospital","category":"hospitals","osm":"way/821710065"},"geometry":{"type":"Point","coordinates":[-0.191141,51.49522]}},{"type":"Feature","properties":{"name":"Croydon Heart Centre","category":"hospitals","osm":"node/10995804180"},"geometry":{"type":"Point","coordinates":[-0.11113,51.3887]}},{"type":"Feature","properties":{"name":"Croydon University Hospital","category":"hospitals","osm":"way/26617656"},"geometry":{"type":"Point","coordinates":[-0.110056,51.390124]}},{"type":"Feature","properties":{"name":"Cygnet Hospital","category":"hospitals","osm":"way/229290055"},"geometry":{"type":"Point","coordinates":[-0.337796,51.567208]}},{"type":"Feature","properties":{"name":"Cygnet Hospital Beckton","category":"hospitals","osm":"way/868274062"},"geometry":{"type":"Point","coordinates":[0.064702,51.513611]}},{"type":"Feature","properties":{"name":"Cygnet Hospital Ealing","category":"hospitals","osm":"way/315305511"},"geometry":{"type":"Point","coordinates":[-0.297186,51.521155]}},{"type":"Feature","properties":{"name":"Day Surgery Unit (DSU)","category":"hospitals","osm":"node/10995804200"},"geometry":{"type":"Point","coordinates":[-0.110707,51.389866]}},{"type":"Feature","properties":{"name":"Dental Department","category":"hospitals","osm":"node/10995804184"},"geometry":{"type":"Point","coordinates":[-0.109744,51.39027]}},{"type":"Feature","properties":{"name":"Dental Hospital","category":"hospitals","osm":"node/12026398668"},"geometry":{"type":"Point","coordinates":[-0.092711,51.469123]}},{"type":"Feature","properties":{"name":"Dermatology Department","category":"hospitals","osm":"node/10995804185"},"geometry":{"type":"Point","coordinates":[-0.109961,51.390485]}},{"type":"Feature","properties":{"name":"Diabetic Department","category":"hospitals","osm":"node/10995804186"},"geometry":{"type":"Point","coordinates":[-0.108209,51.388698]}},{"type":"Feature","properties":{"name":"Ealing Hospital","category":"hospitals","osm":"way/80402499"},"geometry":{"type":"Point","coordinates":[-0.345319,51.507531]}},{"type":"Feature","properties":{"name":"Edgware Community Hospital","category":"hospitals","osm":"way/164458516"},"geometry":{"type":"Point","coordinates":[-0.270967,51.606484]}},{"type":"Feature","properties":{"name":"Eltham Community Hospital","category":"hospitals","osm":"way/904874618"},"geometry":{"type":"Point","coordinates":[0.05372,51.449236]}},{"type":"Feature","properties":{"name":"Emergency Department","category":"hospitals","osm":"node/10995811829"},"geometry":{"type":"Point","coordinates":[-0.109257,51.388702]}},{"type":"Feature","properties":{"name":"Erith and District Hospital","category":"hospitals","osm":"way/654480339"},"geometry":{"type":"Point","coordinates":[0.166766,51.476961]}},{"type":"Feature","properties":{"name":"Evelina London Children's Hospital","category":"hospitals","osm":"way/116629214"},"geometry":{"type":"Point","coordinates":[-0.118394,51.498323]}},{"type":"Feature","properties":{"name":"Fertility Treatment","category":"hospitals","osm":"node/10995804164"},"geometry":{"type":"Point","coordinates":[-0.110279,51.391148]}},{"type":"Feature","properties":{"name":"Finchley Memorial Hospital","category":"hospitals","osm":"way/24414388"},"geometry":{"type":"Point","coordinates":[-0.177012,51.60561]}},{"type":"Feature","properties":{"name":"Fitzrovia Hospital","category":"hospitals","osm":"way/420411264"},"geometry":{"type":"Point","coordinates":[-0.140432,51.523477]}},{"type":"Feature","properties":{"name":"Goodmayes Hospital","category":"hospitals","osm":"way/780482089"},"geometry":{"type":"Point","coordinates":[0.111232,51.577393]}},{"type":"Feature","properties":{"name":"Gordon Hospital","category":"hospitals","osm":"way/112682015"},"geometry":{"type":"Point","coordinates":[-0.13595,51.492166]}},{"type":"Feature","properties":{"name":"Grays Court Community Hospital","category":"hospitals","osm":"way/120359076"},"geometry":{"type":"Point","coordinates":[0.158058,51.539279]}},{"type":"Feature","properties":{"name":"Great Ormond Street Hospital for Children","category":"hospitals","osm":"way/548533106"},"geometry":{"type":"Point","coordinates":[-0.120403,51.522474]}},{"type":"Feature","properties":{"name":"Great Ormond Street Outpatients - Zebra and Hippo Clinic Areas","category":"hospitals","osm":"node/12187913901"},"geometry":{"type":"Point","coordinates":[-0.121322,51.521632]}},{"type":"Feature","properties":{"name":"Guy's Hospital","category":"hospitals","osm":"way/707322577"},"geometry":{"type":"Point","coordinates":[-0.08683,51.503235]}},{"type":"Feature","properties":{"name":"Gynaecology Department","category":"hospitals","osm":"node/10995804171"},"geometry":{"type":"Point","coordinates":[-0.109361,51.390515]}},{"type":"Feature","properties":{"name":"Hammersmith Hospital","category":"hospitals","osm":"way/4363883"},"geometry":{"type":"Point","coordinates":[-0.235288,51.517388]}},{"type":"Feature","properties":{"name":"Harefield Hospital","category":"hospitals","osm":"way/352120259"},"geometry":{"type":"Point","coordinates":[-0.485204,51.607114]}},{"type":"Feature","properties":{"name":"Hayes Priory","category":"hospitals","osm":"way/1194334017"},"geometry":{"type":"Point","coordinates":[0.014657,51.372967]}},{"type":"Feature","properties":{"name":"HCA Healthcare UK Laboratories","category":"hospitals","osm":"node/12873147555"},"geometry":{"type":"Point","coordinates":[-0.135248,51.522587]}},{"type":"Feature","properties":{"name":"Highgate Mental Health Centre","category":"hospitals","osm":"way/492083208"},"geometry":{"type":"Point","coordinates":[-0.142588,51.566736]}},{"type":"Feature","properties":{"name":"Hillingdon Hospital","category":"hospitals","osm":"way/31927218"},"geometry":{"type":"Point","coordinates":[-0.461464,51.52555]}},{"type":"Feature","properties":{"name":"Homerton University Hospital","category":"hospitals","osm":"way/43514739"},"geometry":{"type":"Point","coordinates":[-0.045508,51.550645]}},{"type":"Feature","properties":{"name":"Hospital of St John and St Elizabeth","category":"hospitals","osm":"way/699934188"},"geometry":{"type":"Point","coordinates":[-0.174979,51.533269]}},{"type":"Feature","properties":{"name":"Hounslow Medical Centre","category":"hospitals","osm":"node/12313941685"},"geometry":{"type":"Point","coordinates":[-0.377273,51.469439]}},{"type":"Feature","properties":{"name":"Jane Atkinson Health and Wellbeing Centre","category":"hospitals","osm":"way/1306349223"},"geometry":{"type":"Point","coordinates":[-0.007005,51.590887]}},{"type":"Feature","properties":{"name":"John Howard Centre","category":"hospitals","osm":"way/326277354"},"geometry":{"type":"Point","coordinates":[-0.039138,51.548032]}},{"type":"Feature","properties":{"name":"King Edward VII's Hospital","category":"hospitals","osm":"way/80888190"},"geometry":{"type":"Point","coordinates":[-0.150418,51.520934]}},{"type":"Feature","properties":{"name":"King George Hospital","category":"hospitals","osm":"way/902050280"},"geometry":{"type":"Point","coordinates":[0.111264,51.580253]}},{"type":"Feature","properties":{"name":"King's College Hospital","category":"hospitals","osm":"way/277432734"},"geometry":{"type":"Point","coordinates":[-0.093654,51.468429]}},{"type":"Feature","properties":{"name":"King's College Hospital Emergency Department","category":"hospitals","osm":"node/11170258999"},"geometry":{"type":"Point","coordinates":[-0.092795,51.468759]}},{"type":"Feature","properties":{"name":"Kingston Hospital","category":"hospitals","osm":"way/23109454"},"geometry":{"type":"Point","coordinates":[-0.282685,51.414916]}},{"type":"Feature","properties":{"name":"Lambeth Hospital","category":"hospitals","osm":"way/24787431"},"geometry":{"type":"Point","coordinates":[-0.122496,51.465331]}},{"type":"Feature","properties":{"name":"Lister Hospital","category":"hospitals","osm":"way/111343934"},"geometry":{"type":"Point","coordinates":[-0.150183,51.486423]}},{"type":"Feature","properties":{"name":"London Bridge Hospital","category":"hospitals","osm":"way/413948227"},"geometry":{"type":"Point","coordinates":[-0.08604,51.506132]}},{"type":"Feature","properties":{"name":"London Clinic","category":"hospitals","osm":"relation/10286924"},"geometry":{"type":"Point","coordinates":[-0.149974,51.522904]}},{"type":"Feature","properties":{"name":"Macmillan Cancer Centre","category":"hospitals","osm":"way/1114959175"},"geometry":{"type":"Point","coordinates":[-0.135201,51.523117]}},{"type":"Feature","properties":{"name":"Macmillan Cancer Support Centres","category":"hospitals","osm":"node/10995777571"},"geometry":{"type":"Point","coordinates":[-0.11159,51.389544]}},{"type":"Feature","properties":{"name":"Main Reception","category":"hospitals","osm":"node/10995801768"},"geometry":{"type":"Point","coordinates":[-0.111157,51.389253]}},{"type":"Feature","properties":{"name":"Main X-Ray","category":"hospitals","osm":"node/10995804195"},"geometry":{"type":"Point","coordinates":[-0.108793,51.389109]}},{"type":"Feature","properties":{"name":"Maternity Reception","category":"hospitals","osm":"node/10995804163"},"geometry":{"type":"Point","coordinates":[-0.111059,51.391293]}},{"type":"Feature","properties":{"name":"Maudsley Hospital","category":"hospitals","osm":"relation/8286235"},"geometry":{"type":"Point","coordinates":[-0.090255,51.469039]}},{"type":"Feature","properties":{"name":"Medlabs Diagnostics","category":"hospitals","osm":"node/12842417237"},"geometry":{"type":"Point","coordinates":[-0.11247,51.5209]}},{"type":"Feature","properties":{"name":"Memorial Hospital","category":"hospitals","osm":"way/713671496"},"geometry":{"type":"Point","coordinates":[0.063508,51.467775]}},{"type":"Feature","properties":{"name":"Mildmay Mission Hospital","category":"hospitals","osm":"way/497718283"},"geometry":{"type":"Point","coordinates":[-0.07558,51.527731]}},{"type":"Feature","properties":{"name":"Mile End Hospital","category":"hospitals","osm":"way/184154674"},"geometry":{"type":"Point","coordinates":[-0.04217,51.525053]}},{"type":"Feature","properties":{"name":"Millway Medical Practice","category":"hospitals","osm":"way/208072187"},"geometry":{"type":"Point","coordinates":[-0.244009,51.615535]}},{"type":"Feature","properties":{"name":"Moorfields at Hoxton","category":"hospitals","osm":"node/13436406358"},"geometry":{"type":"Point","coordinates":[-0.089875,51.534681]}},{"type":"Feature","properties":{"name":"Moorfields Eye Hospital (City Road campus)","category":"hospitals","osm":"way/402012627"},"geometry":{"type":"Point","coordinates":[-0.090215,51.527263]}},{"type":"Feature","properties":{"name":"Moorfields Eye Unit","category":"hospitals","osm":"node/10995804198"},"geometry":{"type":"Point","coordinates":[-0.109984,51.389307]}},{"type":"Feature","properties":{"name":"Mount Vernon","category":"hospitals","osm":"way/47630726"},"geometry":{"type":"Point","coordinates":[-0.445971,51.61563]}},{"type":"Feature","properties":{"name":"MRI","category":"hospitals","osm":"node/10995804187"},"geometry":{"type":"Point","coordinates":[-0.10883,51.38883]}},{"type":"Feature","properties":{"name":"National Hospital for Neurology and Neurosurgery","category":"hospitals","osm":"way/1390491265"},"geometry":{"type":"Point","coordinates":[-0.122473,51.522192]}},{"type":"Feature","properties":{"name":"National Hospital for Neurology and Neurosurgery at Cleveland Street","category":"hospitals","osm":"node/12601902086"},"geometry":{"type":"Point","coordinates":[-0.138002,51.519657]}},{"type":"Feature","properties":{"name":"Neonatal Unit, L1 Z2","category":"hospitals","osm":"node/13262025383"},"geometry":{"type":"Point","coordinates":[0.036765,51.522985]}},{"type":"Feature","properties":{"name":"New Victoria Hospital","category":"hospitals","osm":"way/872044524"},"geometry":{"type":"Point","coordinates":[-0.25418,51.415762]}},{"type":"Feature","properties":{"name":"Newham Centre for Mental Health","category":"hospitals","osm":"relation/3542120"},"geometry":{"type":"Point","coordinates":[0.038814,51.520285]}},{"type":"Feature","properties":{"name":"Newham University Hospital","category":"hospitals","osm":"way/32612277"},"geometry":{"type":"Point","coordinates":[0.03664,51.521674]}},{"type":"Feature","properties":{"name":"Nightingale Hospital","category":"hospitals","osm":"way/688880323"},"geometry":{"type":"Point","coordinates":[-0.165221,51.521814]}},{"type":"Feature","properties":{"name":"Noah's Ark Children's Hospice","category":"hospitals","osm":"way/926396835"},"geometry":{"type":"Point","coordinates":[-0.214871,51.658121]}},{"type":"Feature","properties":{"name":"Norbury Health Centre","category":"hospitals","osm":"way/27219238"},"geometry":{"type":"Point","coordinates":[-0.120361,51.404985]}},{"type":"Feature","properties":{"name":"North London Hospice Winchmore Hill","category":"hospitals","osm":"node/6295862569"},"geometry":{"type":"Point","coordinates":[-0.092509,51.624991]}},{"type":"Feature","properties":{"name":"North Middlesex University Hospital","category":"hospitals","osm":"way/4271138"},"geometry":{"type":"Point","coordinates":[-0.073543,51.613284]}},{"type":"Feature","properties":{"name":"Northwick Park Hospital","category":"hospitals","osm":"way/6134866"},"geometry":{"type":"Point","coordinates":[-0.321525,51.575335]}},{"type":"Feature","properties":{"name":"Nuffield Health","category":"hospitals","osm":"way/672219101"},"geometry":{"type":"Point","coordinates":[-0.148281,51.517724]}},{"type":"Feature","properties":{"name":"Nuffield Health Cancer Centre London","category":"hospitals","osm":"way/863316715"},"geometry":{"type":"Point","coordinates":[-0.223748,51.433857]}},{"type":"Feature","properties":{"name":"Nuffield Health Highgate Hospital","category":"hospitals","osm":"way/514349576"},"geometry":{"type":"Point","coordinates":[-0.157055,51.57665]}},{"type":"Feature","properties":{"name":"Optimal Vision","category":"hospitals","osm":"node/12873180107"},"geometry":{"type":"Point","coordinates":[-0.130212,51.519966]}},{"type":"Feature","properties":{"name":"Orpington Hospital","category":"hospitals","osm":"way/1217422518"},"geometry":{"type":"Point","coordinates":[0.094795,51.362479]}},{"type":"Feature","properties":{"name":"Patient Advice and Liaison Service (PALS)","category":"hospitals","osm":"node/10995804162"},"geometry":{"type":"Point","coordinates":[-0.108499,51.388644]}},{"type":"Feature","properties":{"name":"Phlebotomy / Blood Tests","category":"hospitals","osm":"node/13942536112"},"geometry":{"type":"Point","coordinates":[-0.281787,51.415051]}},{"type":"Feature","properties":{"name":"Princess Royal University Hospital","category":"hospitals","osm":"way/581607863"},"geometry":{"type":"Point","coordinates":[0.058056,51.366202]}},{"type":"Feature","properties":{"name":"Priory Hospital","category":"hospitals","osm":"node/254005151"},"geometry":{"type":"Point","coordinates":[-0.118304,51.632064]}},{"type":"Feature","properties":{"name":"Privé Clinics","category":"hospitals","osm":"way/669882382"},"geometry":{"type":"Point","coordinates":[-0.146477,51.518668]}},{"type":"Feature","properties":{"name":"Proton International @ UCLH","category":"hospitals","osm":"node/12873147549"},"geometry":{"type":"Point","coordinates":[-0.136348,51.523826]}},{"type":"Feature","properties":{"name":"Purley War Memorial Hospital","category":"hospitals","osm":"way/137754985"},"geometry":{"type":"Point","coordinates":[-0.114802,51.340567]}},{"type":"Feature","properties":{"name":"Queen Anne Street Medical Centre","category":"hospitals","osm":"way/670848153"},"geometry":{"type":"Point","coordinates":[-0.147099,51.51821]}},{"type":"Feature","properties":{"name":"Queen Charlotte's & Chelsea Hospital","category":"hospitals","osm":"way/912368818"},"geometry":{"type":"Point","coordinates":[-0.237341,51.516385]}},{"type":"Feature","properties":{"name":"Queen Elizabeth Hospital","category":"hospitals","osm":"way/255439869"},"geometry":{"type":"Point","coordinates":[0.050258,51.477848]}},{"type":"Feature","properties":{"name":"Queen Mary's Childrens' Hospital","category":"hospitals","osm":"node/1131534975"},"geometry":{"type":"Point","coordinates":[-0.184842,51.379798]}},{"type":"Feature","properties":{"name":"Queen Mary's Hospital","category":"hospitals","osm":"way/7954585"},"geometry":{"type":"Point","coordinates":[0.103933,51.418746]}},{"type":"Feature","properties":{"name":"Queen Mary's Hospital","category":"hospitals","osm":"way/35781504"},"geometry":{"type":"Point","coordinates":[-0.241604,51.454971]}},{"type":"Feature","properties":{"name":"Queen Square Imaging Centre","category":"hospitals","osm":"node/12875654728"},"geometry":{"type":"Point","coordinates":[-0.123057,51.521738]}},{"type":"Feature","properties":{"name":"Queens Hospital","category":"hospitals","osm":"way/130345641"},"geometry":{"type":"Point","coordinates":[0.181018,51.568723]}},{"type":"Feature","properties":{"name":"Rainbow Ward","category":"hospitals","osm":"node/13262504861"},"geometry":{"type":"Point","coordinates":[0.035068,51.523304]}},{"type":"Feature","properties":{"name":"Renal Dialysis Unit","category":"hospitals","osm":"way/540185923"},"geometry":{"type":"Point","coordinates":[0.014417,51.401139]}},{"type":"Feature","properties":{"name":"Royal Brompton Hospital","category":"hospitals","osm":"way/85472872"},"geometry":{"type":"Point","coordinates":[-0.170971,51.489166]}},{"type":"Feature","properties":{"name":"Royal Brompton Hospital","category":"hospitals","osm":"way/888717352"},"geometry":{"type":"Point","coordinates":[-0.17417,51.489994]}},{"type":"Feature","properties":{"name":"Royal Free Hospital","category":"hospitals","osm":"way/818779914"},"geometry":{"type":"Point","coordinates":[-0.165458,51.55302]}},{"type":"Feature","properties":{"name":"Royal Hospital for Neuro-Disability","category":"hospitals","osm":"way/142385900"},"geometry":{"type":"Point","coordinates":[-0.213927,51.451981]}},{"type":"Feature","properties":{"name":"Royal London Hospital","category":"hospitals","osm":"way/640495338"},"geometry":{"type":"Point","coordinates":[-0.059924,51.517447]}},{"type":"Feature","properties":{"name":"Royal London Hospital for Integrated Medicine","category":"hospitals","osm":"way/1390491266"},"geometry":{"type":"Point","coordinates":[-0.121475,51.52177]}},{"type":"Feature","properties":{"name":"Royal Marsden Hospital","category":"hospitals","osm":"way/839142057"},"geometry":{"type":"Point","coordinates":[-0.191248,51.344285]}},{"type":"Feature","properties":{"name":"Royal National ENT and Eastman Dental Hospitals","category":"hospitals","osm":"way/1113340300"},"geometry":{"type":"Point","coordinates":[-0.134531,51.522549]}},{"type":"Feature","properties":{"name":"Royal National Orthopaedic Hospital","category":"hospitals","osm":"way/47698729"},"geometry":{"type":"Point","coordinates":[-0.310836,51.631594]}},{"type":"Feature","properties":{"name":"Royal National Throat, Nose and Ear Hospital","category":"hospitals","osm":"way/28226427"},"geometry":{"type":"Point","coordinates":[-0.119268,51.529241]}},{"type":"Feature","properties":{"name":"Saint Bartholomew's Hospital","category":"hospitals","osm":"way/170732745"},"geometry":{"type":"Point","coordinates":[-0.100077,51.517531]}},{"type":"Feature","properties":{"name":"Sexual Health Clinic","category":"hospitals","osm":"node/10995777570"},"geometry":{"type":"Point","coordinates":[-0.11231,51.391181]}},{"type":"Feature","properties":{"name":"Shirley Oaks Hospital","category":"hospitals","osm":"way/182344201"},"geometry":{"type":"Point","coordinates":[-0.056382,51.382169]}},{"type":"Feature","properties":{"name":"Sleep & Health Clinic","category":"hospitals","osm":"node/13006104317"},"geometry":{"type":"Point","coordinates":[-0.140372,51.52345]}},{"type":"Feature","properties":{"name":"Sloane Hospital","category":"hospitals","osm":"node/637882835"},"geometry":{"type":"Point","coordinates":[-0.00454,51.408204]}},{"type":"Feature","properties":{"name":"Spire Bushey Hospital","category":"hospitals","osm":"way/967775040"},"geometry":{"type":"Point","coordinates":[-0.331636,51.637438]}},{"type":"Feature","properties":{"name":"Spire London East","category":"hospitals","osm":"way/322546930"},"geometry":{"type":"Point","coordinates":[0.043649,51.587242]}},{"type":"Feature","properties":{"name":"Springdene Nursing Home","category":"hospitals","osm":"way/156497004"},"geometry":{"type":"Point","coordinates":[-0.16795,51.63444]}},{"type":"Feature","properties":{"name":"Springfield University Hospital","category":"hospitals","osm":"way/1164672572"},"geometry":{"type":"Point","coordinates":[-0.170793,51.436988]}},{"type":"Feature","properties":{"name":"St Ann's Hospital","category":"hospitals","osm":"way/4211785"},"geometry":{"type":"Point","coordinates":[-0.088321,51.580218]}},{"type":"Feature","properties":{"name":"St Anthony's","category":"hospitals","osm":"way/24525110"},"geometry":{"type":"Point","coordinates":[-0.220726,51.379898]}},{"type":"Feature","properties":{"name":"St Bernards Hospital (West London Mental Health NHS Trust)","category":"hospitals","osm":"way/222183797"},"geometry":{"type":"Point","coordinates":[-0.347189,51.506364]}},{"type":"Feature","properties":{"name":"St Charles' Hospital","category":"hospitals","osm":"way/31636962"},"geometry":{"type":"Point","coordinates":[-0.21761,51.522221]}},{"type":"Feature","properties":{"name":"St George's Hospital","category":"hospitals","osm":"way/4536914"},"geometry":{"type":"Point","coordinates":[-0.175207,51.426442]}},{"type":"Feature","properties":{"name":"St Mark's","category":"hospitals","osm":"way/20259708"},"geometry":{"type":"Point","coordinates":[-0.320169,51.575993]}},{"type":"Feature","properties":{"name":"St Mary's Hospital","category":"hospitals","osm":"way/45388015"},"geometry":{"type":"Point","coordinates":[-0.174285,51.517482]}},{"type":"Feature","properties":{"name":"St Michael's Community Hospital","category":"hospitals","osm":"way/24437660"},"geometry":{"type":"Point","coordinates":[-0.083919,51.662016]}},{"type":"Feature","properties":{"name":"St Thomas' Hospital","category":"hospitals","osm":"way/122227536"},"geometry":{"type":"Point","coordinates":[-0.118732,51.499101]}},{"type":"Feature","properties":{"name":"St. George's Health & Wellbeing Hub","category":"hospitals","osm":"way/863401259"},"geometry":{"type":"Point","coordinates":[0.219036,51.5487]}},{"type":"Feature","properties":{"name":"St. Helier Hospital","category":"hospitals","osm":"way/4822314"},"geometry":{"type":"Point","coordinates":[-0.184577,51.380377]}},{"type":"Feature","properties":{"name":"St. Pancras Hospital","category":"hospitals","osm":"way/43290805"},"geometry":{"type":"Point","coordinates":[-0.131396,51.536279]}},{"type":"Feature","properties":{"name":"Teddington Memorial Hospital","category":"hospitals","osm":"way/855389355"},"geometry":{"type":"Point","coordinates":[-0.341094,51.425694]}},{"type":"Feature","properties":{"name":"Tessa Jowell Health Centre","category":"hospitals","osm":"way/1477757914"},"geometry":{"type":"Point","coordinates":[-0.080533,51.459283]}},{"type":"Feature","properties":{"name":"The Broadway Health Centre","category":"hospitals","osm":"way/193432693"},"geometry":{"type":"Point","coordinates":[-0.379344,51.511139]}},{"type":"Feature","properties":{"name":"The Cavell Hospital","category":"hospitals","osm":"way/1043104661"},"geometry":{"type":"Point","coordinates":[-0.101947,51.659073]}},{"type":"Feature","properties":{"name":"The Clementine Churchill Hospital","category":"hospitals","osm":"relation/1205172"},"geometry":{"type":"Point","coordinates":[-0.332296,51.56508]}},{"type":"Feature","properties":{"name":"The Doctors Laboratory","category":"hospitals","osm":"way/988525443"},"geometry":{"type":"Point","coordinates":[-0.128041,51.528029]}},{"type":"Feature","properties":{"name":"The Groves Medical Centre","category":"hospitals","osm":"way/150470710"},"geometry":{"type":"Point","coordinates":[-0.261338,51.41034]}},{"type":"Feature","properties":{"name":"The Holly Private Hospital","category":"hospitals","osm":"way/362325982"},"geometry":{"type":"Point","coordinates":[0.032177,51.624328]}},{"type":"Feature","properties":{"name":"The London Independent Hospital","category":"hospitals","osm":"way/1432555189"},"geometry":{"type":"Point","coordinates":[-0.047046,51.520213]}},{"type":"Feature","properties":{"name":"The London Welbeck Hospital","category":"hospitals","osm":"way/110476079"},"geometry":{"type":"Point","coordinates":[-0.149376,51.518254]}},{"type":"Feature","properties":{"name":"The Old Red Hill Clinic (Barnet Adolescent Services)","category":"hospitals","osm":"way/186977094"},"geometry":{"type":"Point","coordinates":[-0.27727,51.61142]}},{"type":"Feature","properties":{"name":"The Portland Hospital","category":"hospitals","osm":"node/2778453137"},"geometry":{"type":"Point","coordinates":[-0.143586,51.522471]}},{"type":"Feature","properties":{"name":"The Portland Hospital","category":"hospitals","osm":"way/80888195"},"geometry":{"type":"Point","coordinates":[-0.144361,51.523021]}},{"type":"Feature","properties":{"name":"The Portland Hospital Consulting Suite","category":"hospitals","osm":"way/660411791"},"geometry":{"type":"Point","coordinates":[-0.144213,51.522804]}},{"type":"Feature","properties":{"name":"The Princess Grace Hospital","category":"hospitals","osm":"way/80888181"},"geometry":{"type":"Point","coordinates":[-0.15291,51.522486]}},{"type":"Feature","properties":{"name":"The Priory","category":"hospitals","osm":"relation/11620516"},"geometry":{"type":"Point","coordinates":[-0.251604,51.462257]}},{"type":"Feature","properties":{"name":"The Royal Marsden Hospital","category":"hospitals","osm":"way/85472885"},"geometry":{"type":"Point","coordinates":[-0.172546,51.490573]}},{"type":"Feature","properties":{"name":"The Whittington Hospital","category":"hospitals","osm":"way/48915770"},"geometry":{"type":"Point","coordinates":[-0.139318,51.566645]}},{"type":"Feature","properties":{"name":"The Willows (Children's Clinic)","category":"hospitals","osm":"node/10995804199"},"geometry":{"type":"Point","coordinates":[-0.109738,51.389144]}},{"type":"Feature","properties":{"name":"The Wilson Hospital","category":"hospitals","osm":"way/4356408"},"geometry":{"type":"Point","coordinates":[-0.163146,51.39751]}},{"type":"Feature","properties":{"name":"Tolworth Hospital","category":"hospitals","osm":"way/23088561"},"geometry":{"type":"Point","coordinates":[-0.289191,51.379491]}},{"type":"Feature","properties":{"name":"Tunica Diagnostics","category":"hospitals","osm":"node/12886273770"},"geometry":{"type":"Point","coordinates":[-0.130012,51.51455]}},{"type":"Feature","properties":{"name":"University College Hospital","category":"hospitals","osm":"way/440410278"},"geometry":{"type":"Point","coordinates":[-0.136443,51.52487]}},{"type":"Feature","properties":{"name":"University College Hospital at Westmoreland Street","category":"hospitals","osm":"way/833201881"},"geometry":{"type":"Point","coordinates":[-0.149661,51.519606]}},{"type":"Feature","properties":{"name":"University Hospital Lewisham","category":"hospitals","osm":"way/484298094"},"geometry":{"type":"Point","coordinates":[-0.017924,51.453781]}},{"type":"Feature","properties":{"name":"Until SOHO","category":"hospitals","osm":"node/12873245976"},"geometry":{"type":"Point","coordinates":[-0.129968,51.514553]}},{"type":"Feature","properties":{"name":"Vascular Ultrasound","category":"hospitals","osm":"node/10995804196"},"geometry":{"type":"Point","coordinates":[-0.110344,51.389162]}},{"type":"Feature","properties":{"name":"Victoria Hospital","category":"hospitals","osm":"way/197910029"},"geometry":{"type":"Point","coordinates":[0.188002,51.583815]}},{"type":"Feature","properties":{"name":"Vincent Square Clinic","category":"hospitals","osm":"way/111800473"},"geometry":{"type":"Point","coordinates":[-0.134545,51.491474]}},{"type":"Feature","properties":{"name":"Wembley Centre for Health & Care","category":"hospitals","osm":"relation/1204745"},"geometry":{"type":"Point","coordinates":[-0.30593,51.550086]}},{"type":"Feature","properties":{"name":"West Middlesex Hospital","category":"hospitals","osm":"way/26730443"},"geometry":{"type":"Point","coordinates":[-0.32441,51.473078]}},{"type":"Feature","properties":{"name":"West Park Hospital","category":"hospitals","osm":"way/1322377021"},"geometry":{"type":"Point","coordinates":[-0.300761,51.340534]}},{"type":"Feature","properties":{"name":"Weymouth Street Hospital","category":"hospitals","osm":"way/444440630"},"geometry":{"type":"Point","coordinates":[-0.150541,51.520236]}},{"type":"Feature","properties":{"name":"Whipps Cross University Hospital","category":"hospitals","osm":"way/41378470"},"geometry":{"type":"Point","coordinates":[0.002042,51.577515]}},{"type":"Feature","properties":{"name":"White Lodge Medical Practice","category":"hospitals","osm":"way/1038016075"},"geometry":{"type":"Point","coordinates":[-0.087794,51.658502]}},{"type":"Feature","properties":{"name":"Women's Health Unit","category":"hospitals","osm":"node/10995804179"},"geometry":{"type":"Point","coordinates":[-0.111065,51.390933]}},{"type":"Feature","properties":{"name":"Wound Clinic","category":"hospitals","osm":"node/10995804197"},"geometry":{"type":"Point","coordinates":[-0.110259,51.389095]}}]}