{"type":"FeatureCollection","features":[{"type":"Feature","properties":{"name":null,"category":"libraries","osm":"node/1973224870"},"geometry":{"type":"Point","coordinates":[0.061829,51.507313]}},{"type":"Feature","properties":{"name":null,"category":"libraries","osm":"node/7353754522"},"geometry":{"type":"Point","coordinates":[0.183553,51.580768]}},{"type":"Feature","properties":{"name":null,"category":"libraries","osm":"node/10128041919"},"geometry":{"type":"Point","coordinates":[-0.046611,51.646158]}},{"type":"Feature","properties":{"name":null,"category":"libraries","osm":"node/13919908133"},"geometry":{"type":"Point","coordinates":[-0.317461,51.364675]}},{"type":"Feature","properties":{"name":null,"category":"libraries","osm":"way/60393508"},"geometry":{"type":"Point","coordinates":[-0.109506,51.513058]}},{"type":"Feature","properties":{"name":null,"category":"libraries","osm":"way/84842546"},"geometry":{"type":"Point","coordinates":[-0.072594,51.533621]}},{"type":"Feature","properties":{"name":null,"category":"libraries","osm":"way/93750225"},"geometry":{"type":"Point","coordinates":[-0.175022,51.465295]}},{"type":"Feature","properties":{"name":null,"category":"libraries","osm":"way/184602488"},"geometry":{"type":"Point","coordinates":[-0.164333,51.455161]}},{"type":"Feature","properties":{"name":null,"category":"libraries","osm":"way/216494099"},"geometry":{"type":"Point","coordinates":[0.057919,51.45103]}},{"type":"Feature","properties":{"name":null,"category":"libraries","osm":"way/319422864"},"geometry":{"type":"Point","coordinates":[-0.436708,51.497745]}},{"type":"Feature","properties":{"name":null,"category":"libraries","osm":"way/643523223"},"geometry":{"type":"Point","coordinates":[0.16137,51.473231]}},{"type":"Feature","properties":{"name":null,"category":"libraries","osm":"way/813895637"},"geometry":{"type":"Point","coordinates":[-0.260777,51.399277]}},{"type":"Feature","properties":{"name":null,"category":"libraries","osm":"way/1021389634"},"geometry":{"type":"Point","coordinates":[-0.123971,51.307597]}},{"type":"Feature","properties":{"name":null,"category":"libraries","osm":"way/1211782588"},"geometry":{"type":"Point","coordinates":[-0.129141,51.648846]}},{"type":"Feature","properties":{"name":null,"category":"libraries","osm":"way/1241767820"},"geometry":{"type":"Point","coordinates":[-0.261093,51.491672]}},{"type":"Feature","properties":{"name":null,"category":"libraries","osm":"way/1332841742"},"geometry":{"type":"Point","coordinates":[-0.261057,51.491703]}},{"type":"Feature","properties":{"name":"Abbey Wood Library","category":"libraries","osm":"node/2114877777"},"geometry":{"type":"Point","coordinates":[0.110257,51.493687]}},{"type":"Feature","properties":{"name":"Abdus Salam Library","category":"libraries","osm":"way/110085233"},"geometry":{"type":"Point","coordinates":[-0.178201,51.498232]}},{"type":"Feature","properties":{"name":"Acton Town Hall Library","category":"libraries","osm":"node/3207892870"},"geometry":{"type":"Point","coordinates":[-0.267585,51.506564]}},{"type":"Feature","properties":{"name":"Aga Kahn Library","category":"libraries","osm":"node/14145193802"},"geometry":{"type":"Point","coordinates":[-0.12494,51.537506]}},{"type":"Feature","properties":{"name":"Aldersbrook Library","category":"libraries","osm":"way/1038103852"},"geometry":{"type":"Point","coordinates":[0.033044,51.563374]}},{"type":"Feature","properties":{"name":"Alexandra Park Library","category":"libraries","osm":"way/509405001"},"geometry":{"type":"Point","coordinates":[-0.136793,51.598828]}},{"type":"Feature","properties":{"name":"Aragon Public Library","category":"libraries","osm":"node/266889087"},"geometry":{"type":"Point","coordinates":[-0.219963,51.388153]}},{"type":"Feature","properties":{"name":"Archway Library","category":"libraries","osm":"way/70595044"},"geometry":{"type":"Point","coordinates":[-0.135648,51.565628]}},{"type":"Feature","properties":{"name":"Arnos Library","category":"libraries","osm":"way/79372537"},"geometry":{"type":"Point","coordinates":[-0.130536,51.615374]}},{"type":"Feature","properties":{"name":"Artizan Street Library and Community Centre","category":"libraries","osm":"way/288278168"},"geometry":{"type":"Point","coordinates":[-0.076737,51.515561]}},{"type":"Feature","properties":{"name":"Ashburton Library","category":"libraries","osm":"node/5956800817"},"geometry":{"type":"Point","coordinates":[-0.0642,51.382941]}},{"type":"Feature","properties":{"name":"Ashen Drive Library","category":"libraries","osm":"way/1497825836"},"geometry":{"type":"Point","coordinates":[0.190486,51.443964]}},{"type":"Feature","properties":{"name":"Askew Road Library","category":"libraries","osm":"node/8777045357"},"geometry":{"type":"Point","coordinates":[-0.243275,51.503584]}},{"type":"Feature","properties":{"name":"Avery Hill Campus Library","category":"libraries","osm":"node/11876860562"},"geometry":{"type":"Point","coordinates":[0.079938,51.446013]}},{"type":"Feature","properties":{"name":"Avonmore Library","category":"libraries","osm":"way/142410031"},"geometry":{"type":"Point","coordinates":[-0.207096,51.492559]}},{"type":"Feature","properties":{"name":"Balham Library","category":"libraries","osm":"way/96011292"},"geometry":{"type":"Point","coordinates":[-0.152136,51.445452]}},{"type":"Feature","properties":{"name":"Barbican Library","category":"libraries","osm":"node/2018778545"},"geometry":{"type":"Point","coordinates":[-0.094169,51.519927]}},{"type":"Feature","properties":{"name":"Barham Park Library","category":"libraries","osm":"node/12708375457"},"geometry":{"type":"Point","coordinates":[-0.311442,51.55218]}},{"type":"Feature","properties":{"name":"Barking Learning Centre","category":"libraries","osm":"node/4173159466"},"geometry":{"type":"Point","coordinates":[0.079444,51.535969]}},{"type":"Feature","properties":{"name":"Bartlett Library","category":"libraries","osm":"node/12362386280"},"geometry":{"type":"Point","coordinates":[-0.129594,51.526949]}},{"type":"Feature","properties":{"name":"Battersea Library","category":"libraries","osm":"way/93750150"},"geometry":{"type":"Point","coordinates":[-0.163954,51.463897]}},{"type":"Feature","properties":{"name":"Battersea Park Library","category":"libraries","osm":"way/431085581"},"geometry":{"type":"Point","coordinates":[-0.154525,51.474385]}},{"type":"Feature","properties":{"name":"Beckenham Library","category":"libraries","osm":"way/215120123"},"geometry":{"type":"Point","coordinates":[-0.036899,51.408564]}},{"type":"Feature","properties":{"name":"Beckton Globe Library","category":"libraries","osm":"node/8333293412"},"geometry":{"type":"Point","coordinates":[0.05562,51.51493]}},{"type":"Feature","properties":{"name":"Bedfont Library","category":"libraries","osm":"way/694697115"},"geometry":{"type":"Point","coordinates":[-0.434592,51.451905]}},{"type":"Feature","properties":{"name":"Belsize Park Community Library","category":"libraries","osm":"way/85469779"},"geometry":{"type":"Point","coordinates":[-0.162278,51.5479]}},{"type":"Feature","properties":{"name":"Bethnal Green Library","category":"libraries","osm":"way/106611882"},"geometry":{"type":"Point","coordinates":[-0.053774,51.526487]}},{"type":"Feature","properties":{"name":"Bexley Village Community Library","category":"libraries","osm":"way/232970648"},"geometry":{"type":"Point","coordinates":[0.150807,51.442767]}},{"type":"Feature","properties":{"name":"BFI Mediatheque","category":"libraries","osm":"node/13566385968"},"geometry":{"type":"Point","coordinates":[-0.115181,51.506532]}},{"type":"Feature","properties":{"name":"BFI Reuben Library","category":"libraries","osm":"node/13566385967"},"geometry":{"type":"Point","coordinates":[-0.114945,51.506425]}},{"type":"Feature","properties":{"name":"Bibliothèque Quentin Blake","category":"libraries","osm":"way/700531647"},"geometry":{"type":"Point","coordinates":[-0.177152,51.494131]}},{"type":"Feature","properties":{"name":"Biggin Hill Memorial Library and Swimming Pool","category":"libraries","osm":"way/145627679"},"geometry":{"type":"Point","coordinates":[0.034676,51.312246]}},{"type":"Feature","properties":{"name":"Blackheath Standard Library","category":"libraries","osm":"way/352548343"},"geometry":{"type":"Point","coordinates":[0.021571,51.476944]}},{"type":"Feature","properties":{"name":"Blue Anchor Library","category":"libraries","osm":"way/614265535"},"geometry":{"type":"Point","coordinates":[-0.063812,51.492872]}},{"type":"Feature","properties":{"name":"Blythe House Archive and Library Reading Room","category":"libraries","osm":"node/1643046085"},"geometry":{"type":"Point","coordinates":[-0.212954,51.496143]}},{"type":"Feature","properties":{"name":"Borough of Deptford Central Library","category":"libraries","osm":"way/214741239"},"geometry":{"type":"Point","coordinates":[-0.030808,51.471437]}},{"type":"Feature","properties":{"name":"Botwell Green Library","category":"libraries","osm":"node/2554370824"},"geometry":{"type":"Point","coordinates":[-0.418189,51.508397]}},{"type":"Feature","properties":{"name":"Bradmore Green Library","category":"libraries","osm":"node/683392235"},"geometry":{"type":"Point","coordinates":[-0.123931,51.307569]}},{"type":"Feature","properties":{"name":"Brandon Library","category":"libraries","osm":"way/38763432"},"geometry":{"type":"Point","coordinates":[-0.102943,51.482368]}},{"type":"Feature","properties":{"name":"Brentford Library","category":"libraries","osm":"way/254134636"},"geometry":{"type":"Point","coordinates":[-0.307548,51.486583]}},{"type":"Feature","properties":{"name":"British Library","category":"libraries","osm":"way/4680891"},"geometry":{"type":"Point","coordinates":[-0.127709,51.530002]}},{"type":"Feature","properties":{"name":"British Library of Political and Economic Science","category":"libraries","osm":"way/174793673"},"geometry":{"type":"Point","coordinates":[-0.115695,51.514662]}},{"type":"Feature","properties":{"name":"Brixton Library","category":"libraries","osm":"node/703286426"},"geometry":{"type":"Point","coordinates":[-0.114848,51.460946]}},{"type":"Feature","properties":{"name":"Broad Green Library","category":"libraries","osm":"way/168695287"},"geometry":{"type":"Point","coordinates":[-0.117124,51.385354]}},{"type":"Feature","properties":{"name":"Bromley Central Library","category":"libraries","osm":"node/354890228"},"geometry":{"type":"Point","coordinates":[0.01465,51.40361]}},{"type":"Feature","properties":{"name":"Brompton Library","category":"libraries","osm":"node/300425890"},"geometry":{"type":"Point","coordinates":[-0.188297,51.490037]}},{"type":"Feature","properties":{"name":"Brunel University Library","category":"libraries","osm":"node/13645803697"},"geometry":{"type":"Point","coordinates":[-0.473901,51.532712]}},{"type":"Feature","properties":{"name":"Buckhurst Hill Library","category":"libraries","osm":"node/1084359801"},"geometry":{"type":"Point","coordinates":[0.036404,51.62619]}},{"type":"Feature","properties":{"name":"Burnt Ash Library","category":"libraries","osm":"way/1134952098"},"geometry":{"type":"Point","coordinates":[0.019691,51.419856]}},{"type":"Feature","properties":{"name":"Bush Hill Park Library","category":"libraries","osm":"node/326122794"},"geometry":{"type":"Point","coordinates":[-0.066509,51.645323]}},{"type":"Feature","properties":{"name":"Camberwell Library","category":"libraries","osm":"way/621224358"},"geometry":{"type":"Point","coordinates":[-0.091963,51.475753]}},{"type":"Feature","properties":{"name":"Camden Town Library","category":"libraries","osm":"node/2345394803"},"geometry":{"type":"Point","coordinates":[-0.137742,51.534345]}},{"type":"Feature","properties":{"name":"Canada Water Library","category":"libraries","osm":"way/157137089"},"geometry":{"type":"Point","coordinates":[-0.049106,51.49767]}},{"type":"Feature","properties":{"name":"Carnegie Library","category":"libraries","osm":"way/26964088"},"geometry":{"type":"Point","coordinates":[-0.096545,51.460672]}},{"type":"Feature","properties":{"name":"Castelnau Library","category":"libraries","osm":"way/633322861"},"geometry":{"type":"Point","coordinates":[-0.237503,51.480258]}},{"type":"Feature","properties":{"name":"Cat and Mouse Library","category":"libraries","osm":"node/8236937193"},"geometry":{"type":"Point","coordinates":[-0.125077,51.552672]}},{"type":"Feature","properties":{"name":"Catford Library","category":"libraries","osm":"node/13878265"},"geometry":{"type":"Point","coordinates":[-0.021219,51.446163]}},{"type":"Feature","properties":{"name":"Charing Cross Library","category":"libraries","osm":"way/96237024"},"geometry":{"type":"Point","coordinates":[-0.127878,51.510248]}},{"type":"Feature","properties":{"name":"Charlton Library","category":"libraries","osm":"way/162578780"},"geometry":{"type":"Point","coordinates":[0.037199,51.480437]}},{"type":"Feature","properties":{"name":"Cheam Library","category":"libraries","osm":"node/36969174"},"geometry":{"type":"Point","coordinates":[-0.21664,51.360142]}},{"type":"Feature","properties":{"name":"Chelsea Library","category":"libraries","osm":"node/1210268273"},"geometry":{"type":"Point","coordinates":[-0.168506,51.48735]}},{"type":"Feature","properties":{"name":"Childs Hill Library","category":"libraries","osm":"way/1159276061"},"geometry":{"type":"Point","coordinates":[-0.20079,51.562223]}},{"type":"Feature","properties":{"name":"Chipping Barnet Library","category":"libraries","osm":"way/146908842"},"geometry":{"type":"Point","coordinates":[-0.204731,51.656101]}},{"type":"Feature","properties":{"name":"Chislehurst library","category":"libraries","osm":"way/26622519"},"geometry":{"type":"Point","coordinates":[0.06471,51.42012]}},{"type":"Feature","properties":{"name":"Chiswick Area Library","category":"libraries","osm":"node/268521790"},"geometry":{"type":"Point","coordinates":[-0.261086,51.491756]}},{"type":"Feature","properties":{"name":"Church End Library","category":"libraries","osm":"node/5141528223"},"geometry":{"type":"Point","coordinates":[-0.195096,51.599956]}},{"type":"Feature","properties":{"name":"Church Street Library","category":"libraries","osm":"way/360942512"},"geometry":{"type":"Point","coordinates":[-0.170126,51.52303]}},{"type":"Feature","properties":{"name":"Clapham Library","category":"libraries","osm":"node/4405969089"},"geometry":{"type":"Point","coordinates":[-0.13298,51.462995]}},{"type":"Feature","properties":{"name":"Clapton Library","category":"libraries","osm":"way/384956801"},"geometry":{"type":"Point","coordinates":[-0.059863,51.562697]}},{"type":"Feature","properties":{"name":"Coldharbour Library","category":"libraries","osm":"way/947167657"},"geometry":{"type":"Point","coordinates":[0.057329,51.430454]}},{"type":"Feature","properties":{"name":"Colindale Library","category":"libraries","osm":"way/570702397"},"geometry":{"type":"Point","coordinates":[-0.24572,51.597267]}},{"type":"Feature","properties":{"name":"Collier Row Library","category":"libraries","osm":"way/93267461"},"geometry":{"type":"Point","coordinates":[0.160865,51.598463]}},{"type":"Feature","properties":{"name":"Colliers Wood Library","category":"libraries","osm":"node/5912764951"},"geometry":{"type":"Point","coordinates":[-0.177297,51.418816]}},{"type":"Feature","properties":{"name":"Commons Library","category":"libraries","osm":"node/13288027766"},"geometry":{"type":"Point","coordinates":[-0.123999,51.499981]}},{"type":"Feature","properties":{"name":"Coombes Croft Library","category":"libraries","osm":"node/1514581508"},"geometry":{"type":"Point","coordinates":[-0.068311,51.603556]}},{"type":"Feature","properties":{"name":"Coopers Lane Primary School Library","category":"libraries","osm":"way/1225939408"},"geometry":{"type":"Point","coordinates":[0.020333,51.436585]}},{"type":"Feature","properties":{"name":"Coulsdon Library","category":"libraries","osm":"way/325114774"},"geometry":{"type":"Point","coordinates":[-0.138647,51.319968]}},{"type":"Feature","properties":{"name":"Cranford Library","category":"libraries","osm":"way/62278306"},"geometry":{"type":"Point","coordinates":[-0.406442,51.47811]}},{"type":"Feature","properties":{"name":"Crayford Library","category":"libraries","osm":"way/767941718"},"geometry":{"type":"Point","coordinates":[0.180033,51.450007]}},{"type":"Feature","properties":{"name":"Cricklewood Library","category":"libraries","osm":"way/75901130"},"geometry":{"type":"Point","coordinates":[-0.227349,51.556823]}},{"type":"Feature","properties":{"name":"Crofton Park Library","category":"libraries","osm":"node/616836517"},"geometry":{"type":"Point","coordinates":[-0.036367,51.455416]}},{"type":"Feature","properties":{"name":"Croydon Central Library","category":"libraries","osm":"way/193799547"},"geometry":{"type":"Point","coordinates":[-0.099447,51.371817]}},{"type":"Feature","properties":{"name":"Cubitt Town Library","category":"libraries","osm":"way/193308932"},"geometry":{"type":"Point","coordinates":[-0.011749,51.495978]}},{"type":"Feature","properties":{"name":"Custom House and Canning Town Community Neighbourhood Centre and Library","category":"libraries","osm":"node/5395677847"},"geometry":{"type":"Point","coordinates":[0.011295,51.516818]}},{"type":"Feature","properties":{"name":"Custom House Library","category":"libraries","osm":"way/868617836"},"geometry":{"type":"Point","coordinates":[0.031363,51.51519]}},{"type":"Feature","properties":{"name":"Dagenham Library","category":"libraries","osm":"way/93239652"},"geometry":{"type":"Point","coordinates":[0.148328,51.540462]}},{"type":"Feature","properties":{"name":"Dalston CLR James Library","category":"libraries","osm":"way/51271820"},"geometry":{"type":"Point","coordinates":[-0.073913,51.546043]}},{"type":"Feature","properties":{"name":"Dana Research Centre and Library","category":"libraries","osm":"way/4959880"},"geometry":{"type":"Point","coordinates":[-0.179042,51.497103]}},{"type":"Feature","properties":{"name":"Deptford Lounge Library","category":"libraries","osm":"way/330163598"},"geometry":{"type":"Point","coordinates":[-0.024664,51.477759]}},{"type":"Feature","properties":{"name":"Dorest Social Club","category":"libraries","osm":"way/84842560"},"geometry":{"type":"Point","coordinates":[-0.072392,51.530011]}},{"type":"Feature","properties":{"name":"Downham Library","category":"libraries","osm":"node/11532690655"},"geometry":{"type":"Point","coordinates":[0.012215,51.426043]}},{"type":"Feature","properties":{"name":"Dr Williams's Library","category":"libraries","osm":"way/224890389"},"geometry":{"type":"Point","coordinates":[-0.13153,51.523953]}},{"type":"Feature","properties":{"name":"Dulwich Library","category":"libraries","osm":"node/259711313"},"geometry":{"type":"Point","coordinates":[-0.074499,51.448832]}},{"type":"Feature","properties":{"name":"Durning Library","category":"libraries","osm":"way/1162589119"},"geometry":{"type":"Point","coordinates":[-0.110179,51.488875]}},{"type":"Feature","properties":{"name":"Ealing Central Library","category":"libraries","osm":"node/293397147"},"geometry":{"type":"Point","coordinates":[-0.302473,51.512321]}},{"type":"Feature","properties":{"name":"Ealing Road Library","category":"libraries","osm":"way/80154113"},"geometry":{"type":"Point","coordinates":[-0.297407,51.549504]}},{"type":"Feature","properties":{"name":"Earlsfield Library","category":"libraries","osm":"way/568591183"},"geometry":{"type":"Point","coordinates":[-0.186685,51.442471]}},{"type":"Feature","properties":{"name":"East Finchley Library","category":"libraries","osm":"way/87095829"},"geometry":{"type":"Point","coordinates":[-0.167558,51.593931]}},{"type":"Feature","properties":{"name":"East Ham Library","category":"libraries","osm":"way/888678910"},"geometry":{"type":"Point","coordinates":[0.057062,51.533087]}},{"type":"Feature","properties":{"name":"East Sheen Library","category":"libraries","osm":"way/454554286"},"geometry":{"type":"Point","coordinates":[-0.267371,51.465443]}},{"type":"Feature","properties":{"name":"Eastcote Library","category":"libraries","osm":"node/1319526001"},"geometry":{"type":"Point","coordinates":[-0.400463,51.580427]}},{"type":"Feature","properties":{"name":"Edgware Library","category":"libraries","osm":"way/198992576"},"geometry":{"type":"Point","coordinates":[-0.274009,51.616255]}},{"type":"Feature","properties":{"name":"Edmonton Green Library","category":"libraries","osm":"node/1139414884"},"geometry":{"type":"Point","coordinates":[-0.058464,51.62395]}},{"type":"Feature","properties":{"name":"Education Centre Library","category":"libraries","osm":"node/5568555651"},"geometry":{"type":"Point","coordinates":[0.056926,51.366501]}},{"type":"Feature","properties":{"name":"Elm Park Library","category":"libraries","osm":"way/93267459"},"geometry":{"type":"Point","coordinates":[0.198539,51.552515]}},{"type":"Feature","properties":{"name":"Eltham Library","category":"libraries","osm":"node/1708956913"},"geometry":{"type":"Point","coordinates":[0.057393,51.451264]}},{"type":"Feature","properties":{"name":"Enfield Highway Library","category":"libraries","osm":"node/8075663371"},"geometry":{"type":"Point","coordinates":[-0.046845,51.658839]}},{"type":"Feature","properties":{"name":"Enfield Library","category":"libraries","osm":"node/333300780"},"geometry":{"type":"Point","coordinates":[-0.086132,51.651702]}},{"type":"Feature","properties":{"name":"Feltham Library","category":"libraries","osm":"node/7041666991"},"geometry":{"type":"Point","coordinates":[-0.411181,51.446367]}},{"type":"Feature","properties":{"name":"Finsbury Library","category":"libraries","osm":"way/73320333"},"geometry":{"type":"Point","coordinates":[-0.104375,51.526375]}},{"type":"Feature","properties":{"name":"Fore Street Library","category":"libraries","osm":"node/2453732830"},"geometry":{"type":"Point","coordinates":[-0.065175,51.612239]}},{"type":"Feature","properties":{"name":"Forest Hill Library","category":"libraries","osm":"node/1706341532"},"geometry":{"type":"Point","coordinates":[-0.056049,51.435759]}},{"type":"Feature","properties":{"name":"Friern Barnet Community Library","category":"libraries","osm":"way/187944977"},"geometry":{"type":"Point","coordinates":[-0.153439,51.613542]}},{"type":"Feature","properties":{"name":"Fulham Library","category":"libraries","osm":"way/391021126"},"geometry":{"type":"Point","coordinates":[-0.202673,51.477244]}},{"type":"Feature","properties":{"name":"Fullwell Cross Library","category":"libraries","osm":"way/29584573"},"geometry":{"type":"Point","coordinates":[0.085193,51.593156]}},{"type":"Feature","properties":{"name":"Gants Hill Library","category":"libraries","osm":"way/1135490944"},"geometry":{"type":"Point","coordinates":[0.069917,51.577563]}},{"type":"Feature","properties":{"name":"Gidea Park Library","category":"libraries","osm":"way/93267455"},"geometry":{"type":"Point","coordinates":[0.205898,51.579989]}},{"type":"Feature","properties":{"name":"Golders Green Library","category":"libraries","osm":"way/75720860"},"geometry":{"type":"Point","coordinates":[-0.201743,51.574742]}},{"type":"Feature","properties":{"name":"Goodmayes Library","category":"libraries","osm":"way/772429603"},"geometry":{"type":"Point","coordinates":[0.108995,51.559395]}},{"type":"Feature","properties":{"name":"Green Street Library","category":"libraries","osm":"way/597114986"},"geometry":{"type":"Point","coordinates":[0.035307,51.536389]}},{"type":"Feature","properties":{"name":"Greenford Library","category":"libraries","osm":"node/2299893795"},"geometry":{"type":"Point","coordinates":[-0.355086,51.529823]}},{"type":"Feature","properties":{"name":"Greenhill Library","category":"libraries","osm":"node/11182613898"},"geometry":{"type":"Point","coordinates":[-0.336033,51.579575]}},{"type":"Feature","properties":{"name":"Greenwich Centre Library","category":"libraries","osm":"node/10038007119"},"geometry":{"type":"Point","coordinates":[0.008073,51.485729]}},{"type":"Feature","properties":{"name":"Grove Park Library","category":"libraries","osm":"way/408016859"},"geometry":{"type":"Point","coordinates":[0.023509,51.435983]}},{"type":"Feature","properties":{"name":"Grove Vale Library","category":"libraries","osm":"node/6146671287"},"geometry":{"type":"Point","coordinates":[-0.080228,51.46123]}},{"type":"Feature","properties":{"name":"Grove Village Library","category":"libraries","osm":"way/694539505"},"geometry":{"type":"Point","coordinates":[-0.431312,51.449378]}},{"type":"Feature","properties":{"name":"Guildhall Library","category":"libraries","osm":"node/2672118121"},"geometry":{"type":"Point","coordinates":[-0.092598,51.516176]}},{"type":"Feature","properties":{"name":"Hackney Central Library","category":"libraries","osm":"node/443939768"},"geometry":{"type":"Point","coordinates":[-0.055675,51.544621]}},{"type":"Feature","properties":{"name":"Hainault Library","category":"libraries","osm":"way/408862465"},"geometry":{"type":"Point","coordinates":[0.104278,51.607966]}},{"type":"Feature","properties":{"name":"Hale End Library","category":"libraries","osm":"way/79015959"},"geometry":{"type":"Point","coordinates":[0.001208,51.609229]}},{"type":"Feature","properties":{"name":"Ham Library","category":"libraries","osm":"way/298830747"},"geometry":{"type":"Point","coordinates":[-0.313241,51.437874]}},{"type":"Feature","properties":{"name":"Hammersmith and Fulham Archives and Local History Centre","category":"libraries","osm":"node/1609552612"},"geometry":{"type":"Point","coordinates":[-0.220256,51.490972]}},{"type":"Feature","properties":{"name":"Hammersmith Library","category":"libraries","osm":"way/61812032"},"geometry":{"type":"Point","coordinates":[-0.223649,51.494617]}},{"type":"Feature","properties":{"name":"Hampton Hill Library","category":"libraries","osm":"way/645070701"},"geometry":{"type":"Point","coordinates":[-0.35583,51.42658]}},{"type":"Feature","properties":{"name":"Hampton Library","category":"libraries","osm":"way/92267202"},"geometry":{"type":"Point","coordinates":[-0.370639,51.41388]}},{"type":"Feature","properties":{"name":"Hampton Wick Library","category":"libraries","osm":"way/963584394"},"geometry":{"type":"Point","coordinates":[-0.313375,51.413804]}},{"type":"Feature","properties":{"name":"Hanwell Library","category":"libraries","osm":"node/3213255777"},"geometry":{"type":"Point","coordinates":[-0.336045,51.50988]}},{"type":"Feature","properties":{"name":"Hanworth Air Park Leisure Centre & Library","category":"libraries","osm":"way/360736519"},"geometry":{"type":"Point","coordinates":[-0.392642,51.441291]}},{"type":"Feature","properties":{"name":"Harefield Hospital Library","category":"libraries","osm":"way/921053204"},"geometry":{"type":"Point","coordinates":[-0.483119,51.607472]}},{"type":"Feature","properties":{"name":"Harlesden Library","category":"libraries","osm":"way/86840428"},"geometry":{"type":"Point","coordinates":[-0.250522,51.538671]}},{"type":"Feature","properties":{"name":"Harold Hill Library","category":"libraries","osm":"way/1540857502"},"geometry":{"type":"Point","coordinates":[0.219602,51.606438]}},{"type":"Feature","properties":{"name":"Harold Wood Library","category":"libraries","osm":"way/93267454"},"geometry":{"type":"Point","coordinates":[0.235451,51.594519]}},{"type":"Feature","properties":{"name":"Harrow Green Community Library","category":"libraries","osm":"node/279547975"},"geometry":{"type":"Point","coordinates":[0.006388,51.558117]}},{"type":"Feature","properties":{"name":"Harrow Reference Library","category":"libraries","osm":"way/130536225"},"geometry":{"type":"Point","coordinates":[-0.335029,51.58965]}},{"type":"Feature","properties":{"name":"Hayes End Library","category":"libraries","osm":"node/2554370837"},"geometry":{"type":"Point","coordinates":[-0.436198,51.525854]}},{"type":"Feature","properties":{"name":"Hayes Library","category":"libraries","osm":"way/713921340"},"geometry":{"type":"Point","coordinates":[0.018139,51.377469]}},{"type":"Feature","properties":{"name":"Hendon Library","category":"libraries","osm":"node/765802909"},"geometry":{"type":"Point","coordinates":[-0.228878,51.588577]}},{"type":"Feature","properties":{"name":"Heston Public Library","category":"libraries","osm":"way/1256947789"},"geometry":{"type":"Point","coordinates":[-0.375378,51.485829]}},{"type":"Feature","properties":{"name":"Heythrop Library","category":"libraries","osm":"node/13409268100"},"geometry":{"type":"Point","coordinates":[-0.149134,51.509901]}},{"type":"Feature","properties":{"name":"Higham Hill Library","category":"libraries","osm":"way/216573139"},"geometry":{"type":"Point","coordinates":[-0.027418,51.595819]}},{"type":"Feature","properties":{"name":"Highgate Library","category":"libraries","osm":"way/190344390"},"geometry":{"type":"Point","coordinates":[-0.143726,51.577128]}},{"type":"Feature","properties":{"name":"Highgate Public Library","category":"libraries","osm":"way/77339745"},"geometry":{"type":"Point","coordinates":[-0.144077,51.563783]}},{"type":"Feature","properties":{"name":"Holborn Library","category":"libraries","osm":"node/13799212"},"geometry":{"type":"Point","coordinates":[-0.115614,51.521076]}},{"type":"Feature","properties":{"name":"Homerton Library","category":"libraries","osm":"way/73580151"},"geometry":{"type":"Point","coordinates":[-0.04183,51.548909]}},{"type":"Feature","properties":{"name":"Hook and Chessington Library","category":"libraries","osm":"node/1044892519"},"geometry":{"type":"Point","coordinates":[-0.306065,51.368091]}},{"type":"Feature","properties":{"name":"Hornchurch Library","category":"libraries","osm":"way/93267460"},"geometry":{"type":"Point","coordinates":[0.220561,51.564905]}},{"type":"Feature","properties":{"name":"Hornsey Library","category":"libraries","osm":"way/128803643"},"geometry":{"type":"Point","coordinates":[-0.121917,51.578231]}},{"type":"Feature","properties":{"name":"Hounslow Library","category":"libraries","osm":"node/4681592589"},"geometry":{"type":"Point","coordinates":[-0.367469,51.468493]}},{"type":"Feature","properties":{"name":"House of Lords Library","category":"libraries","osm":"node/13288027765"},"geometry":{"type":"Point","coordinates":[-0.124263,51.498647]}},{"type":"Feature","properties":{"name":"Ickenham Library","category":"libraries","osm":"way/166072518"},"geometry":{"type":"Point","coordinates":[-0.443477,51.56352]}},{"type":"Feature","properties":{"name":"ICSF Library","category":"libraries","osm":"node/5624636909"},"geometry":{"type":"Point","coordinates":[-0.17849,51.500109]}},{"type":"Feature","properties":{"name":"Idea Store","category":"libraries","osm":"node/1936163397"},"geometry":{"type":"Point","coordinates":[-0.014693,51.504528]}},{"type":"Feature","properties":{"name":"Idea Store Chrisp Street","category":"libraries","osm":"way/136547643"},"geometry":{"type":"Point","coordinates":[-0.014483,51.511602]}},{"type":"Feature","properties":{"name":"Idea Store Watney Market","category":"libraries","osm":"way/425408843"},"geometry":{"type":"Point","coordinates":[-0.057257,51.51435]}},{"type":"Feature","properties":{"name":"Idea Store, Bow","category":"libraries","osm":"node/307712798"},"geometry":{"type":"Point","coordinates":[-0.029746,51.53275]}},{"type":"Feature","properties":{"name":"Isleworth Public Library","category":"libraries","osm":"way/5230708"},"geometry":{"type":"Point","coordinates":[-0.330159,51.466803]}},{"type":"Feature","properties":{"name":"Islington Central Library","category":"libraries","osm":"way/27815146"},"geometry":{"type":"Point","coordinates":[-0.107128,51.549128]}},{"type":"Feature","properties":{"name":"Islington Local History Centre","category":"libraries","osm":"node/1588957562"},"geometry":{"type":"Point","coordinates":[-0.104506,51.526241]}},{"type":"Feature","properties":{"name":"Islington North Library","category":"libraries","osm":"way/239266445"},"geometry":{"type":"Point","coordinates":[-0.121669,51.560421]}},{"type":"Feature","properties":{"name":"John Harvard Library","category":"libraries","osm":"node/9919427425"},"geometry":{"type":"Point","coordinates":[-0.092394,51.501778]}},{"type":"Feature","properties":{"name":"Jubilee Gardens Library","category":"libraries","osm":"way/222637514"},"geometry":{"type":"Point","coordinates":[-0.369101,51.521387]}},{"type":"Feature","properties":{"name":"Keats Community Library","category":"libraries","osm":"way/65272909"},"geometry":{"type":"Point","coordinates":[-0.168203,51.555444]}},{"type":"Feature","properties":{"name":"Kensal Library","category":"libraries","osm":"node/7255009410"},"geometry":{"type":"Point","coordinates":[-0.206806,51.523865]}},{"type":"Feature","properties":{"name":"Kensal Rise Library","category":"libraries","osm":"node/12047461674"},"geometry":{"type":"Point","coordinates":[-0.226024,51.533821]}},{"type":"Feature","properties":{"name":"Kensington Central Library","category":"libraries","osm":"way/75110977"},"geometry":{"type":"Point","coordinates":[-0.194421,51.501434]}},{"type":"Feature","properties":{"name":"Kentish Town Library","category":"libraries","osm":"way/188037928"},"geometry":{"type":"Point","coordinates":[-0.140443,51.549984]}},{"type":"Feature","properties":{"name":"Kenton Library","category":"libraries","osm":"way/508289850"},"geometry":{"type":"Point","coordinates":[-0.311268,51.592613]}},{"type":"Feature","properties":{"name":"Kew Library","category":"libraries","osm":"way/1059420285"},"geometry":{"type":"Point","coordinates":[-0.284674,51.476536]}},{"type":"Feature","properties":{"name":"Kilburn Library","category":"libraries","osm":"way/34832022"},"geometry":{"type":"Point","coordinates":[-0.191144,51.536383]}},{"type":"Feature","properties":{"name":"Kilburn Library","category":"libraries","osm":"way/62111346"},"geometry":{"type":"Point","coordinates":[-0.205427,51.535115]}},{"type":"Feature","properties":{"name":"Kingsbury Library Plus","category":"libraries","osm":"node/4859180893"},"geometry":{"type":"Point","coordinates":[-0.276464,51.585982]}},{"type":"Feature","properties":{"name":"Kingston Library","category":"libraries","osm":"node/632558517"},"geometry":{"type":"Point","coordinates":[-0.300228,51.409364]}},{"type":"Feature","properties":{"name":"La Médiathèque","category":"libraries","osm":"node/7930695623"},"geometry":{"type":"Point","coordinates":[-0.1773,51.494539]}},{"type":"Feature","properties":{"name":"Lambeth Archives & Minet Library","category":"libraries","osm":"node/512764938"},"geometry":{"type":"Point","coordinates":[-0.105204,51.471382]}},{"type":"Feature","properties":{"name":"Lambeth Palace Library","category":"libraries","osm":"way/998276956"},"geometry":{"type":"Point","coordinates":[-0.118168,51.497683]}},{"type":"Feature","properties":{"name":"Lea Bridge Library","category":"libraries","osm":"way/582690478"},"geometry":{"type":"Point","coordinates":[-0.023562,51.570727]}},{"type":"Feature","properties":{"name":"Lewis Carroll Children's Library","category":"libraries","osm":"node/434565670"},"geometry":{"type":"Point","coordinates":[-0.118954,51.537135]}},{"type":"Feature","properties":{"name":"Leyton Library","category":"libraries","osm":"way/240678704"},"geometry":{"type":"Point","coordinates":[-0.007333,51.558523]}},{"type":"Feature","properties":{"name":"Library","category":"libraries","osm":"way/438283457"},"geometry":{"type":"Point","coordinates":[-0.322723,51.577709]}},{"type":"Feature","properties":{"name":"Library","category":"libraries","osm":"way/1277922291"},"geometry":{"type":"Point","coordinates":[0.079923,51.44607]}},{"type":"Feature","properties":{"name":"Library","category":"libraries","osm":"way/1335913754"},"geometry":{"type":"Point","coordinates":[-0.073868,51.515228]}},{"type":"Feature","properties":{"name":"Library","category":"libraries","osm":"way/1336564139"},"geometry":{"type":"Point","coordinates":[-0.335038,51.436361]}},{"type":"Feature","properties":{"name":"Library for Iranian Studies","category":"libraries","osm":"way/1044731269"},"geometry":{"type":"Point","coordinates":[-0.274334,51.507043]}},{"type":"Feature","properties":{"name":"Libraryplus Central Library","category":"libraries","osm":"way/966050370"},"geometry":{"type":"Point","coordinates":[0.14365,51.455859]}},{"type":"Feature","properties":{"name":"LibraryPlus Leytonstone","category":"libraries","osm":"way/28808110"},"geometry":{"type":"Point","coordinates":[0.010425,51.568173]}},{"type":"Feature","properties":{"name":"Listening Books","category":"libraries","osm":"way/100268259"},"geometry":{"type":"Point","coordinates":[-0.097369,51.501327]}},{"type":"Feature","properties":{"name":"Local History Library","category":"libraries","osm":"node/2318108156"},"geometry":{"type":"Point","coordinates":[-0.091729,51.501727]}},{"type":"Feature","properties":{"name":"Lubavitch Lending Library","category":"libraries","osm":"node/1895577163"},"geometry":{"type":"Point","coordinates":[-0.073831,51.572347]}},{"type":"Feature","properties":{"name":"Maida Vale Library","category":"libraries","osm":"way/58759623"},"geometry":{"type":"Point","coordinates":[-0.190485,51.524735]}},{"type":"Feature","properties":{"name":"Main Library","category":"libraries","osm":"node/7913450256"},"geometry":{"type":"Point","coordinates":[-0.133408,51.52478]}},{"type":"Feature","properties":{"name":"Manor Farm Library","category":"libraries","osm":"node/336335585"},"geometry":{"type":"Point","coordinates":[-0.428254,51.578024]}},{"type":"Feature","properties":{"name":"Manor House Library","category":"libraries","osm":"way/430361226"},"geometry":{"type":"Point","coordinates":[0.004508,51.457301]}},{"type":"Feature","properties":{"name":"Manor Park Library","category":"libraries","osm":"node/4730679173"},"geometry":{"type":"Point","coordinates":[0.047293,51.550818]}},{"type":"Feature","properties":{"name":"Marcus Garvey Library","category":"libraries","osm":"node/1514530038"},"geometry":{"type":"Point","coordinates":[-0.073928,51.588005]}},{"type":"Feature","properties":{"name":"Marks Gate Library","category":"libraries","osm":"way/93239649"},"geometry":{"type":"Point","coordinates":[0.135959,51.585337]}},{"type":"Feature","properties":{"name":"Markyate Road","category":"libraries","osm":"way/93239650"},"geometry":{"type":"Point","coordinates":[0.117264,51.545228]}},{"type":"Feature","properties":{"name":"Marx Memorial Library","category":"libraries","osm":"way/163032679"},"geometry":{"type":"Point","coordinates":[-0.10574,51.52301]}},{"type":"Feature","properties":{"name":"Marylebone Library","category":"libraries","osm":"node/6235003792"},"geometry":{"type":"Point","coordinates":[-0.150723,51.518846]}},{"type":"Feature","properties":{"name":"Maughan Library","category":"libraries","osm":"way/174793675"},"geometry":{"type":"Point","coordinates":[-0.110441,51.515167]}},{"type":"Feature","properties":{"name":"Mayfair Library","category":"libraries","osm":"way/224892997"},"geometry":{"type":"Point","coordinates":[-0.151134,51.509348]}},{"type":"Feature","properties":{"name":"Middleton Circle Library","category":"libraries","osm":"node/278080095"},"geometry":{"type":"Point","coordinates":[-0.174654,51.38559]}},{"type":"Feature","properties":{"name":"Mildmay Library","category":"libraries","osm":"way/58703879"},"geometry":{"type":"Point","coordinates":[-0.084373,51.547576]}},{"type":"Feature","properties":{"name":"Mile End Library","category":"libraries","osm":"way/29079452"},"geometry":{"type":"Point","coordinates":[-0.039593,51.524231]}},{"type":"Feature","properties":{"name":"Mill Hill Library","category":"libraries","osm":"way/82489311"},"geometry":{"type":"Point","coordinates":[-0.243064,51.615388]}},{"type":"Feature","properties":{"name":"Minet Library and Lambeth Archives","category":"libraries","osm":"way/88843138"},"geometry":{"type":"Point","coordinates":[-0.105276,51.47139]}},{"type":"Feature","properties":{"name":"Mitcham Library","category":"libraries","osm":"node/1679123297"},"geometry":{"type":"Point","coordinates":[-0.162694,51.408631]}},{"type":"Feature","properties":{"name":"Mitcham Library","category":"libraries","osm":"way/1226199044"},"geometry":{"type":"Point","coordinates":[-0.162439,51.408627]}},{"type":"Feature","properties":{"name":"Morden Library","category":"libraries","osm":"node/2337237311"},"geometry":{"type":"Point","coordinates":[-0.196059,51.401508]}},{"type":"Feature","properties":{"name":"Mottingham Library","category":"libraries","osm":"way/256991059"},"geometry":{"type":"Point","coordinates":[0.043571,51.437468]}},{"type":"Feature","properties":{"name":"Muswell Hill Library","category":"libraries","osm":"way/1068579996"},"geometry":{"type":"Point","coordinates":[-0.143265,51.59113]}},{"type":"Feature","properties":{"name":"N4 Library","category":"libraries","osm":"way/1029163617"},"geometry":{"type":"Point","coordinates":[-0.103619,51.563789]}},{"type":"Feature","properties":{"name":"Naylor Library","category":"libraries","osm":"way/293725954"},"geometry":{"type":"Point","coordinates":[-0.336106,51.42894]}},{"type":"Feature","properties":{"name":"Neasden Library Plus","category":"libraries","osm":"node/914971622"},"geometry":{"type":"Point","coordinates":[-0.251502,51.559834]}},{"type":"Feature","properties":{"name":"New Addington Library","category":"libraries","osm":"node/465648616"},"geometry":{"type":"Point","coordinates":[-0.013359,51.340203]}},{"type":"Feature","properties":{"name":"New Cross Learning Centre","category":"libraries","osm":"node/1686474526"},"geometry":{"type":"Point","coordinates":[-0.038596,51.475483]}},{"type":"Feature","properties":{"name":"New Eltham Library","category":"libraries","osm":"way/431242864"},"geometry":{"type":"Point","coordinates":[0.07135,51.437476]}},{"type":"Feature","properties":{"name":"New Hunt's House Library","category":"libraries","osm":"node/13965407358"},"geometry":{"type":"Point","coordinates":[-0.088261,51.503388]}},{"type":"Feature","properties":{"name":"New Malden Library","category":"libraries","osm":"node/9330461891"},"geometry":{"type":"Point","coordinates":[-0.260671,51.399308]}},{"type":"Feature","properties":{"name":"Newington Library","category":"libraries","osm":"way/80278380"},"geometry":{"type":"Point","coordinates":[-0.096839,51.490811]}},{"type":"Feature","properties":{"name":"Nightingale Centre (Library)","category":"libraries","osm":"way/517706794"},"geometry":{"type":"Point","coordinates":[-0.264448,51.428469]}},{"type":"Feature","properties":{"name":"Norbury Library","category":"libraries","osm":"way/27217741"},"geometry":{"type":"Point","coordinates":[-0.120767,51.40554]}},{"type":"Feature","properties":{"name":"North Chingford Library","category":"libraries","osm":"way/928846348"},"geometry":{"type":"Point","coordinates":[0.002857,51.631622]}},{"type":"Feature","properties":{"name":"North Finchley Library","category":"libraries","osm":"way/188084389"},"geometry":{"type":"Point","coordinates":[-0.175871,51.618599]}},{"type":"Feature","properties":{"name":"North Harrow Community Library","category":"libraries","osm":"node/8777450348"},"geometry":{"type":"Point","coordinates":[-0.360703,51.585351]}},{"type":"Feature","properties":{"name":"North Kensington Library","category":"libraries","osm":"way/772671774"},"geometry":{"type":"Point","coordinates":[-0.209231,51.51668]}},{"type":"Feature","properties":{"name":"North Woolwich Library","category":"libraries","osm":"node/8489972074"},"geometry":{"type":"Point","coordinates":[0.062764,51.501068]}},{"type":"Feature","properties":{"name":"Northfields Community Library","category":"libraries","osm":"way/44047155"},"geometry":{"type":"Point","coordinates":[-0.314188,51.499038]}},{"type":"Feature","properties":{"name":"Northolt Leisure Centre Library","category":"libraries","osm":"node/2252345321"},"geometry":{"type":"Point","coordinates":[-0.367559,51.548994]}},{"type":"Feature","properties":{"name":"Northolt Library","category":"libraries","osm":"way/223326425"},"geometry":{"type":"Point","coordinates":[-0.38538,51.539632]}},{"type":"Feature","properties":{"name":"Northwood Hills Library","category":"libraries","osm":"way/79405064"},"geometry":{"type":"Point","coordinates":[-0.408376,51.602712]}},{"type":"Feature","properties":{"name":"Northwood Library","category":"libraries","osm":"node/12632998318"},"geometry":{"type":"Point","coordinates":[-0.415882,51.6075]}},{"type":"Feature","properties":{"name":"Notting Hill Gate Library","category":"libraries","osm":"node/7126677078"},"geometry":{"type":"Point","coordinates":[-0.197435,51.511348]}},{"type":"Feature","properties":{"name":"Nunhead Library","category":"libraries","osm":"way/81679154"},"geometry":{"type":"Point","coordinates":[-0.059652,51.465691]}},{"type":"Feature","properties":{"name":"Oak Farm Library","category":"libraries","osm":"way/460044160"},"geometry":{"type":"Point","coordinates":[-0.450091,51.541582]}},{"type":"Feature","properties":{"name":"Oakwood Library","category":"libraries","osm":"node/1314263144"},"geometry":{"type":"Point","coordinates":[-0.129241,51.648899]}},{"type":"Feature","properties":{"name":"Ordnance Unity Centre Library","category":"libraries","osm":"node/3906585772"},"geometry":{"type":"Point","coordinates":[-0.039431,51.671959]}},{"type":"Feature","properties":{"name":"Orpington Library","category":"libraries","osm":"way/144475029"},"geometry":{"type":"Point","coordinates":[0.101193,51.376162]}},{"type":"Feature","properties":{"name":"Osidge Library","category":"libraries","osm":"way/146667432"},"geometry":{"type":"Point","coordinates":[-0.149011,51.630309]}},{"type":"Feature","properties":{"name":"Osterley Public Library","category":"libraries","osm":"way/5123537"},"geometry":{"type":"Point","coordinates":[-0.345918,51.482357]}},{"type":"Feature","properties":{"name":"Paddington Children's Library","category":"libraries","osm":"node/7042171558"},"geometry":{"type":"Point","coordinates":[-0.18789,51.514945]}},{"type":"Feature","properties":{"name":"Paddington Children’s Library","category":"libraries","osm":"node/255468494"},"geometry":{"type":"Point","coordinates":[-0.189581,51.518464]}},{"type":"Feature","properties":{"name":"Paddington Library","category":"libraries","osm":"node/7048842980"},"geometry":{"type":"Point","coordinates":[-0.188678,51.517516]}},{"type":"Feature","properties":{"name":"Palmers Green Library","category":"libraries","osm":"way/166394444"},"geometry":{"type":"Point","coordinates":[-0.110517,51.615574]}},{"type":"Feature","properties":{"name":"Pancras Square Library","category":"libraries","osm":"node/3823164826"},"geometry":{"type":"Point","coordinates":[-0.126657,51.533856]}},{"type":"Feature","properties":{"name":"Peckham Library","category":"libraries","osm":"way/19798157"},"geometry":{"type":"Point","coordinates":[-0.06932,51.474282]}},{"type":"Feature","properties":{"name":"Penge Library","category":"libraries","osm":"way/422613718"},"geometry":{"type":"Point","coordinates":[-0.051055,51.413908]}},{"type":"Feature","properties":{"name":"Pepys Resource Centre","category":"libraries","osm":"node/1735689367"},"geometry":{"type":"Point","coordinates":[-0.030695,51.489971]}},{"type":"Feature","properties":{"name":"Perivale Library","category":"libraries","osm":"node/2285517615"},"geometry":{"type":"Point","coordinates":[-0.324097,51.540577]}},{"type":"Feature","properties":{"name":"Petts Wood Library","category":"libraries","osm":"way/1204104029"},"geometry":{"type":"Point","coordinates":[0.070897,51.390025]}},{"type":"Feature","properties":{"name":"Philips Building","category":"libraries","osm":"way/40768584"},"geometry":{"type":"Point","coordinates":[-0.129218,51.522514]}},{"type":"Feature","properties":{"name":"Pimlico Library","category":"libraries","osm":"node/275402349"},"geometry":{"type":"Point","coordinates":[-0.137889,51.487979]}},{"type":"Feature","properties":{"name":"Pinner Library","category":"libraries","osm":"node/1290646407"},"geometry":{"type":"Point","coordinates":[-0.380617,51.591323]}},{"type":"Feature","properties":{"name":"Plaistow Library","category":"libraries","osm":"way/118650972"},"geometry":{"type":"Point","coordinates":[0.025663,51.529709]}},{"type":"Feature","properties":{"name":"Plumstead Library","category":"libraries","osm":"way/1087950135"},"geometry":{"type":"Point","coordinates":[0.096264,51.486236]}},{"type":"Feature","properties":{"name":"Pollards Hill Library","category":"libraries","osm":"way/143324189"},"geometry":{"type":"Point","coordinates":[-0.131913,51.400072]}},{"type":"Feature","properties":{"name":"Primrose Hill Community Library","category":"libraries","osm":"way/1016910899"},"geometry":{"type":"Point","coordinates":[-0.156667,51.541121]}},{"type":"Feature","properties":{"name":"Purfleet-on-Thames Library &Hub","category":"libraries","osm":"node/13714452777"},"geometry":{"type":"Point","coordinates":[0.229356,51.485287]}},{"type":"Feature","properties":{"name":"Purley Library","category":"libraries","osm":"way/616777300"},"geometry":{"type":"Point","coordinates":[-0.118604,51.339164]}},{"type":"Feature","properties":{"name":"Putney Library","category":"libraries","osm":"way/29402596"},"geometry":{"type":"Point","coordinates":[-0.215948,51.461723]}},{"type":"Feature","properties":{"name":"Queen's Crescent Library","category":"libraries","osm":"way/85719814"},"geometry":{"type":"Point","coordinates":[-0.151252,51.550444]}},{"type":"Feature","properties":{"name":"Queen's Park Library","category":"libraries","osm":"way/466432889"},"geometry":{"type":"Point","coordinates":[-0.210799,51.527059]}},{"type":"Feature","properties":{"name":"Rainham Library","category":"libraries","osm":"way/353945214"},"geometry":{"type":"Point","coordinates":[0.191073,51.517287]}},{"type":"Feature","properties":{"name":"Raynes Park Library","category":"libraries","osm":"way/427033467"},"geometry":{"type":"Point","coordinates":[-0.227862,51.409041]}},{"type":"Feature","properties":{"name":"Redbridge Central Library","category":"libraries","osm":"node/2326355315"},"geometry":{"type":"Point","coordinates":[0.075362,51.558061]}},{"type":"Feature","properties":{"name":"RHS Lindley Library","category":"libraries","osm":"node/2324932999"},"geometry":{"type":"Point","coordinates":[-0.134695,51.49443]}},{"type":"Feature","properties":{"name":"RIBA Library","category":"libraries","osm":"node/12539364474"},"geometry":{"type":"Point","coordinates":[-0.14481,51.521377]}},{"type":"Feature","properties":{"name":"Richmond Library","category":"libraries","osm":"way/645074084"},"geometry":{"type":"Point","coordinates":[-0.303671,51.462229]}},{"type":"Feature","properties":{"name":"Richmond Reference Library","category":"libraries","osm":"node/2319413647"},"geometry":{"type":"Point","coordinates":[-0.30663,51.458887]}},{"type":"Feature","properties":{"name":"Ridge Avenue Library","category":"libraries","osm":"node/435554216"},"geometry":{"type":"Point","coordinates":[-0.081968,51.636123]}},{"type":"Feature","properties":{"name":"Robert Jayes Library","category":"libraries","osm":"node/13765893171"},"geometry":{"type":"Point","coordinates":[0.142973,51.572675]}},{"type":"Feature","properties":{"name":"Roehampton Library","category":"libraries","osm":"node/4567034588"},"geometry":{"type":"Point","coordinates":[-0.242153,51.44978]}},{"type":"Feature","properties":{"name":"Romford Central Library","category":"libraries","osm":"way/93267456"},"geometry":{"type":"Point","coordinates":[0.183543,51.580769]}},{"type":"Feature","properties":{"name":"Roxeth Library","category":"libraries","osm":"node/31437646"},"geometry":{"type":"Point","coordinates":[-0.356366,51.562556]}},{"type":"Feature","properties":{"name":"Royal Academy of Music Library","category":"libraries","osm":"node/6414630959"},"geometry":{"type":"Point","coordinates":[-0.151563,51.523744]}},{"type":"Feature","properties":{"name":"Royal College of Physicians Library","category":"libraries","osm":"node/6307248822"},"geometry":{"type":"Point","coordinates":[-0.14529,51.525842]}},{"type":"Feature","properties":{"name":"Ruislip Manor Library","category":"libraries","osm":"way/166164828"},"geometry":{"type":"Point","coordinates":[-0.411516,51.572297]}},{"type":"Feature","properties":{"name":"Rush Green Library","category":"libraries","osm":"way/93239653"},"geometry":{"type":"Point","coordinates":[0.176106,51.56352]}},{"type":"Feature","properties":{"name":"Rutherford Building(Library and IT Services)","category":"libraries","osm":"node/1686513998"},"geometry":{"type":"Point","coordinates":[-0.0356,51.474965]}},{"type":"Feature","properties":{"name":"Sanderstead Library","category":"libraries","osm":"way/205703501"},"geometry":{"type":"Point","coordinates":[-0.085547,51.340816]}},{"type":"Feature","properties":{"name":"Selsdon Library","category":"libraries","osm":"node/2148446219"},"geometry":{"type":"Point","coordinates":[-0.062565,51.34254]}},{"type":"Feature","properties":{"name":"Shepherd's Bush Library","category":"libraries","osm":"node/140402946"},"geometry":{"type":"Point","coordinates":[-0.224357,51.50587]}},{"type":"Feature","properties":{"name":"Shirley Library","category":"libraries","osm":"node/5959533598"},"geometry":{"type":"Point","coordinates":[-0.045121,51.37526]}},{"type":"Feature","properties":{"name":"Shoe Lane Library","category":"libraries","osm":"node/350370447"},"geometry":{"type":"Point","coordinates":[-0.106478,51.515466]}},{"type":"Feature","properties":{"name":"Shoreditch Library","category":"libraries","osm":"node/252524762"},"geometry":{"type":"Point","coordinates":[-0.080091,51.530177]}},{"type":"Feature","properties":{"name":"Shortlands Library","category":"libraries","osm":"node/249562682"},"geometry":{"type":"Point","coordinates":[-0.007094,51.399711]}},{"type":"Feature","properties":{"name":"Sidcup Library","category":"libraries","osm":"way/536729219"},"geometry":{"type":"Point","coordinates":[0.105181,51.425857]}},{"type":"Feature","properties":{"name":"Society for Co-operation in Russian and Soviet Studies","category":"libraries","osm":"way/403446014"},"geometry":{"type":"Point","coordinates":[-0.112907,51.469299]}},{"type":"Feature","properties":{"name":"Society of Genealogists","category":"libraries","osm":"node/13030080072"},"geometry":{"type":"Point","coordinates":[-0.095936,51.531627]}},{"type":"Feature","properties":{"name":"South Chingford Community Library","category":"libraries","osm":"way/919706702"},"geometry":{"type":"Point","coordinates":[-0.017808,51.616621]}},{"type":"Feature","properties":{"name":"South Chingford Library","category":"libraries","osm":"way/664884591"},"geometry":{"type":"Point","coordinates":[-0.021055,51.617019]}},{"type":"Feature","properties":{"name":"South Friern Library","category":"libraries","osm":"way/187715840"},"geometry":{"type":"Point","coordinates":[-0.148011,51.600496]}},{"type":"Feature","properties":{"name":"South Hornchurch Library","category":"libraries","osm":"way/93267458"},"geometry":{"type":"Point","coordinates":[0.18756,51.530214]}},{"type":"Feature","properties":{"name":"South Lambeth Library","category":"libraries","osm":"way/1007093220"},"geometry":{"type":"Point","coordinates":[-0.124022,51.479262]}},{"type":"Feature","properties":{"name":"South Library","category":"libraries","osm":"way/68422893"},"geometry":{"type":"Point","coordinates":[-0.098783,51.539043]}},{"type":"Feature","properties":{"name":"South Norwood Library","category":"libraries","osm":"way/223471766"},"geometry":{"type":"Point","coordinates":[-0.078668,51.397313]}},{"type":"Feature","properties":{"name":"South Ruislip Library","category":"libraries","osm":"way/762100113"},"geometry":{"type":"Point","coordinates":[-0.395057,51.557342]}},{"type":"Feature","properties":{"name":"South Woodford Library","category":"libraries","osm":"way/116768480"},"geometry":{"type":"Point","coordinates":[0.022073,51.597305]}},{"type":"Feature","properties":{"name":"Southall Library","category":"libraries","osm":"node/2325471301"},"geometry":{"type":"Point","coordinates":[-0.382298,51.502686]}},{"type":"Feature","properties":{"name":"Southborough Library","category":"libraries","osm":"way/1104392336"},"geometry":{"type":"Point","coordinates":[0.043444,51.389905]}},{"type":"Feature","properties":{"name":"Southfields Library","category":"libraries","osm":"way/431525751"},"geometry":{"type":"Point","coordinates":[-0.208709,51.443551]}},{"type":"Feature","properties":{"name":"Southgate Library","category":"libraries","osm":"way/59753354"},"geometry":{"type":"Point","coordinates":[-0.128297,51.63037]}},{"type":"Feature","properties":{"name":"Southgate Public Library","category":"libraries","osm":"node/330270870"},"geometry":{"type":"Point","coordinates":[-0.12829,51.630373]}},{"type":"Feature","properties":{"name":"Southwark Heritage Centre and Walworth Library","category":"libraries","osm":"node/12488154666"},"geometry":{"type":"Point","coordinates":[-0.097466,51.491583]}},{"type":"Feature","properties":{"name":"St Bride Library","category":"libraries","osm":"node/3239271376"},"geometry":{"type":"Point","coordinates":[-0.105199,51.513446]}},{"type":"Feature","properties":{"name":"St Martins Library Centre","category":"libraries","osm":"node/273460873"},"geometry":{"type":"Point","coordinates":[-0.111614,51.444615]}},{"type":"Feature","properties":{"name":"St Paul's Cray Library","category":"libraries","osm":"node/430313769"},"geometry":{"type":"Point","coordinates":[0.10326,51.40457]}},{"type":"Feature","properties":{"name":"St Philip's Church Library","category":"libraries","osm":"way/100611972"},"geometry":{"type":"Point","coordinates":[-0.060443,51.517232]}},{"type":"Feature","properties":{"name":"St. Anns Library","category":"libraries","osm":"way/81351260"},"geometry":{"type":"Point","coordinates":[-0.082816,51.580827]}},{"type":"Feature","properties":{"name":"St. John's Wood Library","category":"libraries","osm":"node/293741403"},"geometry":{"type":"Point","coordinates":[-0.17243,51.533651]}},{"type":"Feature","properties":{"name":"Stamford Hill Library","category":"libraries","osm":"way/42635571"},"geometry":{"type":"Point","coordinates":[-0.072213,51.570402]}},{"type":"Feature","properties":{"name":"Stanmore public library","category":"libraries","osm":"node/249565800"},"geometry":{"type":"Point","coordinates":[-0.311549,51.618439]}},{"type":"Feature","properties":{"name":"Stockwell Street Library","category":"libraries","osm":"node/4000847061"},"geometry":{"type":"Point","coordinates":[-0.008418,51.480257]}},{"type":"Feature","properties":{"name":"Stoke Newington Public Library","category":"libraries","osm":"way/58711061"},"geometry":{"type":"Point","coordinates":[-0.082753,51.561563]}},{"type":"Feature","properties":{"name":"Stoneleigh Library","category":"libraries","osm":"node/266702754"},"geometry":{"type":"Point","coordinates":[-0.24777,51.363482]}},{"type":"Feature","properties":{"name":"Stratford Library","category":"libraries","osm":"node/2481551409"},"geometry":{"type":"Point","coordinates":[0.004213,51.542709]}},{"type":"Feature","properties":{"name":"Stratford Library","category":"libraries","osm":"way/546162772"},"geometry":{"type":"Point","coordinates":[0.008752,51.544558]}},{"type":"Feature","properties":{"name":"Streatham Tate Library","category":"libraries","osm":"node/3018191671"},"geometry":{"type":"Point","coordinates":[-0.129091,51.431584]}},{"type":"Feature","properties":{"name":"Stroud Green & Harringay Library","category":"libraries","osm":"way/81353283"},"geometry":{"type":"Point","coordinates":[-0.106485,51.577605]}},{"type":"Feature","properties":{"name":"Stuart Hall Library","category":"libraries","osm":"node/1781389247"},"geometry":{"type":"Point","coordinates":[-0.079411,51.526474]}},{"type":"Feature","properties":{"name":"Stuart Hall Library","category":"libraries","osm":"node/11015009753"},"geometry":{"type":"Point","coordinates":[-0.129313,51.490425]}},{"type":"Feature","properties":{"name":"Summerhouse Drive Library","category":"libraries","osm":"way/246494483"},"geometry":{"type":"Point","coordinates":[0.166717,51.426222]}},{"type":"Feature","properties":{"name":"Surbiton Library","category":"libraries","osm":"node/12923359174"},"geometry":{"type":"Point","coordinates":[-0.298218,51.392761]}},{"type":"Feature","properties":{"name":"Surbiton Library Hall","category":"libraries","osm":"way/27833655"},"geometry":{"type":"Point","coordinates":[-0.298064,51.392501]}},{"type":"Feature","properties":{"name":"Sutton Central Library","category":"libraries","osm":"way/25498026"},"geometry":{"type":"Point","coordinates":[-0.195296,51.362002]}},{"type":"Feature","properties":{"name":"Sutton Life Centre","category":"libraries","osm":"way/595494079"},"geometry":{"type":"Point","coordinates":[-0.201619,51.378963]}},{"type":"Feature","properties":{"name":"Swiss Cottage Library","category":"libraries","osm":"way/124266830"},"geometry":{"type":"Point","coordinates":[-0.173277,51.542349]}},{"type":"Feature","properties":{"name":"Sydenham Library","category":"libraries","osm":"node/848850621"},"geometry":{"type":"Point","coordinates":[-0.040647,51.426918]}},{"type":"Feature","properties":{"name":"Tate Library","category":"libraries","osm":"way/1182135377"},"geometry":{"type":"Point","coordinates":[-0.154487,51.525375]}},{"type":"Feature","properties":{"name":"Teddington Library","category":"libraries","osm":"way/469029192"},"geometry":{"type":"Point","coordinates":[-0.334391,51.427729]}},{"type":"Feature","properties":{"name":"Thames View Library","category":"libraries","osm":"node/1080790344"},"geometry":{"type":"Point","coordinates":[0.10451,51.527997]}},{"type":"Feature","properties":{"name":"Thamesmead Library","category":"libraries","osm":"node/12469199118"},"geometry":{"type":"Point","coordinates":[0.123008,51.497559]}},{"type":"Feature","properties":{"name":"Thamesmere Leisure Centre and Library","category":"libraries","osm":"way/330280198"},"geometry":{"type":"Point","coordinates":[0.10917,51.50777]}},{"type":"Feature","properties":{"name":"The Feminist Library","category":"libraries","osm":"node/1446667514"},"geometry":{"type":"Point","coordinates":[-0.073049,51.477948]}},{"type":"Feature","properties":{"name":"The Gate Forest Gate Community Neighbourhood","category":"libraries","osm":"node/1579157122"},"geometry":{"type":"Point","coordinates":[0.025753,51.546913]}},{"type":"Feature","properties":{"name":"The Library @ Clayhall","category":"libraries","osm":"node/10780326288"},"geometry":{"type":"Point","coordinates":[0.049481,51.590306]}},{"type":"Feature","properties":{"name":"The Library @ The Phoenix Centre","category":"libraries","osm":"node/248042425"},"geometry":{"type":"Point","coordinates":[-0.133236,51.353377]}},{"type":"Feature","properties":{"name":"The Library at Willesden Green","category":"libraries","osm":"way/617427470"},"geometry":{"type":"Point","coordinates":[-0.22893,51.54682]}},{"type":"Feature","properties":{"name":"The London Library","category":"libraries","osm":"way/256633845"},"geometry":{"type":"Point","coordinates":[-0.136938,51.507322]}},{"type":"Feature","properties":{"name":"The Rotherhithe Picture Research Library","category":"libraries","osm":"node/4525297951"},"geometry":{"type":"Point","coordinates":[-0.053461,51.501504]}},{"type":"Feature","properties":{"name":"The Wellcome Library","category":"libraries","osm":"node/2982634154"},"geometry":{"type":"Point","coordinates":[-0.133966,51.525977]}},{"type":"Feature","properties":{"name":"The Wiener Library for the Study of the Holocaust & Genocide","category":"libraries","osm":"way/557159382"},"geometry":{"type":"Point","coordinates":[-0.127997,51.521613]}},{"type":"Feature","properties":{"name":"The Woolwich Centre","category":"libraries","osm":"node/6248842361"},"geometry":{"type":"Point","coordinates":[0.06588,51.489539]}},{"type":"Feature","properties":{"name":"Thornton Heath Library","category":"libraries","osm":"way/1365036448"},"geometry":{"type":"Point","coordinates":[-0.105568,51.396889]}},{"type":"Feature","properties":{"name":"Tooting Library","category":"libraries","osm":"way/929008070"},"geometry":{"type":"Point","coordinates":[-0.165709,51.426561]}},{"type":"Feature","properties":{"name":"Torridon Road Library","category":"libraries","osm":"way/382781277"},"geometry":{"type":"Point","coordinates":[-0.001695,51.442316]}},{"type":"Feature","properties":{"name":"Tower Hamlets Local History Library and Archives","category":"libraries","osm":"way/612390091"},"geometry":{"type":"Point","coordinates":[-0.042298,51.523837]}},{"type":"Feature","properties":{"name":"Town House","category":"libraries","osm":"way/968602609"},"geometry":{"type":"Point","coordinates":[-0.303686,51.403991]}},{"type":"Feature","properties":{"name":"Tudor Drive Library","category":"libraries","osm":"way/662740247"},"geometry":{"type":"Point","coordinates":[-0.29748,51.426287]}},{"type":"Feature","properties":{"name":"Tudor Library","category":"libraries","osm":"node/312188169"},"geometry":{"type":"Point","coordinates":[-0.29754,51.426346]}},{"type":"Feature","properties":{"name":"Twickenham Library","category":"libraries","osm":"way/285484771"},"geometry":{"type":"Point","coordinates":[-0.327867,51.447537]}},{"type":"Feature","properties":{"name":"UCL Institute of Education Library","category":"libraries","osm":"way/789265602"},"geometry":{"type":"Point","coordinates":[-0.128633,51.523284]}},{"type":"Feature","properties":{"name":"UCL Institute of Orthopaedics Library","category":"libraries","osm":"node/13447396437"},"geometry":{"type":"Point","coordinates":[-0.307661,51.631845]}},{"type":"Feature","properties":{"name":"Una Marson Library","category":"libraries","osm":"node/13446741958"},"geometry":{"type":"Point","coordinates":[-0.086023,51.48774]}},{"type":"Feature","properties":{"name":"University of Roehampton Library","category":"libraries","osm":"way/624430550"},"geometry":{"type":"Point","coordinates":[-0.244758,51.458225]}},{"type":"Feature","properties":{"name":"Upminster Library","category":"libraries","osm":"way/93267453"},"geometry":{"type":"Point","coordinates":[0.248143,51.555141]}},{"type":"Feature","properties":{"name":"Upper Belvedere Community Library","category":"libraries","osm":"way/978209190"},"geometry":{"type":"Point","coordinates":[0.14531,51.483974]}},{"type":"Feature","properties":{"name":"Upper Norwood Library","category":"libraries","osm":"way/32349222"},"geometry":{"type":"Point","coordinates":[-0.081305,51.419948]}},{"type":"Feature","properties":{"name":"Valence Library","category":"libraries","osm":"way/93239656"},"geometry":{"type":"Point","coordinates":[0.133808,51.55854]}},{"type":"Feature","properties":{"name":"Victoria Library","category":"libraries","osm":"node/618694098"},"geometry":{"type":"Point","coordinates":[-0.147954,51.492786]}},{"type":"Feature","properties":{"name":"Victoria Music Library","category":"libraries","osm":"node/862310076"},"geometry":{"type":"Point","coordinates":[-0.147883,51.492894]}},{"type":"Feature","properties":{"name":"Wallington Library","category":"libraries","osm":"way/23269123"},"geometry":{"type":"Point","coordinates":[-0.150937,51.357871]}},{"type":"Feature","properties":{"name":"Waltham Cross Library","category":"libraries","osm":"way/866730652"},"geometry":{"type":"Point","coordinates":[-0.033593,51.686469]}},{"type":"Feature","properties":{"name":"Walthamstow Central Library","category":"libraries","osm":"node/249239141"},"geometry":{"type":"Point","coordinates":[-0.021047,51.584381]}},{"type":"Feature","properties":{"name":"Wandsworth Town Library","category":"libraries","osm":"node/11415712626"},"geometry":{"type":"Point","coordinates":[-0.191778,51.45595]}},{"type":"Feature","properties":{"name":"Wanstead Library","category":"libraries","osm":"way/1299953062"},"geometry":{"type":"Point","coordinates":[0.025293,51.575827]}},{"type":"Feature","properties":{"name":"Wantz Library","category":"libraries","osm":"way/93239660"},"geometry":{"type":"Point","coordinates":[0.160101,51.552608]}},{"type":"Feature","properties":{"name":"Wealdstone Library","category":"libraries","osm":"node/60779761"},"geometry":{"type":"Point","coordinates":[-0.334903,51.594223]}},{"type":"Feature","properties":{"name":"Welling Library","category":"libraries","osm":"way/991715082"},"geometry":{"type":"Point","coordinates":[0.106203,51.462501]}},{"type":"Feature","properties":{"name":"Wembley Library","category":"libraries","osm":"node/3833798577"},"geometry":{"type":"Point","coordinates":[-0.281096,51.558836]}},{"type":"Feature","properties":{"name":"West Barnes Library","category":"libraries","osm":"node/9601834897"},"geometry":{"type":"Point","coordinates":[-0.239126,51.395081]}},{"type":"Feature","properties":{"name":"West Drayton Library","category":"libraries","osm":"way/319491957"},"geometry":{"type":"Point","coordinates":[-0.470134,51.505724]}},{"type":"Feature","properties":{"name":"West Ealing Community Library","category":"libraries","osm":"node/250807406"},"geometry":{"type":"Point","coordinates":[-0.324592,51.509357]}},{"type":"Feature","properties":{"name":"West Greenwich Library","category":"libraries","osm":"node/12890502870"},"geometry":{"type":"Point","coordinates":[-0.011467,51.478096]}},{"type":"Feature","properties":{"name":"West Hampstead Library","category":"libraries","osm":"way/496458344"},"geometry":{"type":"Point","coordinates":[-0.191625,51.550295]}},{"type":"Feature","properties":{"name":"West Library","category":"libraries","osm":"way/1075717263"},"geometry":{"type":"Point","coordinates":[-0.116245,51.540753]}},{"type":"Feature","properties":{"name":"West Norwood Library","category":"libraries","osm":"node/6589760001"},"geometry":{"type":"Point","coordinates":[-0.103121,51.433227]}},{"type":"Feature","properties":{"name":"West Wickham Library","category":"libraries","osm":"way/544155349"},"geometry":{"type":"Point","coordinates":[-0.013935,51.375901]}},{"type":"Feature","properties":{"name":"Westminster Archives Centre","category":"libraries","osm":"way/524539979"},"geometry":{"type":"Point","coordinates":[-0.130107,51.497577]}},{"type":"Feature","properties":{"name":"Westminster Music Library","category":"libraries","osm":"node/10621539399"},"geometry":{"type":"Point","coordinates":[-0.129877,51.509679]}},{"type":"Feature","properties":{"name":"Westminster Reference Library","category":"libraries","osm":"node/639178748"},"geometry":{"type":"Point","coordinates":[-0.129873,51.50964]}},{"type":"Feature","properties":{"name":"Whitechapel Idea Store","category":"libraries","osm":"way/8081646"},"geometry":{"type":"Point","coordinates":[-0.057967,51.519915]}},{"type":"Feature","properties":{"name":"Whitton Library","category":"libraries","osm":"way/413922537"},"geometry":{"type":"Point","coordinates":[-0.359107,51.45267]}},{"type":"Feature","properties":{"name":"Wimbledon Library","category":"libraries","osm":"way/481262546"},"geometry":{"type":"Point","coordinates":[-0.208266,51.422252]}},{"type":"Feature","properties":{"name":"Winchmore Hill Library","category":"libraries","osm":"way/339708924"},"geometry":{"type":"Point","coordinates":[-0.098306,51.628465]}},{"type":"Feature","properties":{"name":"Wood End Library & Children's Centre","category":"libraries","osm":"way/794699605"},"geometry":{"type":"Point","coordinates":[-0.349714,51.552829]}},{"type":"Feature","properties":{"name":"Wood Green Central Library","category":"libraries","osm":"way/191447441"},"geometry":{"type":"Point","coordinates":[-0.109702,51.595641]}},{"type":"Feature","properties":{"name":"Wood Street Library","category":"libraries","osm":"node/13900912679"},"geometry":{"type":"Point","coordinates":[-0.004075,51.58717]}},{"type":"Feature","properties":{"name":"Woodford Green Library","category":"libraries","osm":"way/75125377"},"geometry":{"type":"Point","coordinates":[0.032425,51.607613]}},{"type":"Feature","properties":{"name":"Worcester Park Library","category":"libraries","osm":"way/901272224"},"geometry":{"type":"Point","coordinates":[-0.241483,51.378097]}},{"type":"Feature","properties":{"name":"Yeading Library","category":"libraries","osm":"way/1549211616"},"geometry":{"type":"Point","coordinates":[-0.404104,51.52086]}},{"type":"Feature","properties":{"name":"York Gardens Library","category":"libraries","osm":"way/93872293"},"geometry":{"type":"Point","coordinates":[-0.17772,51.467216]}}]}