{"type":"FeatureCollection","features":[{"type":"Feature","properties":{"name":"Anaesthesia Heritage Centre","category":"museums","osm":"node/12546753235"},"geometry":{"type":"Point","coordinates":[-0.145066,51.519431]}},{"type":"Feature","properties":{"name":"Apsley House","category":"museums","osm":"way/120316250"},"geometry":{"type":"Point","coordinates":[-0.151712,51.503488]}},{"type":"Feature","properties":{"name":"Arsenal Museum","category":"museums","osm":"node/336347265"},"geometry":{"type":"Point","coordinates":[-0.108143,51.556674]}},{"type":"Feature","properties":{"name":"Bank of England","category":"museums","osm":"node/4513341393"},"geometry":{"type":"Point","coordinates":[-0.08768,51.514197]}},{"type":"Feature","properties":{"name":"Barnet Museum","category":"museums","osm":"node/5656298167"},"geometry":{"type":"Point","coordinates":[-0.202459,51.652819]}},{"type":"Feature","properties":{"name":"Barnet Museum Displays","category":"museums","osm":"node/10172071568"},"geometry":{"type":"Point","coordinates":[-0.20345,51.655637]}},{"type":"Feature","properties":{"name":"Battle of Britain Bunker - RAF Uxbridge","category":"museums","osm":"way/132133793"},"geometry":{"type":"Point","coordinates":[-0.464903,51.540803]}},{"type":"Feature","properties":{"name":"Benjamin Franklin House","category":"museums","osm":"way/104081033"},"geometry":{"type":"Point","coordinates":[-0.124892,51.507651]}},{"type":"Feature","properties":{"name":"Bentley Priory Museum","category":"museums","osm":"node/2455741108"},"geometry":{"type":"Point","coordinates":[-0.333365,51.626481]}},{"type":"Feature","properties":{"name":"Bethlem Museum of the Mind","category":"museums","osm":"way/52088451"},"geometry":{"type":"Point","coordinates":[-0.029447,51.380933]}},{"type":"Feature","properties":{"name":"Biggin Hill Memorial Museum","category":"museums","osm":"way/227833231"},"geometry":{"type":"Point","coordinates":[0.023617,51.327136]}},{"type":"Feature","properties":{"name":"Black Cultural Archive","category":"museums","osm":"way/895323525"},"geometry":{"type":"Point","coordinates":[-0.114665,51.460511]}},{"type":"Feature","properties":{"name":"Borough Museum","category":"museums","osm":"way/1087950134"},"geometry":{"type":"Point","coordinates":[0.096066,51.486469]}},{"type":"Feature","properties":{"name":"Boston Manor","category":"museums","osm":"way/23458099"},"geometry":{"type":"Point","coordinates":[-0.31854,51.491975]}},{"type":"Feature","properties":{"name":"Bow Street Police Museum","category":"museums","osm":"node/12064506169"},"geometry":{"type":"Point","coordinates":[-0.121726,51.51349]}},{"type":"Feature","properties":{"name":"Brent Museum","category":"museums","osm":"node/5836502584"},"geometry":{"type":"Point","coordinates":[-0.228994,51.546745]}},{"type":"Feature","properties":{"name":"British Library Exhibition Space","category":"museums","osm":"node/2617232245"},"geometry":{"type":"Point","coordinates":[-0.12813,51.529598]}},{"type":"Feature","properties":{"name":"British Museum","category":"museums","osm":"relation/177044"},"geometry":{"type":"Point","coordinates":[-0.126877,51.519312]}},{"type":"Feature","properties":{"name":"British Optical Association Museum","category":"museums","osm":"node/5323721988"},"geometry":{"type":"Point","coordinates":[-0.125392,51.507892]}},{"type":"Feature","properties":{"name":"British Red Cross Museum","category":"museums","osm":"node/12551995914"},"geometry":{"type":"Point","coordinates":[-0.088524,51.519238]}},{"type":"Feature","properties":{"name":"Bromley Central Library","category":"museums","osm":"node/354890228"},"geometry":{"type":"Point","coordinates":[0.01465,51.40361]}},{"type":"Feature","properties":{"name":"Bruce Castle Museum","category":"museums","osm":"node/9921545330"},"geometry":{"type":"Point","coordinates":[-0.075367,51.599098]}},{"type":"Feature","properties":{"name":"Brunel Museum","category":"museums","osm":"way/998729298"},"geometry":{"type":"Point","coordinates":[-0.052863,51.501642]}},{"type":"Feature","properties":{"name":"Burgh House and Hampstead Museum","category":"museums","osm":"way/77250946"},"geometry":{"type":"Point","coordinates":[-0.175082,51.558203]}},{"type":"Feature","properties":{"name":"Camera Museum","category":"museums","osm":"way/554358276"},"geometry":{"type":"Point","coordinates":[-0.125213,51.517693]}},{"type":"Feature","properties":{"name":"Carlyle's House","category":"museums","osm":"way/905365405"},"geometry":{"type":"Point","coordinates":[-0.169792,51.484114]}},{"type":"Feature","properties":{"name":"Carshalton Water Tower","category":"museums","osm":"node/37124475"},"geometry":{"type":"Point","coordinates":[-0.166843,51.365066]}},{"type":"Feature","properties":{"name":"Charles Dickens Museum","category":"museums","osm":"node/334631276"},"geometry":{"type":"Point","coordinates":[-0.116323,51.523594]}},{"type":"Feature","properties":{"name":"Chelsea FC Museum and Stadium Tours","category":"museums","osm":"way/715157652"},"geometry":{"type":"Point","coordinates":[-0.191285,51.482781]}},{"type":"Feature","properties":{"name":"Chelsea Space","category":"museums","osm":"node/672741997"},"geometry":{"type":"Point","coordinates":[-0.129364,51.490151]}},{"type":"Feature","properties":{"name":"Chiswick House","category":"museums","osm":"node/679119297"},"geometry":{"type":"Point","coordinates":[-0.258592,51.483747]}},{"type":"Feature","properties":{"name":"Churchill War Rooms","category":"museums","osm":"way/197206542"},"geometry":{"type":"Point","coordinates":[-0.129251,51.502209]}},{"type":"Feature","properties":{"name":"Clapham South Deep Level Shelter","category":"museums","osm":"way/432853031"},"geometry":{"type":"Point","coordinates":[-0.147985,51.451733]}},{"type":"Feature","properties":{"name":"Clink Prison Museum","category":"museums","osm":"way/82770797"},"geometry":{"type":"Point","coordinates":[-0.091898,51.506972]}},{"type":"Feature","properties":{"name":"Crick Exhibition","category":"museums","osm":"node/5029665757"},"geometry":{"type":"Point","coordinates":[-0.127968,51.531669]}},{"type":"Feature","properties":{"name":"Crofton Roman villa","category":"museums","osm":"way/250709622"},"geometry":{"type":"Point","coordinates":[0.087897,51.372957]}},{"type":"Feature","properties":{"name":"Crossness Pumping Station","category":"museums","osm":"way/403976017"},"geometry":{"type":"Point","coordinates":[0.138387,51.509088]}},{"type":"Feature","properties":{"name":"Crystal Palace High Level Station Entry","category":"museums","osm":"relation/1692406"},"geometry":{"type":"Point","coordinates":[-0.076973,51.421992]}},{"type":"Feature","properties":{"name":"Crystal Palace Museum","category":"museums","osm":"way/4960905"},"geometry":{"type":"Point","coordinates":[-0.076617,51.419718]}},{"type":"Feature","properties":{"name":"Cutty Sark","category":"museums","osm":"way/25608663"},"geometry":{"type":"Point","coordinates":[-0.009569,51.482858]}},{"type":"Feature","properties":{"name":"Dairy Wing","category":"museums","osm":"way/174651219"},"geometry":{"type":"Point","coordinates":[0.066096,51.572147]}},{"type":"Feature","properties":{"name":"Dennis Severs' House","category":"museums","osm":"node/2244751330"},"geometry":{"type":"Point","coordinates":[-0.07779,51.520943]}},{"type":"Feature","properties":{"name":"Design Museum","category":"museums","osm":"way/640554759"},"geometry":{"type":"Point","coordinates":[-0.200174,51.499887]}},{"type":"Feature","properties":{"name":"Dorich House Museum","category":"museums","osm":"way/1315748829"},"geometry":{"type":"Point","coordinates":[-0.263029,51.433346]}},{"type":"Feature","properties":{"name":"Dr Johnson's House","category":"museums","osm":"way/43706245"},"geometry":{"type":"Point","coordinates":[-0.108166,51.514909]}},{"type":"Feature","properties":{"name":"Dr. Johnsons House","category":"museums","osm":"way/866222968"},"geometry":{"type":"Point","coordinates":[-0.108164,51.515041]}},{"type":"Feature","properties":{"name":"Dugdale Centre Museum","category":"museums","osm":"node/3196157132"},"geometry":{"type":"Point","coordinates":[-0.080407,51.650433]}},{"type":"Feature","properties":{"name":"Eastbury Manor House","category":"museums","osm":"way/870892055"},"geometry":{"type":"Point","coordinates":[0.099432,51.534307]}},{"type":"Feature","properties":{"name":"Eel Pie Island Museum","category":"museums","osm":"way/706967305"},"geometry":{"type":"Point","coordinates":[-0.325602,51.44837]}},{"type":"Feature","properties":{"name":"Elephant West","category":"museums","osm":"way/117285341"},"geometry":{"type":"Point","coordinates":[-0.224645,51.512351]}},{"type":"Feature","properties":{"name":"Faraday Museum","category":"museums","osm":"node/12556923049"},"geometry":{"type":"Point","coordinates":[-0.142279,51.509702]}},{"type":"Feature","properties":{"name":"Fashion and Textile Museum","category":"museums","osm":"way/101154182"},"geometry":{"type":"Point","coordinates":[-0.081666,51.501187]}},{"type":"Feature","properties":{"name":"Fenton House","category":"museums","osm":"way/110388485"},"geometry":{"type":"Point","coordinates":[-0.179682,51.558882]}},{"type":"Feature","properties":{"name":"Fitzroy House","category":"museums","osm":"node/2622783204"},"geometry":{"type":"Point","coordinates":[-0.139115,51.522523]}},{"type":"Feature","properties":{"name":"Ford Heritage Centre","category":"museums","osm":"way/865382603"},"geometry":{"type":"Point","coordinates":[0.150883,51.520913]}},{"type":"Feature","properties":{"name":"Forty Hall Museum","category":"museums","osm":"way/4993790"},"geometry":{"type":"Point","coordinates":[-0.068247,51.669641]}},{"type":"Feature","properties":{"name":"Foundling Museum","category":"museums","osm":"way/28269975"},"geometry":{"type":"Point","coordinates":[-0.121673,51.525214]}},{"type":"Feature","properties":{"name":"Freud Museum London","category":"museums","osm":"way/103107384"},"geometry":{"type":"Point","coordinates":[-0.177393,51.548311]}},{"type":"Feature","properties":{"name":"Fulham Palace","category":"museums","osm":"relation/3609581"},"geometry":{"type":"Point","coordinates":[-0.215654,51.470542]}},{"type":"Feature","properties":{"name":"Fusiliers London Volunteer Museum","category":"museums","osm":"node/12520603996"},"geometry":{"type":"Point","coordinates":[-0.155364,51.439583]}},{"type":"Feature","properties":{"name":"Fusiliers Museum","category":"museums","osm":"node/13958592487"},"geometry":{"type":"Point","coordinates":[-0.075258,51.508224]}},{"type":"Feature","properties":{"name":"Garden Museum","category":"museums","osm":"way/117047225"},"geometry":{"type":"Point","coordinates":[-0.119975,51.494895]}},{"type":"Feature","properties":{"name":"Gordon Museum","category":"museums","osm":"node/10270502651"},"geometry":{"type":"Point","coordinates":[-0.089571,51.503563]}},{"type":"Feature","properties":{"name":"Grant Museum of Zoology","category":"museums","osm":"node/1216160782"},"geometry":{"type":"Point","coordinates":[-0.134266,51.523732]}},{"type":"Feature","properties":{"name":"Gunnersbury Park Museum","category":"museums","osm":"way/25911545"},"geometry":{"type":"Point","coordinates":[-0.286433,51.499542]}},{"type":"Feature","properties":{"name":"Hackney Museum","category":"museums","osm":"node/1558137005"},"geometry":{"type":"Point","coordinates":[-0.055911,51.544491]}},{"type":"Feature","properties":{"name":"Handel & Hendrix","category":"museums","osm":"node/1493424622"},"geometry":{"type":"Point","coordinates":[-0.145884,51.512942]}},{"type":"Feature","properties":{"name":"Hangar 1","category":"museums","osm":"way/4417253"},"geometry":{"type":"Point","coordinates":[-0.240142,51.597282]}},{"type":"Feature","properties":{"name":"Harrow Museum","category":"museums","osm":"way/559262652"},"geometry":{"type":"Point","coordinates":[-0.354377,51.594583]}},{"type":"Feature","properties":{"name":"Havering Museum","category":"museums","osm":"node/9723470215"},"geometry":{"type":"Point","coordinates":[0.179347,51.577842]}},{"type":"Feature","properties":{"name":"Heath Robinson Museum","category":"museums","osm":"way/438245354"},"geometry":{"type":"Point","coordinates":[-0.386685,51.592715]}},{"type":"Feature","properties":{"name":"Highgate School Museum","category":"museums","osm":"node/3421853547"},"geometry":{"type":"Point","coordinates":[-0.148753,51.572286]}},{"type":"Feature","properties":{"name":"Hogarth's House","category":"museums","osm":"way/29333621"},"geometry":{"type":"Point","coordinates":[-0.255238,51.486911]}},{"type":"Feature","properties":{"name":"Honeywood Museum","category":"museums","osm":"node/12560275016"},"geometry":{"type":"Point","coordinates":[-0.165079,51.36523]}},{"type":"Feature","properties":{"name":"Honourable Artillery Company Museum","category":"museums","osm":"node/13092342387"},"geometry":{"type":"Point","coordinates":[-0.088397,51.523015]}},{"type":"Feature","properties":{"name":"Horniman Museum","category":"museums","osm":"way/210442848"},"geometry":{"type":"Point","coordinates":[-0.06099,51.441029]}},{"type":"Feature","properties":{"name":"Horniman Museum and Gardens","category":"museums","osm":"way/5095245"},"geometry":{"type":"Point","coordinates":[-0.061687,51.442194]}},{"type":"Feature","properties":{"name":"Household Cavalry Museum","category":"museums","osm":"node/5071252726"},"geometry":{"type":"Point","coordinates":[-0.127247,51.50501]}},{"type":"Feature","properties":{"name":"Hunterian Museum","category":"museums","osm":"node/3349882188"},"geometry":{"type":"Point","coordinates":[-0.11587,51.515283]}},{"type":"Feature","properties":{"name":"Imperial War Museum London","category":"museums","osm":"way/8614496"},"geometry":{"type":"Point","coordinates":[-0.108591,51.495801]}},{"type":"Feature","properties":{"name":"International Heritage Centre","category":"museums","osm":"node/5610431353"},"geometry":{"type":"Point","coordinates":[-0.088509,51.467636]}},{"type":"Feature","properties":{"name":"Islington Museum","category":"museums","osm":"node/1588957563"},"geometry":{"type":"Point","coordinates":[-0.1045,51.52649]}},{"type":"Feature","properties":{"name":"Jack the Ripper Museum","category":"museums","osm":"way/257192112"},"geometry":{"type":"Point","coordinates":[-0.06791,51.510784]}},{"type":"Feature","properties":{"name":"Kempton Steam Museum","category":"museums","osm":"way/542043780"},"geometry":{"type":"Point","coordinates":[-0.404625,51.425851]}},{"type":"Feature","properties":{"name":"Kingston Museum","category":"museums","osm":"node/632558518"},"geometry":{"type":"Point","coordinates":[-0.300254,51.409575]}},{"type":"Feature","properties":{"name":"Kirkaldy Testing Museum","category":"museums","osm":"way/82459230"},"geometry":{"type":"Point","coordinates":[-0.101544,51.505966]}},{"type":"Feature","properties":{"name":"Leighton House Museum","category":"museums","osm":"way/115594423"},"geometry":{"type":"Point","coordinates":[-0.203077,51.498613]}},{"type":"Feature","properties":{"name":"Lightroom","category":"museums","osm":"node/11008671201"},"geometry":{"type":"Point","coordinates":[-0.126007,51.53743]}},{"type":"Feature","properties":{"name":"Little Holland House","category":"museums","osm":"node/269236138"},"geometry":{"type":"Point","coordinates":[-0.170649,51.355303]}},{"type":"Feature","properties":{"name":"London Canal Museum","category":"museums","osm":"way/190831613"},"geometry":{"type":"Point","coordinates":[-0.120207,51.534219]}},{"type":"Feature","properties":{"name":"London Fire Brigade Pop-up Museum","category":"museums","osm":"way/170386148"},"geometry":{"type":"Point","coordinates":[-0.119774,51.492587]}},{"type":"Feature","properties":{"name":"London Museum Docklands","category":"museums","osm":"way/140144139"},"geometry":{"type":"Point","coordinates":[-0.023872,51.507594]}},{"type":"Feature","properties":{"name":"London Museum of Water and Steam","category":"museums","osm":"way/838163904"},"geometry":{"type":"Point","coordinates":[-0.290406,51.488986]}},{"type":"Feature","properties":{"name":"London Sewing Machine Museum","category":"museums","osm":"node/8779699675"},"geometry":{"type":"Point","coordinates":[-0.15871,51.436556]}},{"type":"Feature","properties":{"name":"London Transport Museum","category":"museums","osm":"way/44599803"},"geometry":{"type":"Point","coordinates":[-0.121221,51.511987]}},{"type":"Feature","properties":{"name":"Lord's MCC Cricket Museum","category":"museums","osm":"node/6525008514"},"geometry":{"type":"Point","coordinates":[-0.174302,51.528945]}},{"type":"Feature","properties":{"name":"Madame Tussauds","category":"museums","osm":"way/684695074"},"geometry":{"type":"Point","coordinates":[-0.154874,51.5229]}},{"type":"Feature","properties":{"name":"Mail Rail Museum","category":"museums","osm":"node/5207251549"},"geometry":{"type":"Point","coordinates":[-0.113267,51.524573]}},{"type":"Feature","properties":{"name":"Manor Farm Complex","category":"museums","osm":"node/336351665"},"geometry":{"type":"Point","coordinates":[-0.427532,51.578726]}},{"type":"Feature","properties":{"name":"Manor Farm House","category":"museums","osm":"way/627773530"},"geometry":{"type":"Point","coordinates":[-0.427301,51.578765]}},{"type":"Feature","properties":{"name":"Marble Hill House","category":"museums","osm":"way/24011012"},"geometry":{"type":"Point","coordinates":[-0.313318,51.449477]}},{"type":"Feature","properties":{"name":"Markfield Beam Engine & Museum","category":"museums","osm":"way/115554282"},"geometry":{"type":"Point","coordinates":[-0.061485,51.58182]}},{"type":"Feature","properties":{"name":"MathsWorld","category":"museums","osm":"node/13261198401"},"geometry":{"type":"Point","coordinates":[-0.103069,51.506192]}},{"type":"Feature","properties":{"name":"MCC Museum and Tour","category":"museums","osm":"node/8983812591"},"geometry":{"type":"Point","coordinates":[-0.173141,51.528275]}},{"type":"Feature","properties":{"name":"Memorial Scrolls Trust","category":"museums","osm":"node/5412585922"},"geometry":{"type":"Point","coordinates":[-0.166578,51.501299]}},{"type":"Feature","properties":{"name":"Merton Priory Chapter House Museum","category":"museums","osm":"way/658616856"},"geometry":{"type":"Point","coordinates":[-0.181711,51.414154]}},{"type":"Feature","properties":{"name":"Metropolitan Police Museum","category":"museums","osm":"node/11165695049"},"geometry":{"type":"Point","coordinates":[0.102418,51.433669]}},{"type":"Feature","properties":{"name":"Migration Museum","category":"museums","osm":"node/12101135101"},"geometry":{"type":"Point","coordinates":[-0.011813,51.461437]}},{"type":"Feature","properties":{"name":"Moco Museum","category":"museums","osm":"node/13256051041"},"geometry":{"type":"Point","coordinates":[-0.159238,51.5135]}},{"type":"Feature","properties":{"name":"Museum of Brands","category":"museums","osm":"way/402345096"},"geometry":{"type":"Point","coordinates":[-0.210999,51.51625]}},{"type":"Feature","properties":{"name":"Museum of Croydon","category":"museums","osm":"node/2043098448"},"geometry":{"type":"Point","coordinates":[-0.099252,51.372053]}},{"type":"Feature","properties":{"name":"Museum of Freemasonry","category":"museums","osm":"node/12541989407"},"geometry":{"type":"Point","coordinates":[-0.121267,51.515009]}},{"type":"Feature","properties":{"name":"Museum of Harrow Life","category":"museums","osm":"way/185076070"},"geometry":{"type":"Point","coordinates":[-0.335334,51.57377]}},{"type":"Feature","properties":{"name":"Museum of Homelessness","category":"museums","osm":"node/11944559638"},"geometry":{"type":"Point","coordinates":[-0.09665,51.570586]}},{"type":"Feature","properties":{"name":"Museum of Methodism","category":"museums","osm":"node/734057156"},"geometry":{"type":"Point","coordinates":[-0.086552,51.523817]}},{"type":"Feature","properties":{"name":"Museum of Richmond","category":"museums","osm":"node/8988952531"},"geometry":{"type":"Point","coordinates":[-0.306481,51.458899]}},{"type":"Feature","properties":{"name":"Museum of Shakespeare","category":"museums","osm":"way/1421647806"},"geometry":{"type":"Point","coordinates":[-0.080227,51.522802]}},{"type":"Feature","properties":{"name":"Museum of the Home","category":"museums","osm":"way/706183718"},"geometry":{"type":"Point","coordinates":[-0.076444,51.531508]}},{"type":"Feature","properties":{"name":"Museum of the Order of St John","category":"museums","osm":"node/1686474834"},"geometry":{"type":"Point","coordinates":[-0.102556,51.522006]}},{"type":"Feature","properties":{"name":"Museum of Wimbledon","category":"museums","osm":"way/469771543"},"geometry":{"type":"Point","coordinates":[-0.216655,51.423343]}},{"type":"Feature","properties":{"name":"Museum Of Youth Culture","category":"museums","osm":"node/13962235901"},"geometry":{"type":"Point","coordinates":[-0.135871,51.540025]}},{"type":"Feature","properties":{"name":"National Army Museum","category":"museums","osm":"way/10807015"},"geometry":{"type":"Point","coordinates":[-0.160287,51.48624]}},{"type":"Feature","properties":{"name":"National Maritime Museum","category":"museums","osm":"way/183090506"},"geometry":{"type":"Point","coordinates":[-0.005405,51.480783]}},{"type":"Feature","properties":{"name":"Natural History Museum","category":"museums","osm":"way/24436446"},"geometry":{"type":"Point","coordinates":[-0.176022,51.496455]}},{"type":"Feature","properties":{"name":"Old Operating Theatre Museum","category":"museums","osm":"way/90404358"},"geometry":{"type":"Point","coordinates":[-0.088515,51.505047]}},{"type":"Feature","properties":{"name":"Old Royal Naval College Visitor Centre","category":"museums","osm":"node/12883274419"},"geometry":{"type":"Point","coordinates":[-0.008625,51.482835]}},{"type":"Feature","properties":{"name":"Paradox Museum","category":"museums","osm":"node/3357928873"},"geometry":{"type":"Point","coordinates":[-0.163914,51.499675]}},{"type":"Feature","properties":{"name":"People's Museum Somers Town","category":"museums","osm":"node/13153838246"},"geometry":{"type":"Point","coordinates":[-0.130948,51.531044]}},{"type":"Feature","properties":{"name":"Petrie Museum of Egyptian Archeology","category":"museums","osm":"way/27703085"},"geometry":{"type":"Point","coordinates":[-0.132984,51.523578]}},{"type":"Feature","properties":{"name":"Pitzhanger Manor House and Gallery","category":"museums","osm":"node/27408513"},"geometry":{"type":"Point","coordinates":[-0.307107,51.510886]}},{"type":"Feature","properties":{"name":"Polish Institute and Sikorski Museum","category":"museums","osm":"way/640097060"},"geometry":{"type":"Point","coordinates":[-0.172863,51.501436]}},{"type":"Feature","properties":{"name":"Pram Shed","category":"museums","osm":"way/627773532"},"geometry":{"type":"Point","coordinates":[-0.427395,51.578545]}},{"type":"Feature","properties":{"name":"Prince Henry's Room","category":"museums","osm":"way/161420186"},"geometry":{"type":"Point","coordinates":[-0.110916,51.513729]}},{"type":"Feature","properties":{"name":"Purfleet Heritage Centre","category":"museums","osm":"way/307495539"},"geometry":{"type":"Point","coordinates":[0.22932,51.48442]}},{"type":"Feature","properties":{"name":"Queen's House","category":"museums","osm":"relation/15327162"},"geometry":{"type":"Point","coordinates":[-0.003748,51.481188]}},{"type":"Feature","properties":{"name":"Queer Britain","category":"museums","osm":"node/10240945793"},"geometry":{"type":"Point","coordinates":[-0.123905,51.535697]}},{"type":"Feature","properties":{"name":"Quentin Blake Centre for Illustration","category":"museums","osm":"node/13583467062"},"geometry":{"type":"Point","coordinates":[-0.107645,51.528594]}},{"type":"Feature","properties":{"name":"RAF Hornchurch Heritage Centre","category":"museums","osm":"way/863398614"},"geometry":{"type":"Point","coordinates":[0.215991,51.545871]}},{"type":"Feature","properties":{"name":"RAF Museum","category":"museums","osm":"way/118906069"},"geometry":{"type":"Point","coordinates":[-0.239102,51.597981]}},{"type":"Feature","properties":{"name":"Ragged School Museum","category":"museums","osm":"way/388845373"},"geometry":{"type":"Point","coordinates":[-0.035738,51.518793]}},{"type":"Feature","properties":{"name":"Rainham Hall","category":"museums","osm":"way/182185331"},"geometry":{"type":"Point","coordinates":[0.190792,51.517936]}},{"type":"Feature","properties":{"name":"Red House","category":"museums","osm":"way/209281563"},"geometry":{"type":"Point","coordinates":[0.13037,51.455406]}},{"type":"Feature","properties":{"name":"Redbridge Museum","category":"museums","osm":"node/724398596"},"geometry":{"type":"Point","coordinates":[0.075381,51.558088]}},{"type":"Feature","properties":{"name":"Restored K6 phone booth","category":"museums","osm":"node/8071803025"},"geometry":{"type":"Point","coordinates":[-0.125752,51.529432]}},{"type":"Feature","properties":{"name":"RIBA Architecture Study Rooms","category":"museums","osm":"node/12542127738"},"geometry":{"type":"Point","coordinates":[-0.173469,51.497306]}},{"type":"Feature","properties":{"name":"RIBA Library","category":"museums","osm":"node/12539364474"},"geometry":{"type":"Point","coordinates":[-0.14481,51.521377]}},{"type":"Feature","properties":{"name":"Royal Academy","category":"museums","osm":"way/96237005"},"geometry":{"type":"Point","coordinates":[-0.140134,51.509741]}},{"type":"Feature","properties":{"name":"Royal Academy of Arts","category":"museums","osm":"way/31510288"},"geometry":{"type":"Point","coordinates":[-0.139698,51.509264]}},{"type":"Feature","properties":{"name":"Royal Academy of Music Museum","category":"museums","osm":"node/6414630967"},"geometry":{"type":"Point","coordinates":[-0.152271,51.523372]}},{"type":"Feature","properties":{"name":"Royal College of Music Museum","category":"museums","osm":"node/12565855519"},"geometry":{"type":"Point","coordinates":[-0.177484,51.49964]}},{"type":"Feature","properties":{"name":"Royal College of Physicians Museum","category":"museums","osm":"node/6307248821"},"geometry":{"type":"Point","coordinates":[-0.144788,51.525778]}},{"type":"Feature","properties":{"name":"Royal London Hospital Museum","category":"museums","osm":"node/12557437165"},"geometry":{"type":"Point","coordinates":[-0.060486,51.51727]}},{"type":"Feature","properties":{"name":"Royal Observatory Greenwich","category":"museums","osm":"way/268533448"},"geometry":{"type":"Point","coordinates":[-0.001176,51.477347]}},{"type":"Feature","properties":{"name":"Royal Pharmaceutical Society Museum","category":"museums","osm":"node/12557420113"},"geometry":{"type":"Point","coordinates":[-0.068357,51.50902]}},{"type":"Feature","properties":{"name":"RSA Interpretation Centre","category":"museums","osm":"node/7898767503"},"geometry":{"type":"Point","coordinates":[-0.016494,51.66829]}},{"type":"Feature","properties":{"name":"Sambourne House","category":"museums","osm":"way/129377070"},"geometry":{"type":"Point","coordinates":[-0.196874,51.500485]}},{"type":"Feature","properties":{"name":"Sambrook's Brewery Heritage Centre & Beershop","category":"museums","osm":"way/1182358158"},"geometry":{"type":"Point","coordinates":[-0.192723,51.457094]}},{"type":"Feature","properties":{"name":"Science Museum","category":"museums","osm":"way/27765411"},"geometry":{"type":"Point","coordinates":[-0.176231,51.497397]}},{"type":"Feature","properties":{"name":"Sherlock Holmes Museum","category":"museums","osm":"node/3916613190"},"geometry":{"type":"Point","coordinates":[-0.158474,51.523763]}},{"type":"Feature","properties":{"name":"Sir John Soane's Museum","category":"museums","osm":"way/61453261"},"geometry":{"type":"Point","coordinates":[-0.117469,51.517075]}},{"type":"Feature","properties":{"name":"Sir Keith Park Operations Building","category":"museums","osm":"way/165892475"},"geometry":{"type":"Point","coordinates":[-0.414238,51.557679]}},{"type":"Feature","properties":{"name":"SOAS Gallery","category":"museums","osm":"node/1731830617"},"geometry":{"type":"Point","coordinates":[-0.128733,51.521796]}},{"type":"Feature","properties":{"name":"South London Botanical Institute","category":"museums","osm":"way/843840821"},"geometry":{"type":"Point","coordinates":[-0.105085,51.442183]}},{"type":"Feature","properties":{"name":"Spike Milligan Museum","category":"museums","osm":"way/184767532"},"geometry":{"type":"Point","coordinates":[-0.194576,51.596609]}},{"type":"Feature","properties":{"name":"St Bartholomew's Hospital museum","category":"museums","osm":"node/4354554594"},"geometry":{"type":"Point","coordinates":[-0.100473,51.517723]}},{"type":"Feature","properties":{"name":"Story Box","category":"museums","osm":"way/844314640"},"geometry":{"type":"Point","coordinates":[0.008395,51.507657]}},{"type":"Feature","properties":{"name":"The Brown Collection","category":"museums","osm":"way/134060144"},"geometry":{"type":"Point","coordinates":[-0.150462,51.517369]}},{"type":"Feature","properties":{"name":"The Cartoon Museum","category":"museums","osm":"node/7261799916"},"geometry":{"type":"Point","coordinates":[-0.138581,51.517577]}},{"type":"Feature","properties":{"name":"The Charterhouse","category":"museums","osm":"node/5247197725"},"geometry":{"type":"Point","coordinates":[-0.099784,51.521464]}},{"type":"Feature","properties":{"name":"The Cinema Museum","category":"museums","osm":"way/306698053"},"geometry":{"type":"Point","coordinates":[-0.105042,51.49238]}},{"type":"Feature","properties":{"name":"The Clockmakers' Museum","category":"museums","osm":"node/4513756124"},"geometry":{"type":"Point","coordinates":[-0.176276,51.497116]}},{"type":"Feature","properties":{"name":"The Ealing Doll House","category":"museums","osm":"way/1218979211"},"geometry":{"type":"Point","coordinates":[-0.305059,51.515826]}},{"type":"Feature","properties":{"name":"The Fan Museum","category":"museums","osm":"node/910356813"},"geometry":{"type":"Point","coordinates":[-0.008069,51.479098]}},{"type":"Feature","properties":{"name":"The Faraday Effect","category":"museums","osm":"way/844314632"},"geometry":{"type":"Point","coordinates":[0.008282,51.507655]}},{"type":"Feature","properties":{"name":"The Florence Nightingale Museum","category":"museums","osm":"node/5741257603"},"geometry":{"type":"Point","coordinates":[-0.11767,51.500007]}},{"type":"Feature","properties":{"name":"The Guards Museum","category":"museums","osm":"node/4749096025"},"geometry":{"type":"Point","coordinates":[-0.136125,51.500048]}},{"type":"Feature","properties":{"name":"The Jewish Museum","category":"museums","osm":"way/232592410"},"geometry":{"type":"Point","coordinates":[-0.144584,51.537304]}},{"type":"Feature","properties":{"name":"The King's Gallery","category":"museums","osm":"node/1289223308"},"geometry":{"type":"Point","coordinates":[-0.142551,51.499828]}},{"type":"Feature","properties":{"name":"The Mosaic Rooms","category":"museums","osm":"node/7715719671"},"geometry":{"type":"Point","coordinates":[-0.195378,51.494875]}},{"type":"Feature","properties":{"name":"The Museum of Immigration and Diversity at 19 Princelet Street","category":"museums","osm":"node/2102604123"},"geometry":{"type":"Point","coordinates":[-0.072486,51.519846]}},{"type":"Feature","properties":{"name":"The Museum of Philatelic History","category":"museums","osm":"way/620603565"},"geometry":{"type":"Point","coordinates":[-0.150063,51.521461]}},{"type":"Feature","properties":{"name":"The Musical Museum","category":"museums","osm":"way/129870347"},"geometry":{"type":"Point","coordinates":[-0.293134,51.487867]}},{"type":"Feature","properties":{"name":"The Postal Museum","category":"museums","osm":"node/4973585223"},"geometry":{"type":"Point","coordinates":[-0.113998,51.524724]}},{"type":"Feature","properties":{"name":"The Prince Philip Maritime Collections Centre","category":"museums","osm":"node/13608533466"},"geometry":{"type":"Point","coordinates":[0.030999,51.461762]}},{"type":"Feature","properties":{"name":"The Temple","category":"museums","osm":"way/109883852"},"geometry":{"type":"Point","coordinates":[0.042228,51.567808]}},{"type":"Feature","properties":{"name":"The Viktor Wynd Museum of Curiosities, Fine Art & Natural History","category":"museums","osm":"node/4973886525"},"geometry":{"type":"Point","coordinates":[-0.057643,51.534699]}},{"type":"Feature","properties":{"name":"The Wallace Collection","category":"museums","osm":"node/7046046492"},"geometry":{"type":"Point","coordinates":[-0.153066,51.517509]}},{"type":"Feature","properties":{"name":"The Wolfson Ark Gallery","category":"museums","osm":"way/1182593916"},"geometry":{"type":"Point","coordinates":[-0.119863,51.494968]}},{"type":"Feature","properties":{"name":"Toll House","category":"museums","osm":"way/1426613511"},"geometry":{"type":"Point","coordinates":[-0.311314,51.483134]}},{"type":"Feature","properties":{"name":"Topolski Century","category":"museums","osm":"node/472152158"},"geometry":{"type":"Point","coordinates":[-0.115651,51.504803]}},{"type":"Feature","properties":{"name":"Tower Bridge Engine Rooms","category":"museums","osm":"way/1002807722"},"geometry":{"type":"Point","coordinates":[-0.076117,51.504042]}},{"type":"Feature","properties":{"name":"Tower Bridge Exhibition","category":"museums","osm":"way/367657974"},"geometry":{"type":"Point","coordinates":[-0.075299,51.505898]}},{"type":"Feature","properties":{"name":"Transport Museum Depot","category":"museums","osm":"way/43634102"},"geometry":{"type":"Point","coordinates":[-0.281375,51.504666]}},{"type":"Feature","properties":{"name":"Trent Park House of Secrets","category":"museums","osm":"node/14125912357"},"geometry":{"type":"Point","coordinates":[-0.134882,51.660047]}},{"type":"Feature","properties":{"name":"Twickenham Museum","category":"museums","osm":"node/10314624068"},"geometry":{"type":"Point","coordinates":[-0.325618,51.44682]}},{"type":"Feature","properties":{"name":"Twist Museum","category":"museums","osm":"node/11346255514"},"geometry":{"type":"Point","coordinates":[-0.143008,51.515332]}},{"type":"Feature","properties":{"name":"Two Temple Place","category":"museums","osm":"way/98485763"},"geometry":{"type":"Point","coordinates":[-0.112284,51.51165]}},{"type":"Feature","properties":{"name":"UCL Art Museum","category":"museums","osm":"node/12561372014"},"geometry":{"type":"Point","coordinates":[-0.1332,51.524386]}},{"type":"Feature","properties":{"name":"Upminster Tithe Barn","category":"museums","osm":"way/206348902"},"geometry":{"type":"Point","coordinates":[0.256968,51.566826]}},{"type":"Feature","properties":{"name":"V&A David Bowie Centre","category":"museums","osm":"node/12278757768"},"geometry":{"type":"Point","coordinates":[-0.021067,51.546586]}},{"type":"Feature","properties":{"name":"V&A East Museum","category":"museums","osm":"way/1042201707"},"geometry":{"type":"Point","coordinates":[-0.013566,51.541871]}},{"type":"Feature","properties":{"name":"V&A East Storehouse","category":"museums","osm":"node/12278757767"},"geometry":{"type":"Point","coordinates":[-0.021183,51.546437]}},{"type":"Feature","properties":{"name":"Vagina Museum","category":"museums","osm":"node/12076130969"},"geometry":{"type":"Point","coordinates":[-0.057045,51.530368]}},{"type":"Feature","properties":{"name":"Valence House","category":"museums","osm":"way/371156655"},"geometry":{"type":"Point","coordinates":[0.134292,51.558238]}},{"type":"Feature","properties":{"name":"Vestry House Museum","category":"museums","osm":"way/23941901"},"geometry":{"type":"Point","coordinates":[-0.012887,51.584058]}},{"type":"Feature","properties":{"name":"Victoria and Albert Museum","category":"museums","osm":"relation/29795"},"geometry":{"type":"Point","coordinates":[-0.172115,51.496911]}},{"type":"Feature","properties":{"name":"Walthamstow Pumphouse Museum","category":"museums","osm":"way/82785023"},"geometry":{"type":"Point","coordinates":[-0.034621,51.576759]}},{"type":"Feature","properties":{"name":"Wandle Industrial Museum","category":"museums","osm":"way/539803271"},"geometry":{"type":"Point","coordinates":[-0.168066,51.402275]}},{"type":"Feature","properties":{"name":"Waterloo Block","category":"museums","osm":"way/369136185"},"geometry":{"type":"Point","coordinates":[-0.076021,51.508605]}},{"type":"Feature","properties":{"name":"Wellcome Collection","category":"museums","osm":"node/2617821322"},"geometry":{"type":"Point","coordinates":[-0.13402,51.525974]}},{"type":"Feature","properties":{"name":"Whitehall","category":"museums","osm":"node/425669383"},"geometry":{"type":"Point","coordinates":[-0.217133,51.359427]}},{"type":"Feature","properties":{"name":"Whitewebbs Museum of Transport","category":"museums","osm":"node/872531905"},"geometry":{"type":"Point","coordinates":[-0.094976,51.681674]}},{"type":"Feature","properties":{"name":"William Morris Gallery","category":"museums","osm":"way/181770911"},"geometry":{"type":"Point","coordinates":[-0.020294,51.591296]}},{"type":"Feature","properties":{"name":"William Morris Society","category":"museums","osm":"node/13258082258"},"geometry":{"type":"Point","coordinates":[-0.235549,51.490547]}},{"type":"Feature","properties":{"name":"Wimbledon Lawn Tennis Museum","category":"museums","osm":"way/121750021"},"geometry":{"type":"Point","coordinates":[-0.213428,51.434752]}},{"type":"Feature","properties":{"name":"Wimbledon Windmill Museum","category":"museums","osm":"way/411460232"},"geometry":{"type":"Point","coordinates":[-0.231617,51.437656]}},{"type":"Feature","properties":{"name":"Women’s Museum","category":"museums","osm":"node/13873598201"},"geometry":{"type":"Point","coordinates":[0.073266,51.535195]}},{"type":"Feature","properties":{"name":"World Rugby Museum","category":"museums","osm":"node/12544691342"},"geometry":{"type":"Point","coordinates":[-0.341437,51.454951]}},{"type":"Feature","properties":{"name":"Young V&A","category":"museums","osm":"way/10790633"},"geometry":{"type":"Point","coordinates":[-0.054871,51.52906]}}]}